fascia,town,suburb,county,postcode,lon,lat,
Aldi,Lancaster,Central Lancaster,Lancashire,LA1 1UJ,-2.802332153,54.0442079,"{ ""tooltip"": ""Aldi<br/>Lancaster<br/>Lancashire<br/>LA1 1UJ"", ""geometry"": { ""coordinates"": [ -2.802332153, 54.0442079 ] } },"
Aldi,Morecambe,Sandylands,Lancashire,LA4 4DB,-2.875847912,54.06965932,"{ ""tooltip"": ""Aldi<br/>Morecambe<br/>Lancashire<br/>LA4 4DB"", ""geometry"": { ""coordinates"": [ -2.875847912, 54.06965932 ] } },"
Aldi,Lancaster,Skerton,Lancashire,LA1 5JB,-2.819094498,54.05662648,"{ ""tooltip"": ""Aldi<br/>Lancaster<br/>Lancashire<br/>LA1 5JB"", ""geometry"": { ""coordinates"": [ -2.819094498, 54.05662648 ] } },"
Aldi,Carnforth,,Lancashire,LA5 9JZ,-2.767040787,54.1304889,"{ ""tooltip"": ""Aldi<br/>Carnforth<br/>Lancashire<br/>LA5 9JZ"", ""geometry"": { ""coordinates"": [ -2.767040787, 54.1304889 ] } },"
Aldi,Barnoldswick,,Lancashire,BB18 5DD,-2.184782157,53.92169584,"{ ""tooltip"": ""Aldi<br/>Barnoldswick<br/>Lancashire<br/>BB18 5DD"", ""geometry"": { ""coordinates"": [ -2.184782157, 53.92169584 ] } },"
Aldi,Colne,,Lancashire,BB8 9HH,-2.169265436,53.85936988,"{ ""tooltip"": ""Aldi<br/>Colne<br/>Lancashire<br/>BB8 9HH"", ""geometry"": { ""coordinates"": [ -2.169265436, 53.85936988 ] } },"
Aldi,Rawtenstall,,Lancashire,BB4 6HW,-2.298725647,53.69743872,"{ ""tooltip"": ""Aldi<br/>Rawtenstall<br/>Lancashire<br/>BB4 6HW"", ""geometry"": { ""coordinates"": [ -2.298725647, 53.69743872 ] } },"
Aldi,Burnley,Brunshaw,Lancashire,BB10 4AA,-2.233195179,53.7858163,"{ ""tooltip"": ""Aldi<br/>Burnley<br/>Lancashire<br/>BB10 4AA"", ""geometry"": { ""coordinates"": [ -2.233195179, 53.7858163 ] } },"
Aldi,Chorley,Astley Village,Lancashire,PR6 0HU,-2.627681802,53.6616862,"{ ""tooltip"": ""Aldi<br/>Chorley<br/>Lancashire<br/>PR6 0HU"", ""geometry"": { ""coordinates"": [ -2.627681802, 53.6616862 ] } },"
Aldi,Ormskirk,Ormskirk,Lancashire,L39 3RN,-2.887465949,53.5673214,"{ ""tooltip"": ""Aldi<br/>Ormskirk<br/>Lancashire<br/>L39 3RN"", ""geometry"": { ""coordinates"": [ -2.887465949, 53.5673214 ] } },"
Aldi,Burnley,Central Burnley,Lancashire,BB11 1BS,-2.246197523,53.79246929,"{ ""tooltip"": ""Aldi<br/>Burnley<br/>Lancashire<br/>BB11 1BS"", ""geometry"": { ""coordinates"": [ -2.246197523, 53.79246929 ] } },"
Aldi,Blackburn,Shadsworth,Lancashire,BB1 3HT,-2.446100851,53.75884169,"{ ""tooltip"": ""Aldi<br/>Blackburn<br/>Lancashire<br/>BB1 3HT"", ""geometry"": { ""coordinates"": [ -2.446100851, 53.75884169 ] } },"
Aldi,Great Harwood,,Lancashire,BB6 7UA,-2.39697687,53.78576394,"{ ""tooltip"": ""Aldi<br/>Great Harwood<br/>Lancashire<br/>BB6 7UA"", ""geometry"": { ""coordinates"": [ -2.39697687, 53.78576394 ] } },"
Aldi,Blackburn,Wensley Fold,Lancashire,BB2 1EH,-2.491921959,53.74840242,"{ ""tooltip"": ""Aldi<br/>Blackburn<br/>Lancashire<br/>BB2 1EH"", ""geometry"": { ""coordinates"": [ -2.491921959, 53.74840242 ] } },"
Aldi,Blackburn,Waterloo,Lancashire,BB2 4HY,-2.49195053,53.72852952,"{ ""tooltip"": ""Aldi<br/>Blackburn<br/>Lancashire<br/>BB2 4HY"", ""geometry"": { ""coordinates"": [ -2.49195053, 53.72852952 ] } },"
Aldi,Accrington,Milnshaw,Lancashire,BB5 1DA,-2.367630146,53.75610424,"{ ""tooltip"": ""Aldi<br/>Accrington<br/>Lancashire<br/>BB5 1DA"", ""geometry"": { ""coordinates"": [ -2.367630146, 53.75610424 ] } },"
Aldi,Clitheroe,,Lancashire,BB7 1HT,-2.395327238,53.86317627,"{ ""tooltip"": ""Aldi<br/>Clitheroe<br/>Lancashire<br/>BB7 1HT"", ""geometry"": { ""coordinates"": [ -2.395327238, 53.86317627 ] } },"
Aldi,Burscough Bridge,,Lancashire,L40 8AD,-2.864468743,53.58810715,"{ ""tooltip"": ""Aldi<br/>Burscough Bridge<br/>Lancashire<br/>L40 8AD"", ""geometry"": { ""coordinates"": [ -2.864468743, 53.58810715 ] } },"
Aldi,Skelmersdale,Ashurst,Lancashire,WN8 6LJ,-2.774067253,53.54984544,"{ ""tooltip"": ""Aldi<br/>Skelmersdale<br/>Lancashire<br/>WN8 6LJ"", ""geometry"": { ""coordinates"": [ -2.774067253, 53.54984544 ] } },"
Aldi,Leyland,Farington,Lancashire,PR25 2LR,-2.697924243,53.69133547,"{ ""tooltip"": ""Aldi<br/>Leyland<br/>Lancashire<br/>PR25 2LR"", ""geometry"": { ""coordinates"": [ -2.697924243, 53.69133547 ] } },"
Aldi,Preston,Preston City Centre,Lancashire,PR1 2UZ,-2.706420282,53.75913387,"{ ""tooltip"": ""Aldi<br/>Preston<br/>Lancashire<br/>PR1 2UZ"", ""geometry"": { ""coordinates"": [ -2.706420282, 53.75913387 ] } },"
Aldi,Preston,Longsands,Lancashire,PR1 6QY,-2.68071836,53.77325963,"{ ""tooltip"": ""Aldi<br/>Preston<br/>Lancashire<br/>PR1 6QY"", ""geometry"": { ""coordinates"": [ -2.68071836, 53.77325963 ] } },"
Aldi,Preston,Preston City Centre,Lancashire,PR1 4HZ,-2.689276981,53.76050824,"{ ""tooltip"": ""Aldi<br/>Preston<br/>Lancashire<br/>PR1 4HZ"", ""geometry"": { ""coordinates"": [ -2.689276981, 53.76050824 ] } },"
Aldi,Buckshaw Village,,Lancashire,PR7 7LJ,-2.655383885,53.6758236,"{ ""tooltip"": ""Aldi<br/>Buckshaw Village<br/>Lancashire<br/>PR7 7LJ"", ""geometry"": { ""coordinates"": [ -2.655383885, 53.6758236 ] } },"
Aldi,Bamber Bridge,Bamber Bridge,Lancashire,PR5 6BJ,-2.670683004,53.72285619,"{ ""tooltip"": ""Aldi<br/>Bamber Bridge<br/>Lancashire<br/>PR5 6BJ"", ""geometry"": { ""coordinates"": [ -2.670683004, 53.72285619 ] } },"
Aldi,Preston,Fulwood,Lancashire,PR2 9BQ,-2.694837551,53.79763724,"{ ""tooltip"": ""Aldi<br/>Preston<br/>Lancashire<br/>PR2 9BQ"", ""geometry"": { ""coordinates"": [ -2.694837551, 53.79763724 ] } },"
Aldi,Garstang,,Lancashire,PR3 1HB,-2.777228831,53.90050754,"{ ""tooltip"": ""Aldi<br/>Garstang<br/>Lancashire<br/>PR3 1HB"", ""geometry"": { ""coordinates"": [ -2.777228831, 53.90050754 ] } },"
Aldi,Longridge£ Lancashire,,Lancashire,PR3 2DD,-2.611049352,53.82956298,"{ ""tooltip"": ""Aldi<br/>Longridge£ Lancashire<br/>Lancashire<br/>PR3 2DD"", ""geometry"": { ""coordinates"": [ -2.611049352, 53.82956298 ] } },"
Aldi,Lytham,St Annes,Lancashire,FY8 2NA,-3.033363185,53.75139698,"{ ""tooltip"": ""Aldi<br/>Lytham<br/>Lancashire<br/>FY8 2NA"", ""geometry"": { ""coordinates"": [ -3.033363185, 53.75139698 ] } },"
Aldi,Fleetwood,Freeport,Lancashire,FY7 7DA,-3.02870293,53.91857397,"{ ""tooltip"": ""Aldi<br/>Fleetwood<br/>Lancashire<br/>FY7 7DA"", ""geometry"": { ""coordinates"": [ -3.02870293, 53.91857397 ] } },"
Aldi,Blackpool,Marton,Lancashire,FY4 4DP,-3.027417696,53.8035742,"{ ""tooltip"": ""Aldi<br/>Blackpool<br/>Lancashire<br/>FY4 4DP"", ""geometry"": { ""coordinates"": [ -3.027417696, 53.8035742 ] } },"
Aldi,Blackpool,Marton,Lancashire,FY4 3AA,-3.047068942,53.79877365,"{ ""tooltip"": ""Aldi<br/>Blackpool<br/>Lancashire<br/>FY4 3AA"", ""geometry"": { ""coordinates"": [ -3.047068942, 53.79877365 ] } },"
Aldi,Cleveleys,,Lancashire,FY5 1AB,-3.042073246,53.87622562,"{ ""tooltip"": ""Aldi<br/>Cleveleys<br/>Lancashire<br/>FY5 1AB"", ""geometry"": { ""coordinates"": [ -3.042073246, 53.87622562 ] } },"
Aldi,Poulton,Poulton-le-Fylde,Lancashire,FY6 7BX,-2.991917108,53.84812149,"{ ""tooltip"": ""Aldi<br/>Poulton<br/>Lancashire<br/>FY6 7BX"", ""geometry"": { ""coordinates"": [ -2.991917108, 53.84812149 ] } },"
Aldi,Blackpool,South Shore,Lancashire,FY4 2RP,-3.032656328,53.78033906,"{ ""tooltip"": ""Aldi<br/>Blackpool<br/>Lancashire<br/>FY4 2RP"", ""geometry"": { ""coordinates"": [ -3.032656328, 53.78033906 ] } },"
Aldi,Kirkham,Wesham,Lancashire,PR4 3JZ,-2.889269831,53.7965696,"{ ""tooltip"": ""Aldi<br/>Kirkham<br/>Lancashire<br/>PR4 3JZ"", ""geometry"": { ""coordinates"": [ -2.889269831, 53.7965696 ] } },"
Aldi,Aberdeen,Rosemount,Aberdeenshire,AB16 5UT,-2.141539394,57.15951358,"{ ""tooltip"": ""Aldi<br/>Aberdeen<br/>Aberdeenshire<br/>AB16 5UT"", ""geometry"": { ""coordinates"": [ -2.141539394, 57.15951358 ] } },"
Aldi,Westhill,Westhill,Aberdeenshire,AB32 6FY,-2.278341,57.15480973,"{ ""tooltip"": ""Aldi<br/>Westhill<br/>Aberdeenshire<br/>AB32 6FY"", ""geometry"": { ""coordinates"": [ -2.278341, 57.15480973 ] } },"
Aldi,Aberdeen,Central Aberdeen,Aberdeenshire,AB11 5EJ,-2.081728213,57.14862551,"{ ""tooltip"": ""Aldi<br/>Aberdeen<br/>Aberdeenshire<br/>AB11 5EJ"", ""geometry"": { ""coordinates"": [ -2.081728213, 57.14862551 ] } },"
Aldi,Ellon,,Aberdeenshire,AB41 9LJ,-2.075008483,57.36331395,"{ ""tooltip"": ""Aldi<br/>Ellon<br/>Aberdeenshire<br/>AB41 9LJ"", ""geometry"": { ""coordinates"": [ -2.075008483, 57.36331395 ] } },"
Aldi,Inverurie,,Aberdeenshire,AB51 4FY,-2.380155995,57.28877138,"{ ""tooltip"": ""Aldi<br/>Inverurie<br/>Aberdeenshire<br/>AB51 4FY"", ""geometry"": { ""coordinates"": [ -2.380155995, 57.28877138 ] } },"
Aldi,Peterhead,,Aberdeenshire,AB42 1RY,-1.789546599,57.50512673,"{ ""tooltip"": ""Aldi<br/>Peterhead<br/>Aberdeenshire<br/>AB42 1RY"", ""geometry"": { ""coordinates"": [ -1.789546599, 57.50512673 ] } },"
Aldi,Oban,,Argyll & Bute,PA34 4PH,-5.470850959,56.40736079,"{ ""tooltip"": ""Aldi<br/>Oban<br/>Argyll & Bute<br/>PA34 4PH"", ""geometry"": { ""coordinates"": [ -5.470850959, 56.40736079 ] } },"
Aldi,Inverness,Inshes,Highland,IV2 3TW,-4.191686925,57.46817845,"{ ""tooltip"": ""Aldi<br/>Inverness<br/>Highland<br/>IV2 3TW"", ""geometry"": { ""coordinates"": [ -4.191686925, 57.46817845 ] } },"
Aldi,Aviemore,,Highland,PH22 1AF,-3.8306009,57.19276978,"{ ""tooltip"": ""Aldi<br/>Aviemore<br/>Highland<br/>PH22 1AF"", ""geometry"": { ""coordinates"": [ -3.8306009, 57.19276978 ] } },"
Aldi,Inverness,Merkinch,Highland,IV3 5JP,-4.237786541,57.48080499,"{ ""tooltip"": ""Aldi<br/>Inverness<br/>Highland<br/>IV3 5JP"", ""geometry"": { ""coordinates"": [ -4.237786541, 57.48080499 ] } },"
Aldi,Fort William,,Highland,PH33 6PP,-5.083545565,56.82781017,"{ ""tooltip"": ""Aldi<br/>Fort William<br/>Highland<br/>PH33 6PP"", ""geometry"": { ""coordinates"": [ -5.083545565, 56.82781017 ] } },"
Aldi,Kidsgrove,White Hill,Staffordshire,ST7 4EH,-2.235274817,53.08515356,"{ ""tooltip"": ""Aldi<br/>Kidsgrove<br/>Staffordshire<br/>ST7 4EH"", ""geometry"": { ""coordinates"": [ -2.235274817, 53.08515356 ] } },"
Aldi,Stoke-on-Trent,Burslem,Staffordshire,ST1 6EJ,-2.161528245,53.04837633,"{ ""tooltip"": ""Aldi<br/>Stoke-on-Trent<br/>Staffordshire<br/>ST1 6EJ"", ""geometry"": { ""coordinates"": [ -2.161528245, 53.04837633 ] } },"
Aldi,Stoke-on-Trent,Tunstall,Staffordshire,ST6 4JU,-2.209295931,53.05444368,"{ ""tooltip"": ""Aldi<br/>Stoke-on-Trent<br/>Staffordshire<br/>ST6 4JU"", ""geometry"": { ""coordinates"": [ -2.209295931, 53.05444368 ] } },"
Aldi,Newcastle Under Lyme,Stoke-upon-Trent,Staffordshire,ST4 6NY,-2.207277641,52.99445556,"{ ""tooltip"": ""Aldi<br/>Newcastle Under Lyme<br/>Staffordshire<br/>ST4 6NY"", ""geometry"": { ""coordinates"": [ -2.207277641, 52.99445556 ] } },"
Aldi,Stoke-on-Trent,Meir,Staffordshire,ST3 7TU,-2.090043867,52.97042064,"{ ""tooltip"": ""Aldi<br/>Stoke-on-Trent<br/>Staffordshire<br/>ST3 7TU"", ""geometry"": { ""coordinates"": [ -2.090043867, 52.97042064 ] } },"
Aldi,Stoke-on-Trent,Fenton,Staffordshire,ST4 2HX,-2.166788636,53.00817335,"{ ""tooltip"": ""Aldi<br/>Stoke-on-Trent<br/>Staffordshire<br/>ST4 2HX"", ""geometry"": { ""coordinates"": [ -2.166788636, 53.00817335 ] } },"
Aldi,Stone,Walton,Staffordshire,ST15 0UN,-2.145082022,52.89195488,"{ ""tooltip"": ""Aldi<br/>Stone<br/>Staffordshire<br/>ST15 0UN"", ""geometry"": { ""coordinates"": [ -2.145082022, 52.89195488 ] } },"
Aldi,Stoke-on-Trent,Longton,Staffordshire,ST4 8HP,-2.169734228,52.96855452,"{ ""tooltip"": ""Aldi<br/>Stoke-on-Trent<br/>Staffordshire<br/>ST4 8HP"", ""geometry"": { ""coordinates"": [ -2.169734228, 52.96855452 ] } },"
Aldi,Newcastle Under Lyme,Central Newcastle-under-lyme,Staffordshire,ST5 3HY,-2.228711675,53.00932586,"{ ""tooltip"": ""Aldi<br/>Newcastle Under Lyme<br/>Staffordshire<br/>ST5 3HY"", ""geometry"": { ""coordinates"": [ -2.228711675, 53.00932586 ] } },"
Aldi,Burton Upon Trent,Central Burton,Staffordshire,DE14 1NG,-1.630001179,52.80628369,"{ ""tooltip"": ""Aldi<br/>Burton Upon Trent<br/>Staffordshire<br/>DE14 1NG"", ""geometry"": { ""coordinates"": [ -1.630001179, 52.80628369 ] } },"
Aldi,Burntwood,Boney Hay,Staffordshire,WS7 2BX,-1.932922809,52.68064368,"{ ""tooltip"": ""Aldi<br/>Burntwood<br/>Staffordshire<br/>WS7 2BX"", ""geometry"": { ""coordinates"": [ -1.932922809, 52.68064368 ] } },"
Aldi,Stafford,Central Staffod,Staffordshire,ST16 3AD,-2.114165929,52.80819377,"{ ""tooltip"": ""Aldi<br/>Stafford<br/>Staffordshire<br/>ST16 3AD"", ""geometry"": { ""coordinates"": [ -2.114165929, 52.80819377 ] } },"
Aldi,Cannock,Central Cannock,Staffordshire,WS11 0HP,-2.026488912,52.68660749,"{ ""tooltip"": ""Aldi<br/>Cannock<br/>Staffordshire<br/>WS11 0HP"", ""geometry"": { ""coordinates"": [ -2.026488912, 52.68660749 ] } },"
Aldi,Cannock,Hednesford,Staffordshire,WS12 1DU,-1.99696031,52.70841148,"{ ""tooltip"": ""Aldi<br/>Cannock<br/>Staffordshire<br/>WS12 1DU"", ""geometry"": { ""coordinates"": [ -1.99696031, 52.70841148 ] } },"
Aldi,Stafford,Rising Brook,Staffordshire,ST17 4NX,-2.094862102,52.79281524,"{ ""tooltip"": ""Aldi<br/>Stafford<br/>Staffordshire<br/>ST17 4NX"", ""geometry"": { ""coordinates"": [ -2.094862102, 52.79281524 ] } },"
Aldi,Rugeley,Springfields,Staffordshire,WS15 2JL,-1.933979669,52.76352487,"{ ""tooltip"": ""Aldi<br/>Rugeley<br/>Staffordshire<br/>WS15 2JL"", ""geometry"": { ""coordinates"": [ -1.933979669, 52.76352487 ] } },"
Aldi,Leek,,Staffordshire,ST13 5JH,-2.022786753,53.10501668,"{ ""tooltip"": ""Aldi<br/>Leek<br/>Staffordshire<br/>ST13 5JH"", ""geometry"": { ""coordinates"": [ -2.022786753, 53.10501668 ] } },"
Aldi,Tamworth,Amington,Staffordshire,B77 2BS,-1.669869789,52.627358,"{ ""tooltip"": ""Aldi<br/>Tamworth<br/>Staffordshire<br/>B77 2BS"", ""geometry"": { ""coordinates"": [ -1.669869789, 52.627358 ] } },"
Aldi,Tamworth,Leyfields,Staffordshire,B79 7HY,-1.687611365,52.63369292,"{ ""tooltip"": ""Aldi<br/>Tamworth<br/>Staffordshire<br/>B79 7HY"", ""geometry"": { ""coordinates"": [ -1.687611365, 52.63369292 ] } },"
Aldi,Lichfield,Central Lichfield,Staffordshire,WS13 6EB,-1.81924917,52.68445332,"{ ""tooltip"": ""Aldi<br/>Lichfield<br/>Staffordshire<br/>WS13 6EB"", ""geometry"": { ""coordinates"": [ -1.81924917, 52.68445332 ] } },"
Aldi,Deal,Deal Town Centre,Kent,CT14 6AG,1.40118681,51.2236951,"{ ""tooltip"": ""Aldi<br/>Deal<br/>Kent<br/>CT14 6AG"", ""geometry"": { ""coordinates"": [ 1.40118681, 51.2236951 ] } },"
Aldi,Margate,Cliftonville,Kent,CT9 1RP,1.387838403,51.3906293,"{ ""tooltip"": ""Aldi<br/>Margate<br/>Kent<br/>CT9 1RP"", ""geometry"": { ""coordinates"": [ 1.387838403, 51.3906293 ] } },"
Aldi,Dover,Dover Town Centre,Kent,CT16 2NL,1.301645271,51.13430785,"{ ""tooltip"": ""Aldi<br/>Dover<br/>Kent<br/>CT16 2NL"", ""geometry"": { ""coordinates"": [ 1.301645271, 51.13430785 ] } },"
Aldi,Ramsgate,Ramsgate,Kent,CT11 7NA,1.420970354,51.33760254,"{ ""tooltip"": ""Aldi<br/>Ramsgate<br/>Kent<br/>CT11 7NA"", ""geometry"": { ""coordinates"": [ 1.420970354, 51.33760254 ] } },"
Aldi,Canterbury,Central Canterbury,Kent,CT1 2LN,1.073602829,51.27521125,"{ ""tooltip"": ""Aldi<br/>Canterbury<br/>Kent<br/>CT1 2LN"", ""geometry"": { ""coordinates"": [ 1.073602829, 51.27521125 ] } },"
Aldi,Whitstable,Seasalter,Kent,CT5 3JD,1.015730181,51.34105374,"{ ""tooltip"": ""Aldi<br/>Whitstable<br/>Kent<br/>CT5 3JD"", ""geometry"": { ""coordinates"": [ 1.015730181, 51.34105374 ] } },"
Aldi,Herne Bay,Herne Bay,Kent,CT6 5RE,1.125977565,51.37018762,"{ ""tooltip"": ""Aldi<br/>Herne Bay<br/>Kent<br/>CT6 5RE"", ""geometry"": { ""coordinates"": [ 1.125977565, 51.37018762 ] } },"
Aldi,Hythe,Saltwood,Kent,CT21 6HJ,1.066331214,51.06832371,"{ ""tooltip"": ""Aldi<br/>Hythe<br/>Kent<br/>CT21 6HJ"", ""geometry"": { ""coordinates"": [ 1.066331214, 51.06832371 ] } },"
Aldi,Ashford£ Kent,South Ashford,Kent,TN23 7HQ,0.871085355,51.14452936,"{ ""tooltip"": ""Aldi<br/>Ashford£ Kent<br/>Kent<br/>TN23 7HQ"", ""geometry"": { ""coordinates"": [ 0.871085355, 51.14452936 ] } },"
Aldi,Royal Tunbridge Wells,Sherwood,Kent,TN2 3EW,0.293150056,51.15932277,"{ ""tooltip"": ""Aldi<br/>Royal Tunbridge Wells<br/>Kent<br/>TN2 3EW"", ""geometry"": { ""coordinates"": [ 0.293150056, 51.15932277 ] } },"
Aldi,Tonbridge,Higham Wood,Kent,TN9 1PN,0.282621742,51.19681731,"{ ""tooltip"": ""Aldi<br/>Tonbridge<br/>Kent<br/>TN9 1PN"", ""geometry"": { ""coordinates"": [ 0.282621742, 51.19681731 ] } },"
Aldi,Gillingham,Darland,Kent,ME7 4JS,0.550781028,51.38587947,"{ ""tooltip"": ""Aldi<br/>Gillingham<br/>Kent<br/>ME7 4JS"", ""geometry"": { ""coordinates"": [ 0.550781028, 51.38587947 ] } },"
Aldi,Maidstone,Vinter's Park,Kent,ME14 1XL,0.526481609,51.27887951,"{ ""tooltip"": ""Aldi<br/>Maidstone<br/>Kent<br/>ME14 1XL"", ""geometry"": { ""coordinates"": [ 0.526481609, 51.27887951 ] } },"
Aldi,Maidstone,Shepway,Kent,ME17 3FU,0.568984009,51.23978917,"{ ""tooltip"": ""Aldi<br/>Maidstone<br/>Kent<br/>ME17 3FU"", ""geometry"": { ""coordinates"": [ 0.568984009, 51.23978917 ] } },"
Aldi,Aylesford,Aylesford,Kent,ME20 7PT,0.476016987,51.29170805,"{ ""tooltip"": ""Aldi<br/>Aylesford<br/>Kent<br/>ME20 7PT"", ""geometry"": { ""coordinates"": [ 0.476016987, 51.29170805 ] } },"
Aldi,Gillingham,Twydall,Kent,ME8 0PU,0.578381845,51.36801266,"{ ""tooltip"": ""Aldi<br/>Gillingham<br/>Kent<br/>ME8 0PU"", ""geometry"": { ""coordinates"": [ 0.578381845, 51.36801266 ] } },"
Aldi,Chatham,Walderslade,Kent,ME5 9SQ,0.507506407,51.35310946,"{ ""tooltip"": ""Aldi<br/>Chatham<br/>Kent<br/>ME5 9SQ"", ""geometry"": { ""coordinates"": [ 0.507506407, 51.35310946 ] } },"
Aldi,Strood,Frindsbury,Kent,ME2 4WR,0.496168043,51.39605854,"{ ""tooltip"": ""Aldi<br/>Strood<br/>Kent<br/>ME2 4WR"", ""geometry"": { ""coordinates"": [ 0.496168043, 51.39605854 ] } },"
Aldi,Dartford,Central Dartford,Kent,DA1 1DN,0.218867514,51.44484733,"{ ""tooltip"": ""Aldi<br/>Dartford<br/>Kent<br/>DA1 1DN"", ""geometry"": { ""coordinates"": [ 0.218867514, 51.44484733 ] } },"
Aldi,Swanley,,Kent,BR8 7BU,0.171957054,51.39649897,"{ ""tooltip"": ""Aldi<br/>Swanley<br/>Kent<br/>BR8 7BU"", ""geometry"": { ""coordinates"": [ 0.171957054, 51.39649897 ] } },"
Aldi,Gravesend,Northfleet,Kent,DA11 9LY,0.354739113,51.44196169,"{ ""tooltip"": ""Aldi<br/>Gravesend<br/>Kent<br/>DA11 9LY"", ""geometry"": { ""coordinates"": [ 0.354739113, 51.44196169 ] } },"
Aldi,Sevenoaks,Sevenoaks,Kent,TN14 5EG,0.190583401,51.29575668,"{ ""tooltip"": ""Aldi<br/>Sevenoaks<br/>Kent<br/>TN14 5EG"", ""geometry"": { ""coordinates"": [ 0.190583401, 51.29575668 ] } },"
Aldi,Sittingbourne,Central Sittingbourne,Kent,ME10 4BL,0.74503563,51.33865535,"{ ""tooltip"": ""Aldi<br/>Sittingbourne<br/>Kent<br/>ME10 4BL"", ""geometry"": { ""coordinates"": [ 0.74503563, 51.33865535 ] } },"
Aldi,Faversham,Faversham,Kent,ME13 8ZB,0.887141392,51.30371905,"{ ""tooltip"": ""Aldi<br/>Faversham<br/>Kent<br/>ME13 8ZB"", ""geometry"": { ""coordinates"": [ 0.887141392, 51.30371905 ] } },"
Aldi,Sheerness,,Kent,ME12 1AQ,0.759531303,51.4395611,"{ ""tooltip"": ""Aldi<br/>Sheerness<br/>Kent<br/>ME12 1AQ"", ""geometry"": { ""coordinates"": [ 0.759531303, 51.4395611 ] } },"
Aldi,Catterick Garrison,Catterick Garrison,North Yorkshire,DL9 3JA,-1.720962363,54.37416832,"{ ""tooltip"": ""Aldi<br/>Catterick Garrison<br/>North Yorkshire<br/>DL9 3JA"", ""geometry"": { ""coordinates"": [ -1.720962363, 54.37416832 ] } },"
Aldi,Thirsk,Sowerby,North Yorkshire,YO7 3HF,-1.351675097,54.21860685,"{ ""tooltip"": ""Aldi<br/>Thirsk<br/>North Yorkshire<br/>YO7 3HF"", ""geometry"": { ""coordinates"": [ -1.351675097, 54.21860685 ] } },"
Aldi,Sherburn in Elmet,,North Yorkshire,LS25 6BB,-1.250335355,53.79430347,"{ ""tooltip"": ""Aldi<br/>Sherburn in Elmet<br/>North Yorkshire<br/>LS25 6BB"", ""geometry"": { ""coordinates"": [ -1.250335355, 53.79430347 ] } },"
Aldi,Yarm,,North Yorkshire,TS15 9XN,-1.344009896,54.49778864,"{ ""tooltip"": ""Aldi<br/>Yarm<br/>North Yorkshire<br/>TS15 9XN"", ""geometry"": { ""coordinates"": [ -1.344009896, 54.49778864 ] } },"
Aldi,Middlesbrough,Coulby Newham,North Yorkshire,TS8 0TW,-1.216516448,54.52239306,"{ ""tooltip"": ""Aldi<br/>Middlesbrough<br/>North Yorkshire<br/>TS8 0TW"", ""geometry"": { ""coordinates"": [ -1.216516448, 54.52239306 ] } },"
Aldi,Middlesbrough,Grangetown,North Yorkshire,TS6 9TL,-1.159777088,54.57321214,"{ ""tooltip"": ""Aldi<br/>Middlesbrough<br/>North Yorkshire<br/>TS6 9TL"", ""geometry"": { ""coordinates"": [ -1.159777088, 54.57321214 ] } },"
Aldi,Middlesbrough,Grove Hill,North Yorkshire,TS4 2PQ,-1.221700569,54.55919713,"{ ""tooltip"": ""Aldi<br/>Middlesbrough<br/>North Yorkshire<br/>TS4 2PQ"", ""geometry"": { ""coordinates"": [ -1.221700569, 54.55919713 ] } },"
Aldi,Thornaby On Tees,South Thornaby,North Yorkshire,TS17 9HA,-1.290787617,54.53587488,"{ ""tooltip"": ""Aldi<br/>Thornaby On Tees<br/>North Yorkshire<br/>TS17 9HA"", ""geometry"": { ""coordinates"": [ -1.290787617, 54.53587488 ] } },"
Aldi,Middlesbrough,Linthorpe,North Yorkshire,TS1 5JF,-1.243596395,54.57498591,"{ ""tooltip"": ""Aldi<br/>Middlesbrough<br/>North Yorkshire<br/>TS1 5JF"", ""geometry"": { ""coordinates"": [ -1.243596395, 54.57498591 ] } },"
Aldi,Scarborough,Central Scarborough,North Yorkshire,YO12 7AB,-0.407346696,54.28218844,"{ ""tooltip"": ""Aldi<br/>Scarborough<br/>North Yorkshire<br/>YO12 7AB"", ""geometry"": { ""coordinates"": [ -0.407346696, 54.28218844 ] } },"
Aldi,Whitby,Whitby,North Yorkshire,YO22 4PU,-0.598626601,54.4702807,"{ ""tooltip"": ""Aldi<br/>Whitby<br/>North Yorkshire<br/>YO22 4PU"", ""geometry"": { ""coordinates"": [ -0.598626601, 54.4702807 ] } },"
Aldi,Guisborough,,North Yorkshire,TS14 7FE,-1.055007323,54.53185747,"{ ""tooltip"": ""Aldi<br/>Guisborough<br/>North Yorkshire<br/>TS14 7FE"", ""geometry"": { ""coordinates"": [ -1.055007323, 54.53185747 ] } },"
Aldi,Skelton£ North Yorkshire£ TS12,,North Yorkshire,TS12 2ZL,-0.964598899,54.56662035,"{ ""tooltip"": ""Aldi<br/>Skelton£ North Yorkshire£ TS12<br/>North Yorkshire<br/>TS12 2ZL"", ""geometry"": { ""coordinates"": [ -0.964598899, 54.56662035 ] } },"
Aldi,Redcar,Redcar,North Yorkshire,TS10 4SD,-1.068177383,54.59407024,"{ ""tooltip"": ""Aldi<br/>Redcar<br/>North Yorkshire<br/>TS10 4SD"", ""geometry"": { ""coordinates"": [ -1.068177383, 54.59407024 ] } },"
Aldi,Selby,,North Yorkshire,YO8 8LY,-1.064597591,53.77203883,"{ ""tooltip"": ""Aldi<br/>Selby<br/>North Yorkshire<br/>YO8 8LY"", ""geometry"": { ""coordinates"": [ -1.064597591, 53.77203883 ] } },"
Aldi,Skipton,,North Yorkshire,BD23 2TA,-2.013692429,53.94123033,"{ ""tooltip"": ""Aldi<br/>Skipton<br/>North Yorkshire<br/>BD23 2TA"", ""geometry"": { ""coordinates"": [ -2.013692429, 53.94123033 ] } },"
Aldi,York,Fulford,North Yorkshire,YO10 4PA,-1.075334318,53.94368977,"{ ""tooltip"": ""Aldi<br/>York<br/>North Yorkshire<br/>YO10 4PA"", ""geometry"": { ""coordinates"": [ -1.075334318, 53.94368977 ] } },"
Aldi,York,Clifton,North Yorkshire,YO30 6PQ,-1.094619372,53.98221983,"{ ""tooltip"": ""Aldi<br/>York<br/>North Yorkshire<br/>YO30 6PQ"", ""geometry"": { ""coordinates"": [ -1.094619372, 53.98221983 ] } },"
Aldi,York,Huntington,North Yorkshire,YO32 9JS,-1.048273148,53.98508387,"{ ""tooltip"": ""Aldi<br/>York<br/>North Yorkshire<br/>YO32 9JS"", ""geometry"": { ""coordinates"": [ -1.048273148, 53.98508387 ] } },"
Aldi,Ripon,,North Yorkshire,HG4 1LH,-1.518873474,54.1384208,"{ ""tooltip"": ""Aldi<br/>Ripon<br/>North Yorkshire<br/>HG4 1LH"", ""geometry"": { ""coordinates"": [ -1.518873474, 54.1384208 ] } },"
Aldi,Harrogate,Jennyfield,North Yorkshire,HG1 3HT,-1.554051006,54.00874864,"{ ""tooltip"": ""Aldi<br/>Harrogate<br/>North Yorkshire<br/>HG1 3HT"", ""geometry"": { ""coordinates"": [ -1.554051006, 54.00874864 ] } },"
Aldi,Ashington,High Market,Northumberland,NE63 8QG,-1.587162622,55.18543217,"{ ""tooltip"": ""Aldi<br/>Ashington<br/>Northumberland<br/>NE63 8QG"", ""geometry"": { ""coordinates"": [ -1.587162622, 55.18543217 ] } },"
Aldi,Blyth,Cowpen,Northumberland,NE24 5EZ,-1.536935582,55.13121162,"{ ""tooltip"": ""Aldi<br/>Blyth<br/>Northumberland<br/>NE24 5EZ"", ""geometry"": { ""coordinates"": [ -1.536935582, 55.13121162 ] } },"
Aldi,Alnwick,,Northumberland,NE66 2PA,-1.693001201,55.40551693,"{ ""tooltip"": ""Aldi<br/>Alnwick<br/>Northumberland<br/>NE66 2PA"", ""geometry"": { ""coordinates"": [ -1.693001201, 55.40551693 ] } },"
Aldi,Hexham,,Northumberland,NE46 3PU,-2.101175062,54.97421961,"{ ""tooltip"": ""Aldi<br/>Hexham<br/>Northumberland<br/>NE46 3PU"", ""geometry"": { ""coordinates"": [ -2.101175062, 54.97421961 ] } },"
Aldi,Prudhoe,Prudhoe,Northumberland,NE42 6BU,-1.837155293,54.96887439,"{ ""tooltip"": ""Aldi<br/>Prudhoe<br/>Northumberland<br/>NE42 6BU"", ""geometry"": { ""coordinates"": [ -1.837155293, 54.96887439 ] } },"
Aldi,Cramlington,High Pit,Northumberland,NE23 1DA,-1.58073011,55.08747451,"{ ""tooltip"": ""Aldi<br/>Cramlington<br/>Northumberland<br/>NE23 1DA"", ""geometry"": { ""coordinates"": [ -1.58073011, 55.08747451 ] } },"
Aldi,Berwick-upon-Tweed,Berwick-upon-Tweed,Northumberland,TD15 1QQ,-2.012453014,55.78195931,"{ ""tooltip"": ""Aldi<br/>Berwick-upon-Tweed<br/>Northumberland<br/>TD15 1QQ"", ""geometry"": { ""coordinates"": [ -2.012453014, 55.78195931 ] } },"
Aldi,Skegness,Skegness,Lincolnshire,PE25 2RT,0.333309621,53.15110609,"{ ""tooltip"": ""Aldi<br/>Skegness<br/>Lincolnshire<br/>PE25 2RT"", ""geometry"": { ""coordinates"": [ 0.333309621, 53.15110609 ] } },"
Aldi,Grantham,Central Grantham,Lincolnshire,NG31 6HT,-0.635570302,52.90148321,"{ ""tooltip"": ""Aldi<br/>Grantham<br/>Lincolnshire<br/>NG31 6HT"", ""geometry"": { ""coordinates"": [ -0.635570302, 52.90148321 ] } },"
Aldi,Lincoln,Bracebridge,Lincolnshire,LN5 8NT,-0.551012936,53.20657778,"{ ""tooltip"": ""Aldi<br/>Lincoln<br/>Lincolnshire<br/>LN5 8NT"", ""geometry"": { ""coordinates"": [ -0.551012936, 53.20657778 ] } },"
Aldi,Lincoln,St Giles,Lincolnshire,LN2 4PX,-0.513766914,53.24049407,"{ ""tooltip"": ""Aldi<br/>Lincoln<br/>Lincolnshire<br/>LN2 4PX"", ""geometry"": { ""coordinates"": [ -0.513766914, 53.24049407 ] } },"
Aldi,Boston,Hubbert's Bridge,Lincolnshire,PE21 8XZ,-0.031623283,52.9756604,"{ ""tooltip"": ""Aldi<br/>Boston<br/>Lincolnshire<br/>PE21 8XZ"", ""geometry"": { ""coordinates"": [ -0.031623283, 52.9756604 ] } },"
Aldi,Spalding,Spalding,Lincolnshire,PE11 2XY,-0.157088731,52.78666542,"{ ""tooltip"": ""Aldi<br/>Spalding<br/>Lincolnshire<br/>PE11 2XY"", ""geometry"": { ""coordinates"": [ -0.157088731, 52.78666542 ] } },"
Aldi,Sleaford,Sleaford,Lincolnshire,NG34 7JP,-0.407668149,52.9945766,"{ ""tooltip"": ""Aldi<br/>Sleaford<br/>Lincolnshire<br/>NG34 7JP"", ""geometry"": { ""coordinates"": [ -0.407668149, 52.9945766 ] } },"
Aldi,Louth,,Lincolnshire,LN11 0JT,0.001070508,53.37179831,"{ ""tooltip"": ""Aldi<br/>Louth<br/>Lincolnshire<br/>LN11 0JT"", ""geometry"": { ""coordinates"": [ 0.001070508, 53.37179831 ] } },"
Aldi,Gainsborough,Gainsborough,Lincolnshire,DN21 1AF,-0.769592567,53.38770717,"{ ""tooltip"": ""Aldi<br/>Gainsborough<br/>Lincolnshire<br/>DN21 1AF"", ""geometry"": { ""coordinates"": [ -0.769592567, 53.38770717 ] } },"
Aldi,Scunthorpe,Central Scunthorpe,Lincolnshire,DN15 6AF,-0.645195154,53.5960371,"{ ""tooltip"": ""Aldi<br/>Scunthorpe<br/>Lincolnshire<br/>DN15 6AF"", ""geometry"": { ""coordinates"": [ -0.645195154, 53.5960371 ] } },"
Aldi,Scunthorpe,Ashby,Lincolnshire,DN16 2JU,-0.640756544,53.56630715,"{ ""tooltip"": ""Aldi<br/>Scunthorpe<br/>Lincolnshire<br/>DN16 2JU"", ""geometry"": { ""coordinates"": [ -0.640756544, 53.56630715 ] } },"
Aldi,Scunthorpe,Berkeley,Lincolnshire,DN15 8GR,-0.694031222,53.59058011,"{ ""tooltip"": ""Aldi<br/>Scunthorpe<br/>Lincolnshire<br/>DN15 8GR"", ""geometry"": { ""coordinates"": [ -0.694031222, 53.59058011 ] } },"
Aldi,Brigg,Brigg,Lincolnshire,DN20 8NF,-0.501477921,53.54970124,"{ ""tooltip"": ""Aldi<br/>Brigg<br/>Lincolnshire<br/>DN20 8NF"", ""geometry"": { ""coordinates"": [ -0.501477921, 53.54970124 ] } },"
Aldi,Immingham,,Lincolnshire,DN40 2AA,-0.210761318,53.61731721,"{ ""tooltip"": ""Aldi<br/>Immingham<br/>Lincolnshire<br/>DN40 2AA"", ""geometry"": { ""coordinates"": [ -0.210761318, 53.61731721 ] } },"
Aldi,Grimsby,East Marsh,Lincolnshire,DN31 3BH,-0.063087269,53.57388288,"{ ""tooltip"": ""Aldi<br/>Grimsby<br/>Lincolnshire<br/>DN31 3BH"", ""geometry"": { ""coordinates"": [ -0.063087269, 53.57388288 ] } },"
Aldi,Grimsby,West Marsh,Lincolnshire,DN34 5DN,-0.117064743,53.55800284,"{ ""tooltip"": ""Aldi<br/>Grimsby<br/>Lincolnshire<br/>DN34 5DN"", ""geometry"": { ""coordinates"": [ -0.117064743, 53.55800284 ] } },"
Aldi,King's Lynn,Fairstead,Norfolk,PE30 4QG,0.420917514,52.75681346,"{ ""tooltip"": ""Aldi<br/>King's Lynn<br/>Norfolk<br/>PE30 4QG"", ""geometry"": { ""coordinates"": [ 0.420917514, 52.75681346 ] } },"
Aldi,Fakenham,,Norfolk,NR21 8AX,0.852502798,52.82966531,"{ ""tooltip"": ""Aldi<br/>Fakenham<br/>Norfolk<br/>NR21 8AX"", ""geometry"": { ""coordinates"": [ 0.852502798, 52.82966531 ] } },"
Aldi,Thetford,East Wretham,Norfolk,IP24 2BU,0.752058026,52.41598812,"{ ""tooltip"": ""Aldi<br/>Thetford<br/>Norfolk<br/>IP24 2BU"", ""geometry"": { ""coordinates"": [ 0.752058026, 52.41598812 ] } },"
Aldi,Dereham,Toftwood,Norfolk,NR19 1AJ,0.949459411,52.66969633,"{ ""tooltip"": ""Aldi<br/>Dereham<br/>Norfolk<br/>NR19 1AJ"", ""geometry"": { ""coordinates"": [ 0.949459411, 52.66969633 ] } },"
Aldi,Norwich,Earlham,Norfolk,NR5 8TZ,1.241644489,52.63891453,"{ ""tooltip"": ""Aldi<br/>Norwich<br/>Norfolk<br/>NR5 8TZ"", ""geometry"": { ""coordinates"": [ 1.241644489, 52.63891453 ] } },"
Aldi,Norwich,Tuckswood,Norfolk,NR4 6DH,1.2911258,52.60958489,"{ ""tooltip"": ""Aldi<br/>Norwich<br/>Norfolk<br/>NR4 6DH"", ""geometry"": { ""coordinates"": [ 1.2911258, 52.60958489 ] } },"
Aldi,Norwich,North Norwich,Norfolk,NR3 2DW,1.281947417,52.64251406,"{ ""tooltip"": ""Aldi<br/>Norwich<br/>Norfolk<br/>NR3 2DW"", ""geometry"": { ""coordinates"": [ 1.281947417, 52.64251406 ] } },"
Aldi,Norwich,North Norwich,Norfolk,NR3 4EB,1.308501794,52.64990882,"{ ""tooltip"": ""Aldi<br/>Norwich<br/>Norfolk<br/>NR3 4EB"", ""geometry"": { ""coordinates"": [ 1.308501794, 52.64990882 ] } },"
Aldi,Norwich,Thorpe Hamlet,Norfolk,NR1 4JZ,1.327035924,52.63644152,"{ ""tooltip"": ""Aldi<br/>Norwich<br/>Norfolk<br/>NR1 4JZ"", ""geometry"": { ""coordinates"": [ 1.327035924, 52.63644152 ] } },"
Aldi,Great Yarmouth,Central Yarmouth,Norfolk,NR30 1JT,1.723237013,52.61079422,"{ ""tooltip"": ""Aldi<br/>Great Yarmouth<br/>Norfolk<br/>NR30 1JT"", ""geometry"": { ""coordinates"": [ 1.723237013, 52.61079422 ] } },"
Aldi,Diss,,Norfolk,IP22 4AG,1.108528028,52.37413815,"{ ""tooltip"": ""Aldi<br/>Diss<br/>Norfolk<br/>IP22 4AG"", ""geometry"": { ""coordinates"": [ 1.108528028, 52.37413815 ] } },"
Aldi,Ludlow,,Shropshire,SY8 2PQ,-2.717556277,52.37162597,"{ ""tooltip"": ""Aldi<br/>Ludlow<br/>Shropshire<br/>SY8 2PQ"", ""geometry"": { ""coordinates"": [ -2.717556277, 52.37162597 ] } },"
Aldi,Telford,Overdale,Shropshire,TF3 4ET,-2.445741113,52.67704251,"{ ""tooltip"": ""Aldi<br/>Telford<br/>Shropshire<br/>TF3 4ET"", ""geometry"": { ""coordinates"": [ -2.445741113, 52.67704251 ] } },"
Aldi,Telford,Wellington,Shropshire,TF1 1ED,-2.52243488,52.70125556,"{ ""tooltip"": ""Aldi<br/>Telford<br/>Shropshire<br/>TF1 1ED"", ""geometry"": { ""coordinates"": [ -2.52243488, 52.70125556 ] } },"
Aldi,Telford,Woodside,Shropshire,TF7 5RQ,-2.459551286,52.64377195,"{ ""tooltip"": ""Aldi<br/>Telford<br/>Shropshire<br/>TF7 5RQ"", ""geometry"": { ""coordinates"": [ -2.459551286, 52.64377195 ] } },"
Aldi,Bridgnorth,Low Town,Shropshire,WV15 6AL,-2.407315338,52.52882332,"{ ""tooltip"": ""Aldi<br/>Bridgnorth<br/>Shropshire<br/>WV15 6AL"", ""geometry"": { ""coordinates"": [ -2.407315338, 52.52882332 ] } },"
Aldi,Newport£ Shropshire,Newport Central,Shropshire,TF10 7BX,-2.359906855,52.76217266,"{ ""tooltip"": ""Aldi<br/>Newport£ Shropshire<br/>Shropshire<br/>TF10 7BX"", ""geometry"": { ""coordinates"": [ -2.359906855, 52.76217266 ] } },"
Aldi,Telford,Donnington,Shropshire,TF2 8JS,-2.44091572,52.72108255,"{ ""tooltip"": ""Aldi<br/>Telford<br/>Shropshire<br/>TF2 8JS"", ""geometry"": { ""coordinates"": [ -2.44091572, 52.72108255 ] } },"
Aldi,Telford,Priorslee,Shropshire,TF2 9NH,-2.443988811,52.68866623,"{ ""tooltip"": ""Aldi<br/>Telford<br/>Shropshire<br/>TF2 9NH"", ""geometry"": { ""coordinates"": [ -2.443988811, 52.68866623 ] } },"
Aldi,Oswestry,,Shropshire,SY11 1RB,-3.05138309,52.8619475,"{ ""tooltip"": ""Aldi<br/>Oswestry<br/>Shropshire<br/>SY11 1RB"", ""geometry"": { ""coordinates"": [ -3.05138309, 52.8619475 ] } },"
Aldi,Oswestry,,Shropshire,SY11 2RT,-3.04367958,52.85176392,"{ ""tooltip"": ""Aldi<br/>Oswestry<br/>Shropshire<br/>SY11 2RT"", ""geometry"": { ""coordinates"": [ -3.04367958, 52.85176392 ] } },"
Aldi,Market Drayton,,Shropshire,TF9 3SP,-2.488707179,52.91166267,"{ ""tooltip"": ""Aldi<br/>Market Drayton<br/>Shropshire<br/>TF9 3SP"", ""geometry"": { ""coordinates"": [ -2.488707179, 52.91166267 ] } },"
Aldi,Whitchurch£ Shropshire,,Shropshire,SY13 1JG,-2.705350636,52.96809512,"{ ""tooltip"": ""Aldi<br/>Whitchurch£ Shropshire<br/>Shropshire<br/>SY13 1JG"", ""geometry"": { ""coordinates"": [ -2.705350636, 52.96809512 ] } },"
Aldi,Shrewsbury,Mereside,Shropshire,SY2 6QW,-2.740239519,52.68790424,"{ ""tooltip"": ""Aldi<br/>Shrewsbury<br/>Shropshire<br/>SY2 6QW"", ""geometry"": { ""coordinates"": [ -2.740239519, 52.68790424 ] } },"
Aldi,Shrewsbury,Sundorne,Shropshire,SY1 4PR,-2.718416538,52.73610231,"{ ""tooltip"": ""Aldi<br/>Shrewsbury<br/>Shropshire<br/>SY1 4PR"", ""geometry"": { ""coordinates"": [ -2.718416538, 52.73610231 ] } },"
Aldi,Yeovil,Central Yeovil,Somerset,BA21 4HA,-2.623350431,50.94311594,"{ ""tooltip"": ""Aldi<br/>Yeovil<br/>Somerset<br/>BA21 4HA"", ""geometry"": { ""coordinates"": [ -2.623350431, 50.94311594 ] } },"
Aldi,Shepton Mallet,,Somerset,BA4 5SB,-2.548406584,51.18867349,"{ ""tooltip"": ""Aldi<br/>Shepton Mallet<br/>Somerset<br/>BA4 5SB"", ""geometry"": { ""coordinates"": [ -2.548406584, 51.18867349 ] } },"
Aldi,Glastonbury,,Somerset,BA6 9FW,-2.73379722,51.14177109,"{ ""tooltip"": ""Aldi<br/>Glastonbury<br/>Somerset<br/>BA6 9FW"", ""geometry"": { ""coordinates"": [ -2.73379722, 51.14177109 ] } },"
Aldi,Portishead,Portishead Dock,Somerset,BS20 8LR,-2.766497949,51.48357588,"{ ""tooltip"": ""Aldi<br/>Portishead<br/>Somerset<br/>BS20 8LR"", ""geometry"": { ""coordinates"": [ -2.766497949, 51.48357588 ] } },"
Aldi,Clevedon,,Somerset,BS21 6XT,-2.843307839,51.43348172,"{ ""tooltip"": ""Aldi<br/>Clevedon<br/>Somerset<br/>BS21 6XT"", ""geometry"": { ""coordinates"": [ -2.843307839, 51.43348172 ] } },"
Aldi,Weston-Super-Mare,Ashcombe Park,Somerset,BS22 8NA,-2.941201846,51.34454507,"{ ""tooltip"": ""Aldi<br/>Weston-Super-Mare<br/>Somerset<br/>BS22 8NA"", ""geometry"": { ""coordinates"": [ -2.941201846, 51.34454507 ] } },"
Aldi,Burnham-on-Sea,Highbridge,Somerset,TA9 4PW,-2.961176388,51.22800105,"{ ""tooltip"": ""Aldi<br/>Burnham-on-Sea<br/>Somerset<br/>TA9 4PW"", ""geometry"": { ""coordinates"": [ -2.961176388, 51.22800105 ] } },"
Aldi,Bathpool£ Somerset,,Somerset,TA2 8BA,-3.068300702,51.02663024,"{ ""tooltip"": ""Aldi<br/>Bathpool£ Somerset<br/>Somerset<br/>TA2 8BA"", ""geometry"": { ""coordinates"": [ -3.068300702, 51.02663024 ] } },"
Aldi,Bridgwater,Wembdon,Somerset,TA6 3EU,-3.004477843,51.13140784,"{ ""tooltip"": ""Aldi<br/>Bridgwater<br/>Somerset<br/>TA6 3EU"", ""geometry"": { ""coordinates"": [ -3.004477843, 51.13140784 ] } },"
Aldi,Aylesbury,Central Aylesbury,Buckinghamshire,HP20 1BT,-0.807820872,51.81958752,"{ ""tooltip"": ""Aldi<br/>Aylesbury<br/>Buckinghamshire<br/>HP20 1BT"", ""geometry"": { ""coordinates"": [ -0.807820872, 51.81958752 ] } },"
Aldi,High Wycombe,Central High Wycombe,Buckinghamshire,HP11 2RX,-0.760157454,51.63263902,"{ ""tooltip"": ""Aldi<br/>High Wycombe<br/>Buckinghamshire<br/>HP11 2RX"", ""geometry"": { ""coordinates"": [ -0.760157454, 51.63263902 ] } },"
Aldi,High Wycombe,Wycombe Marsh£ High Wycombe,Buckinghamshire,HP13 7EQ,-0.713632664,51.61787368,"{ ""tooltip"": ""Aldi<br/>High Wycombe<br/>Buckinghamshire<br/>HP13 7EQ"", ""geometry"": { ""coordinates"": [ -0.713632664, 51.61787368 ] } },"
Aldi,Buckingham,Mount Pleasant,Buckinghamshire,MK18 1TG,-0.990182406,51.98911767,"{ ""tooltip"": ""Aldi<br/>Buckingham<br/>Buckinghamshire<br/>MK18 1TG"", ""geometry"": { ""coordinates"": [ -0.990182406, 51.98911767 ] } },"
Aldi,Aylesbury,Quarrendon,Buckinghamshire,HP19 8AW,-0.830717897,51.82352685,"{ ""tooltip"": ""Aldi<br/>Aylesbury<br/>Buckinghamshire<br/>HP19 8AW"", ""geometry"": { ""coordinates"": [ -0.830717897, 51.82352685 ] } },"
Aldi,Milton Keynes,Great Linford,Buckinghamshire,MK14 6GU,-0.774162967,52.06200598,"{ ""tooltip"": ""Aldi<br/>Milton Keynes<br/>Buckinghamshire<br/>MK14 6GU"", ""geometry"": { ""coordinates"": [ -0.774162967, 52.06200598 ] } },"
Aldi,Milton Keynes,Emerson Valley,Buckinghamshire,MK4 4DD,-0.794737622,52.00513392,"{ ""tooltip"": ""Aldi<br/>Milton Keynes<br/>Buckinghamshire<br/>MK4 4DD"", ""geometry"": { ""coordinates"": [ -0.794737622, 52.00513392 ] } },"
Aldi,Milton Keynes,Bletchley,Buckinghamshire,MK1 1EY,-0.727660743,52.00346653,"{ ""tooltip"": ""Aldi<br/>Milton Keynes<br/>Buckinghamshire<br/>MK1 1EY"", ""geometry"": { ""coordinates"": [ -0.727660743, 52.00346653 ] } },"
Aldi,Milton Keynes,Bradwell,Buckinghamshire,MK13 8BF,-0.776115467,52.04294394,"{ ""tooltip"": ""Aldi<br/>Milton Keynes<br/>Buckinghamshire<br/>MK13 8BF"", ""geometry"": { ""coordinates"": [ -0.776115467, 52.04294394 ] } },"
Aldi,Wadebridge,,Cornwall,PL27 7FE,-4.854407173,50.51773521,"{ ""tooltip"": ""Aldi<br/>Wadebridge<br/>Cornwall<br/>PL27 7FE"", ""geometry"": { ""coordinates"": [ -4.854407173, 50.51773521 ] } },"
Aldi,Newquay,Trenance,Cornwall,TR7 1SW,-5.077079461,50.41511992,"{ ""tooltip"": ""Aldi<br/>Newquay<br/>Cornwall<br/>TR7 1SW"", ""geometry"": { ""coordinates"": [ -5.077079461, 50.41511992 ] } },"
Aldi,Truro,Highertown,Cornwall,TR1 3PZ,-5.071650329,50.26183373,"{ ""tooltip"": ""Aldi<br/>Truro<br/>Cornwall<br/>TR1 3PZ"", ""geometry"": { ""coordinates"": [ -5.071650329, 50.26183373 ] } },"
Aldi,Camborne,Camborne,Cornwall,TR14 7DF,-5.301390286,50.21396447,"{ ""tooltip"": ""Aldi<br/>Camborne<br/>Cornwall<br/>TR14 7DF"", ""geometry"": { ""coordinates"": [ -5.301390286, 50.21396447 ] } },"
Aldi,St Austell,Mount Charles,Cornwall,PL25 4HW,-4.775148613,50.34242242,"{ ""tooltip"": ""Aldi<br/>St Austell<br/>Cornwall<br/>PL25 4HW"", ""geometry"": { ""coordinates"": [ -4.775148613, 50.34242242 ] } },"
Aldi,Redruth,,Cornwall,TR15 1FH,-5.232214264,50.24254225,"{ ""tooltip"": ""Aldi<br/>Redruth<br/>Cornwall<br/>TR15 1FH"", ""geometry"": { ""coordinates"": [ -5.232214264, 50.24254225 ] } },"
Aldi,Bodmin,,Cornwall,PL31 2FJ,-4.702428915,50.46730027,"{ ""tooltip"": ""Aldi<br/>Bodmin<br/>Cornwall<br/>PL31 2FJ"", ""geometry"": { ""coordinates"": [ -4.702428915, 50.46730027 ] } },"
Aldi,Liskeard,,Cornwall,PL14 3XA,-4.45220794,50.46040958,"{ ""tooltip"": ""Aldi<br/>Liskeard<br/>Cornwall<br/>PL14 3XA"", ""geometry"": { ""coordinates"": [ -4.45220794, 50.46040958 ] } },"
Aldi,Ulverston,,Cumbria,LA12 7TW,-3.104440037,54.19152399,"{ ""tooltip"": ""Aldi<br/>Ulverston<br/>Cumbria<br/>LA12 7TW"", ""geometry"": { ""coordinates"": [ -3.104440037, 54.19152399 ] } },"
Aldi,Barrow-in-Furness,Central Barrow,Cumbria,LA14 2NA,-3.238699964,54.11489999,"{ ""tooltip"": ""Aldi<br/>Barrow-in-Furness<br/>Cumbria<br/>LA14 2NA"", ""geometry"": { ""coordinates"": [ -3.238699964, 54.11489999 ] } },"
Aldi,Barrow-in-Furness,Newbarns,Cumbria,LA13 9RA,-3.210613066,54.11586126,"{ ""tooltip"": ""Aldi<br/>Barrow-in-Furness<br/>Cumbria<br/>LA13 9RA"", ""geometry"": { ""coordinates"": [ -3.210613066, 54.11586126 ] } },"
Aldi,Penrith,Pooley Bridge,Cumbria,CA11 7GS,-2.759880633,54.65972339,"{ ""tooltip"": ""Aldi<br/>Penrith<br/>Cumbria<br/>CA11 7GS"", ""geometry"": { ""coordinates"": [ -2.759880633, 54.65972339 ] } },"
Aldi,Carlisle,Harraby,Cumbria,CA1 3AG,-2.90753657,54.8769145,"{ ""tooltip"": ""Aldi<br/>Carlisle<br/>Cumbria<br/>CA1 3AG"", ""geometry"": { ""coordinates"": [ -2.90753657, 54.8769145 ] } },"
Aldi,Kendal,Sandylands,Cumbria,LA9 6DU,-2.734778764,54.33999531,"{ ""tooltip"": ""Aldi<br/>Kendal<br/>Cumbria<br/>LA9 6DU"", ""geometry"": { ""coordinates"": [ -2.734778764, 54.33999531 ] } },"
Aldi,Carlisle,Kingstown,Cumbria,CA3 0AJ,-2.942396706,54.91439465,"{ ""tooltip"": ""Aldi<br/>Carlisle<br/>Cumbria<br/>CA3 0AJ"", ""geometry"": { ""coordinates"": [ -2.942396706, 54.91439465 ] } },"
Aldi,Carlisle,Belle Vue,Cumbria,CA2 5NP,-2.94777568,54.89036953,"{ ""tooltip"": ""Aldi<br/>Carlisle<br/>Cumbria<br/>CA2 5NP"", ""geometry"": { ""coordinates"": [ -2.94777568, 54.89036953 ] } },"
Aldi,Whitehaven,Hensingham,Cumbria,CA28 9DL,-3.590100392,54.5444528,"{ ""tooltip"": ""Aldi<br/>Whitehaven<br/>Cumbria<br/>CA28 9DL"", ""geometry"": { ""coordinates"": [ -3.590100392, 54.5444528 ] } },"
Aldi,Workington,Workington,Cumbria,CA14 3YW,-3.563261175,54.64158658,"{ ""tooltip"": ""Aldi<br/>Workington<br/>Cumbria<br/>CA14 3YW"", ""geometry"": { ""coordinates"": [ -3.563261175, 54.64158658 ] } },"
Aldi,Cockermouth,,Cumbria,CA13 0HH,-3.37298428,54.66299495,"{ ""tooltip"": ""Aldi<br/>Cockermouth<br/>Cumbria<br/>CA13 0HH"", ""geometry"": { ""coordinates"": [ -3.37298428, 54.66299495 ] } },"
Aldi,Witham,Witham Town Centre,Essex,CM8 1XU,0.622826286,51.78761318,"{ ""tooltip"": ""Aldi<br/>Witham<br/>Essex<br/>CM8 1XU"", ""geometry"": { ""coordinates"": [ 0.622826286, 51.78761318 ] } },"
Aldi,Southend-On-Sea,Leigh-on-Sea,Essex,SS0 9HQ,0.68113117,51.5453896,"{ ""tooltip"": ""Aldi<br/>Southend-On-Sea<br/>Essex<br/>SS0 9HQ"", ""geometry"": { ""coordinates"": [ 0.68113117, 51.5453896 ] } },"
Aldi,Southend-On-Sea,Prittlewell,Essex,SS2 6AH,0.70698889,51.55591958,"{ ""tooltip"": ""Aldi<br/>Southend-On-Sea<br/>Essex<br/>SS2 6AH"", ""geometry"": { ""coordinates"": [ 0.70698889, 51.55591958 ] } },"
Aldi,Maldon,,Essex,CM9 4DY,0.681902629,51.73643268,"{ ""tooltip"": ""Aldi<br/>Maldon<br/>Essex<br/>CM9 4DY"", ""geometry"": { ""coordinates"": [ 0.681902629, 51.73643268 ] } },"
Aldi,Harlow,Mark Hall,Essex,CM20 3FA,0.112522684,51.77628434,"{ ""tooltip"": ""Aldi<br/>Harlow<br/>Essex<br/>CM20 3FA"", ""geometry"": { ""coordinates"": [ 0.112522684, 51.77628434 ] } },"
Aldi,Loughton,Debden,Essex,IG10 3FT,0.086210089,51.64305018,"{ ""tooltip"": ""Aldi<br/>Loughton<br/>Essex<br/>IG10 3FT"", ""geometry"": { ""coordinates"": [ 0.086210089, 51.64305018 ] } },"
Aldi,Saffron Walden,,Essex,CB10 2UQ,0.255320789,52.01369727,"{ ""tooltip"": ""Aldi<br/>Saffron Walden<br/>Essex<br/>CB10 2UQ"", ""geometry"": { ""coordinates"": [ 0.255320789, 52.01369727 ] } },"
Aldi,Basildon,Pitsea,Essex,SS13 3DU,0.50494108,51.56660887,"{ ""tooltip"": ""Aldi<br/>Basildon<br/>Essex<br/>SS13 3DU"", ""geometry"": { ""coordinates"": [ 0.50494108, 51.56660887 ] } },"
Aldi,Chelmsford,Central Chelmsford,Essex,CM2 7PR,0.480951638,51.72750666,"{ ""tooltip"": ""Aldi<br/>Chelmsford<br/>Essex<br/>CM2 7PR"", ""geometry"": { ""coordinates"": [ 0.480951638, 51.72750666 ] } },"
Aldi,Wickford,London Road,Essex,SS11 7AJ,0.522746358,51.6137606,"{ ""tooltip"": ""Aldi<br/>Wickford<br/>Essex<br/>SS11 7AJ"", ""geometry"": { ""coordinates"": [ 0.522746358, 51.6137606 ] } },"
Aldi,Chelmsford,Central Chelmsford,Essex,CM1 3FJ,0.452934256,51.72283294,"{ ""tooltip"": ""Aldi<br/>Chelmsford<br/>Essex<br/>CM1 3FJ"", ""geometry"": { ""coordinates"": [ 0.452934256, 51.72283294 ] } },"
Aldi,Chelmsford,Springfield,Essex,CM2 6AP,0.5008734,51.74618471,"{ ""tooltip"": ""Aldi<br/>Chelmsford<br/>Essex<br/>CM2 6AP"", ""geometry"": { ""coordinates"": [ 0.5008734, 51.74618471 ] } },"
Aldi,South Benfleet,,Essex,SS7 4BX,0.551186657,51.56830138,"{ ""tooltip"": ""Aldi<br/>South Benfleet<br/>Essex<br/>SS7 4BX"", ""geometry"": { ""coordinates"": [ 0.551186657, 51.56830138 ] } },"
Aldi,Clacton-on-Sea,Great Clacton,Essex,CO15 1NJ,1.148775042,51.79290983,"{ ""tooltip"": ""Aldi<br/>Clacton-on-Sea<br/>Essex<br/>CO15 1NJ"", ""geometry"": { ""coordinates"": [ 1.148775042, 51.79290983 ] } },"
Aldi,Colchester,Central Colchester,Essex,CO1 2FJ,0.909018483,51.88526417,"{ ""tooltip"": ""Aldi<br/>Colchester<br/>Essex<br/>CO1 2FJ"", ""geometry"": { ""coordinates"": [ 0.909018483, 51.88526417 ] } },"
Aldi,Colchester,Mile End,Essex,CO1 1YN,0.910727611,51.89870151,"{ ""tooltip"": ""Aldi<br/>Colchester<br/>Essex<br/>CO1 1YN"", ""geometry"": { ""coordinates"": [ 0.910727611, 51.89870151 ] } },"
Aldi,Colchester,Shrub End,Essex,CO3 9DW,0.851910586,51.88948681,"{ ""tooltip"": ""Aldi<br/>Colchester<br/>Essex<br/>CO3 9DW"", ""geometry"": { ""coordinates"": [ 0.851910586, 51.88948681 ] } },"
Aldi,Grays,Grays,Essex,RM17 5YB,0.316695524,51.4768827,"{ ""tooltip"": ""Aldi<br/>Grays<br/>Essex<br/>RM17 5YB"", ""geometry"": { ""coordinates"": [ 0.316695524, 51.4768827 ] } },"
Aldi,Frinton-on-Sea,Walton-on-the-Naze,Essex,CO14 8FR,1.266470896,51.84965289,"{ ""tooltip"": ""Aldi<br/>Frinton-on-Sea<br/>Essex<br/>CO14 8FR"", ""geometry"": { ""coordinates"": [ 1.266470896, 51.84965289 ] } },"
Aldi,Stroud,Woodchester,Gloucestershire,GL5 3TA,-2.233899965,51.73449999,"{ ""tooltip"": ""Aldi<br/>Stroud<br/>Gloucestershire<br/>GL5 3TA"", ""geometry"": { ""coordinates"": [ -2.233899965, 51.73449999 ] } },"
Aldi,Cirencester,,Gloucestershire,GL7 1NP,-1.953843304,51.70675504,"{ ""tooltip"": ""Aldi<br/>Cirencester<br/>Gloucestershire<br/>GL7 1NP"", ""geometry"": { ""coordinates"": [ -1.953843304, 51.70675504 ] } },"
Aldi,Gloucester,Quedgeley,Gloucestershire,GL2 4QL,-2.276459843,51.82575803,"{ ""tooltip"": ""Aldi<br/>Gloucester<br/>Gloucestershire<br/>GL2 4QL"", ""geometry"": { ""coordinates"": [ -2.276459843, 51.82575803 ] } },"
Aldi,Gloucester,Hucclecote,Gloucestershire,GL3 3TH,-2.196070244,51.85873686,"{ ""tooltip"": ""Aldi<br/>Gloucester<br/>Gloucestershire<br/>GL3 3TH"", ""geometry"": { ""coordinates"": [ -2.196070244, 51.85873686 ] } },"
Aldi,Cheltenham,Hester's Way,Gloucestershire,GL51 0SN,-2.10965887,51.91801479,"{ ""tooltip"": ""Aldi<br/>Cheltenham<br/>Gloucestershire<br/>GL51 0SN"", ""geometry"": { ""coordinates"": [ -2.10965887, 51.91801479 ] } },"
Aldi,Tewkesbury,Mitton,Gloucestershire,GL20 5SY,-2.161713258,51.98513277,"{ ""tooltip"": ""Aldi<br/>Tewkesbury<br/>Gloucestershire<br/>GL20 5SY"", ""geometry"": { ""coordinates"": [ -2.161713258, 51.98513277 ] } },"
Aldi,Moreton-in-Marsh,,Gloucestershire,GL56 0DS,-1.705413112,51.98441586,"{ ""tooltip"": ""Aldi<br/>Moreton-in-Marsh<br/>Gloucestershire<br/>GL56 0DS"", ""geometry"": { ""coordinates"": [ -1.705413112, 51.98441586 ] } },"
Aldi,Bristol,Longwell Green,Gloucestershire,BS30 9DE,-2.494689518,51.43835502,"{ ""tooltip"": ""Aldi<br/>Bristol<br/>Gloucestershire<br/>BS30 9DE"", ""geometry"": { ""coordinates"": [ -2.494689518, 51.43835502 ] } },"
Aldi,Bristol,Bradley Stoke,Gloucestershire,BS32 9DA,-2.558004342,51.54138921,"{ ""tooltip"": ""Aldi<br/>Bristol<br/>Gloucestershire<br/>BS32 9DA"", ""geometry"": { ""coordinates"": [ -2.558004342, 51.54138921 ] } },"
Aldi,Thornbury,,Gloucestershire,BS35 2AX,-2.524260891,51.60797344,"{ ""tooltip"": ""Aldi<br/>Thornbury<br/>Gloucestershire<br/>BS35 2AX"", ""geometry"": { ""coordinates"": [ -2.524260891, 51.60797344 ] } },"
Aldi,Winchester,Harestock,Hampshire,SO22 5JQ,-1.337575501,51.07485343,"{ ""tooltip"": ""Aldi<br/>Winchester<br/>Hampshire<br/>SO22 5JQ"", ""geometry"": { ""coordinates"": [ -1.337575501, 51.07485343 ] } },"
Aldi,Alton£ Hampshire,,Hampshire,GU34 2QS,-0.956643255,51.15739461,"{ ""tooltip"": ""Aldi<br/>Alton£ Hampshire<br/>Hampshire<br/>GU34 2QS"", ""geometry"": { ""coordinates"": [ -0.956643255, 51.15739461 ] } },"
Aldi,Basingstoke,Brighton Hill,Hampshire,RG22 4BH,-1.107081114,51.25033945,"{ ""tooltip"": ""Aldi<br/>Basingstoke<br/>Hampshire<br/>RG22 4BH"", ""geometry"": { ""coordinates"": [ -1.107081114, 51.25033945 ] } },"
Aldi,Basingstoke,Winklebury,Hampshire,RG23 8BB,-1.113065227,51.27318345,"{ ""tooltip"": ""Aldi<br/>Basingstoke<br/>Hampshire<br/>RG23 8BB"", ""geometry"": { ""coordinates"": [ -1.113065227, 51.27318345 ] } },"
Aldi,Romsey,Halterworth,Hampshire,SO51 8GE,-1.497237749,50.98852257,"{ ""tooltip"": ""Aldi<br/>Romsey<br/>Hampshire<br/>SO51 8GE"", ""geometry"": { ""coordinates"": [ -1.497237749, 50.98852257 ] } },"
Aldi,Andover,West Andover,Hampshire,SP10 3LS,-1.512856522,51.21131982,"{ ""tooltip"": ""Aldi<br/>Andover<br/>Hampshire<br/>SP10 3LS"", ""geometry"": { ""coordinates"": [ -1.512856522, 51.21131982 ] } },"
Aldi,Havant,Bedhampton,Hampshire,PO9 1HH,-0.985864164,50.8542286,"{ ""tooltip"": ""Aldi<br/>Havant<br/>Hampshire<br/>PO9 1HH"", ""geometry"": { ""coordinates"": [ -0.985864164, 50.8542286 ] } },"
Aldi,Cosham,Paulsgrove,Hampshire,PO6 4RJ,-1.095176742,50.84751273,"{ ""tooltip"": ""Aldi<br/>Cosham<br/>Hampshire<br/>PO6 4RJ"", ""geometry"": { ""coordinates"": [ -1.095176742, 50.84751273 ] } },"
Aldi,Portsmouth,Kingston,Hampshire,PO2 7AL,-1.081541946,50.81288028,"{ ""tooltip"": ""Aldi<br/>Portsmouth<br/>Hampshire<br/>PO2 7AL"", ""geometry"": { ""coordinates"": [ -1.081541946, 50.81288028 ] } },"
Aldi,Southampton,Thornhill,Hampshire,SO19 8BR,-1.330297996,50.90126739,"{ ""tooltip"": ""Aldi<br/>Southampton<br/>Hampshire<br/>SO19 8BR"", ""geometry"": { ""coordinates"": [ -1.330297996, 50.90126739 ] } },"
Aldi,Southampton,Bevois,Hampshire,SO14 0JZ,-1.395111296,50.91752304,"{ ""tooltip"": ""Aldi<br/>Southampton<br/>Hampshire<br/>SO14 0JZ"", ""geometry"": { ""coordinates"": [ -1.395111296, 50.91752304 ] } },"
Aldi,Fareham,Funtley,Hampshire,PO16 0AL,-1.187496256,50.8523286,"{ ""tooltip"": ""Aldi<br/>Fareham<br/>Hampshire<br/>PO16 0AL"", ""geometry"": { ""coordinates"": [ -1.187496256, 50.8523286 ] } },"
Aldi,Gosport,Central Gosport,Hampshire,PO12 1BG,-1.121533757,50.79644258,"{ ""tooltip"": ""Aldi<br/>Gosport<br/>Hampshire<br/>PO12 1BG"", ""geometry"": { ""coordinates"": [ -1.121533757, 50.79644258 ] } },"
Aldi,Blackwater£ Hampshire,,Hampshire,GU17 0AA,-0.780377092,51.33091028,"{ ""tooltip"": ""Aldi<br/>Blackwater£ Hampshire<br/>Hampshire<br/>GU17 0AA"", ""geometry"": { ""coordinates"": [ -0.780377092, 51.33091028 ] } },"
Aldi,Chandlers Ford,Valley Park,Hampshire,SO53 3LE,-1.386689277,50.96739887,"{ ""tooltip"": ""Aldi<br/>Chandlers Ford<br/>Hampshire<br/>SO53 3LE"", ""geometry"": { ""coordinates"": [ -1.386689277, 50.96739887 ] } },"
Aldi,Forfar,,Angus,DD8 1BT,-2.894765856,56.64609296,"{ ""tooltip"": ""Aldi<br/>Forfar<br/>Angus<br/>DD8 1BT"", ""geometry"": { ""coordinates"": [ -2.894765856, 56.64609296 ] } },"
Aldi,Dundee,Lochee,Angus,DD2 3XN,-3.005239666,56.47391482,"{ ""tooltip"": ""Aldi<br/>Dundee<br/>Angus<br/>DD2 3XN"", ""geometry"": { ""coordinates"": [ -3.005239666, 56.47391482 ] } },"
Aldi,Dundee,Pitkerro,Angus,DD4 7PU,-2.929915196,56.47381299,"{ ""tooltip"": ""Aldi<br/>Dundee<br/>Angus<br/>DD4 7PU"", ""geometry"": { ""coordinates"": [ -2.929915196, 56.47381299 ] } },"
Aldi,Dundee,Charleston,Angus,DD2 4WB,-3.047064317,56.47558792,"{ ""tooltip"": ""Aldi<br/>Dundee<br/>Angus<br/>DD2 4WB"", ""geometry"": { ""coordinates"": [ -3.047064317, 56.47558792 ] } },"
Aldi,Montrose,,Angus,DD10 8DE,-2.471511826,56.71329603,"{ ""tooltip"": ""Aldi<br/>Montrose<br/>Angus<br/>DD10 8DE"", ""geometry"": { ""coordinates"": [ -2.471511826, 56.71329603 ] } },"
Aldi,St Andrews,,Fife,KY16 8YB,-2.804291143,56.33067309,"{ ""tooltip"": ""Aldi<br/>St Andrews<br/>Fife<br/>KY16 8YB"", ""geometry"": { ""coordinates"": [ -2.804291143, 56.33067309 ] } },"
Aldi,Cupar,,Fife,KY15 5JE,-3.007961031,56.31416995,"{ ""tooltip"": ""Aldi<br/>Cupar<br/>Fife<br/>KY15 5JE"", ""geometry"": { ""coordinates"": [ -3.007961031, 56.31416995 ] } },"
Aldi,Kirkcaldy,Sinclairtown,Fife,KY1 2DJ,-3.142217956,56.12674594,"{ ""tooltip"": ""Aldi<br/>Kirkcaldy<br/>Fife<br/>KY1 2DJ"", ""geometry"": { ""coordinates"": [ -3.142217956, 56.12674594 ] } },"
Aldi,Glenrothes,Central Glenrothes,Fife,KY7 5QF,-3.162264002,56.19873405,"{ ""tooltip"": ""Aldi<br/>Glenrothes<br/>Fife<br/>KY7 5QF"", ""geometry"": { ""coordinates"": [ -3.162264002, 56.19873405 ] } },"
Aldi,Dunfermline,Abbeyview,Fife,KY11 8LW,-3.404050684,56.06169315,"{ ""tooltip"": ""Aldi<br/>Dunfermline<br/>Fife<br/>KY11 8LW"", ""geometry"": { ""coordinates"": [ -3.404050684, 56.06169315 ] } },"
Aldi,Kirkcaldy,Sauchenbush,Fife,KY2 5RY,-3.169512177,56.11293084,"{ ""tooltip"": ""Aldi<br/>Kirkcaldy<br/>Fife<br/>KY2 5RY"", ""geometry"": { ""coordinates"": [ -3.169512177, 56.11293084 ] } },"
Aldi,Dunfermline,Bellyeoman,Fife,KY12 7QY,-3.443631913,56.07546268,"{ ""tooltip"": ""Aldi<br/>Dunfermline<br/>Fife<br/>KY12 7QY"", ""geometry"": { ""coordinates"": [ -3.443631913, 56.07546268 ] } },"
Aldi,Dalgety Bay,,Fife,KY11 9HZ,-3.361202031,56.04228276,"{ ""tooltip"": ""Aldi<br/>Dalgety Bay<br/>Fife<br/>KY11 9HZ"", ""geometry"": { ""coordinates"": [ -3.361202031, 56.04228276 ] } },"
Aldi,Cowdenbeath,Cowdenbeath,Fife,KY4 9DG,-3.347973114,56.11100717,"{ ""tooltip"": ""Aldi<br/>Cowdenbeath<br/>Fife<br/>KY4 9DG"", ""geometry"": { ""coordinates"": [ -3.347973114, 56.11100717 ] } },"
Aldi,Leven£ Fife,,Fife,KY8 4FW,-3.021842023,56.19771983,"{ ""tooltip"": ""Aldi<br/>Leven£ Fife<br/>Fife<br/>KY8 4FW"", ""geometry"": { ""coordinates"": [ -3.021842023, 56.19771983 ] } },"
Aldi,Dinnington,Throapham,South Yorkshire,S25 2AF,-1.211946506,53.36815109,"{ ""tooltip"": ""Aldi<br/>Dinnington<br/>South Yorkshire<br/>S25 2AF"", ""geometry"": { ""coordinates"": [ -1.211946506, 53.36815109 ] } },"
Aldi,Doncaster,Scawthorpe,South Yorkshire,DN5 8QE,-1.170179225,53.53789788,"{ ""tooltip"": ""Aldi<br/>Doncaster<br/>South Yorkshire<br/>DN5 8QE"", ""geometry"": { ""coordinates"": [ -1.170179225, 53.53789788 ] } },"
Aldi,Doncaster,Central Doncaster,South Yorkshire,DN1 2DG,-1.126558639,53.5286078,"{ ""tooltip"": ""Aldi<br/>Doncaster<br/>South Yorkshire<br/>DN1 2DG"", ""geometry"": { ""coordinates"": [ -1.126558639, 53.5286078 ] } },"
Aldi,Maltby£ South Yorkshire,,South Yorkshire,S66 7JU,-1.193032192,53.41994933,"{ ""tooltip"": ""Aldi<br/>Maltby£ South Yorkshire<br/>South Yorkshire<br/>S66 7JU"", ""geometry"": { ""coordinates"": [ -1.193032192, 53.41994933 ] } },"
Aldi,Aughton£ South Yorkshire,,South Yorkshire,S26 4UN,-1.332601007,53.36296229,"{ ""tooltip"": ""Aldi<br/>Aughton£ South Yorkshire<br/>South Yorkshire<br/>S26 4UN"", ""geometry"": { ""coordinates"": [ -1.332601007, 53.36296229 ] } },"
Aldi,Rotherham,Rawmarsh,South Yorkshire,S62 6FR,-1.341536616,53.44947145,"{ ""tooltip"": ""Aldi<br/>Rotherham<br/>South Yorkshire<br/>S62 6FR"", ""geometry"": { ""coordinates"": [ -1.341536616, 53.44947145 ] } },"
Aldi,Sheffield,Mosborough,South Yorkshire,S20 7HT,-1.354079572,53.34634192,"{ ""tooltip"": ""Aldi<br/>Sheffield<br/>South Yorkshire<br/>S20 7HT"", ""geometry"": { ""coordinates"": [ -1.354079572, 53.34634192 ] } },"
Aldi,Rotherham,Central Rotherham,South Yorkshire,S65 1QA,-1.345053826,53.43737226,"{ ""tooltip"": ""Aldi<br/>Rotherham<br/>South Yorkshire<br/>S65 1QA"", ""geometry"": { ""coordinates"": [ -1.345053826, 53.43737226 ] } },"
Aldi,Bramley£ South Yorkshire,,South Yorkshire,S66 2TW,-1.263509339,53.42436419,"{ ""tooltip"": ""Aldi<br/>Bramley£ South Yorkshire<br/>South Yorkshire<br/>S66 2TW"", ""geometry"": { ""coordinates"": [ -1.263509339, 53.42436419 ] } },"
Aldi,Goldthorpe,,South Yorkshire,S63 9FA,-1.322375877,53.53309091,"{ ""tooltip"": ""Aldi<br/>Goldthorpe<br/>South Yorkshire<br/>S63 9FA"", ""geometry"": { ""coordinates"": [ -1.322375877, 53.53309091 ] } },"
Aldi,Goldthorpe,,South Yorkshire,S63 7EX,-1.308574197,53.53911895,"{ ""tooltip"": ""Aldi<br/>Goldthorpe<br/>South Yorkshire<br/>S63 7EX"", ""geometry"": { ""coordinates"": [ -1.308574197, 53.53911895 ] } },"
Aldi,Barnsley,Kendray,South Yorkshire,S70 3PE,-1.440160857,53.54494028,"{ ""tooltip"": ""Aldi<br/>Barnsley<br/>South Yorkshire<br/>S70 3PE"", ""geometry"": { ""coordinates"": [ -1.440160857, 53.54494028 ] } },"
Aldi,Royston£ South Yorkshire,,South Yorkshire,S71 4RF,-1.459143856,53.59768677,"{ ""tooltip"": ""Aldi<br/>Royston£ South Yorkshire<br/>South Yorkshire<br/>S71 4RF"", ""geometry"": { ""coordinates"": [ -1.459143856, 53.59768677 ] } },"
Aldi,Cudworth,Cudworth,South Yorkshire,S72 8SU,-1.415901728,53.57830942,"{ ""tooltip"": ""Aldi<br/>Cudworth<br/>South Yorkshire<br/>S72 8SU"", ""geometry"": { ""coordinates"": [ -1.415901728, 53.57830942 ] } },"
Aldi,Barnsley,Barugh,South Yorkshire,S75 1AP,-1.51981656,53.56783559,"{ ""tooltip"": ""Aldi<br/>Barnsley<br/>South Yorkshire<br/>S75 1AP"", ""geometry"": { ""coordinates"": [ -1.51981656, 53.56783559 ] } },"
Aldi,Stocksbridge,Stocksbridge,South Yorkshire,S36 2AD,-1.585690534,53.48262329,"{ ""tooltip"": ""Aldi<br/>Stocksbridge<br/>South Yorkshire<br/>S36 2AD"", ""geometry"": { ""coordinates"": [ -1.585690534, 53.48262329 ] } },"
Aldi,Birdwell,,South Yorkshire,S70 5TR,-1.478151032,53.50092014,"{ ""tooltip"": ""Aldi<br/>Birdwell<br/>South Yorkshire<br/>S70 5TR"", ""geometry"": { ""coordinates"": [ -1.478151032, 53.50092014 ] } },"
Aldi,Sheffield,Broomhill,South Yorkshire,S2 4QA,-1.475109799,53.37235011,"{ ""tooltip"": ""Aldi<br/>Sheffield<br/>South Yorkshire<br/>S2 4QA"", ""geometry"": { ""coordinates"": [ -1.475109799, 53.37235011 ] } },"
Aldi,Sheffield,Ecclesfield,South Yorkshire,S35 9WN,-1.46391686,53.44578661,"{ ""tooltip"": ""Aldi<br/>Sheffield<br/>South Yorkshire<br/>S35 9WN"", ""geometry"": { ""coordinates"": [ -1.46391686, 53.44578661 ] } },"
Aldi,Sheffield,Walkley,South Yorkshire,S6 2BF,-1.48724636,53.39476182,"{ ""tooltip"": ""Aldi<br/>Sheffield<br/>South Yorkshire<br/>S6 2BF"", ""geometry"": { ""coordinates"": [ -1.48724636, 53.39476182 ] } },"
Aldi,Sheffield,Greenhill,South Yorkshire,S8 8BS,-1.466269972,53.32707584,"{ ""tooltip"": ""Aldi<br/>Sheffield<br/>South Yorkshire<br/>S8 8BS"", ""geometry"": { ""coordinates"": [ -1.466269972, 53.32707584 ] } },"
Aldi,Sheffield,Woodseats,South Yorkshire,S8 0JX,-1.491998103,53.34484825,"{ ""tooltip"": ""Aldi<br/>Sheffield<br/>South Yorkshire<br/>S8 0JX"", ""geometry"": { ""coordinates"": [ -1.491998103, 53.34484825 ] } },"
Aldi,Sheffield,Handsworth,South Yorkshire,S13 9BS,-1.393891355,53.37542828,"{ ""tooltip"": ""Aldi<br/>Sheffield<br/>South Yorkshire<br/>S13 9BS"", ""geometry"": { ""coordinates"": [ -1.393891355, 53.37542828 ] } },"
Aldi,Rotherham,Blackburn,South Yorkshire,S61 1RL,-1.373229572,53.43333725,"{ ""tooltip"": ""Aldi<br/>Rotherham<br/>South Yorkshire<br/>S61 1RL"", ""geometry"": { ""coordinates"": [ -1.373229572, 53.43333725 ] } },"
Aldi,Armthorpe,,South Yorkshire,DN3 3AE,-1.055209636,53.53474715,"{ ""tooltip"": ""Aldi<br/>Armthorpe<br/>South Yorkshire<br/>DN3 3AE"", ""geometry"": { ""coordinates"": [ -1.055209636, 53.53474715 ] } },"
Aldi,Thorne,,South Yorkshire,DN8 5UG,-0.977499287,53.6171286,"{ ""tooltip"": ""Aldi<br/>Thorne<br/>South Yorkshire<br/>DN8 5UG"", ""geometry"": { ""coordinates"": [ -0.977499287, 53.6171286 ] } },"
Aldi,Haverhill,,Suffolk,CB9 0ER,0.441223352,52.08340422,"{ ""tooltip"": ""Aldi<br/>Haverhill<br/>Suffolk<br/>CB9 0ER"", ""geometry"": { ""coordinates"": [ 0.441223352, 52.08340422 ] } },"
Aldi,Bury St Edmunds,Central Bury St Edmunds,Suffolk,IP33 3TU,0.69068244,52.24894594,"{ ""tooltip"": ""Aldi<br/>Bury St Edmunds<br/>Suffolk<br/>IP33 3TU"", ""geometry"": { ""coordinates"": [ 0.69068244, 52.24894594 ] } },"
Aldi,Sudbury,Sudbury,Suffolk,CO10 1NB,0.729714209,52.04210703,"{ ""tooltip"": ""Aldi<br/>Sudbury<br/>Suffolk<br/>CO10 1NB"", ""geometry"": { ""coordinates"": [ 0.729714209, 52.04210703 ] } },"
Aldi,Lowestoft,Gunton,Suffolk,NR32 4GG,1.727486076,52.49402899,"{ ""tooltip"": ""Aldi<br/>Lowestoft<br/>Suffolk<br/>NR32 4GG"", ""geometry"": { ""coordinates"": [ 1.727486076, 52.49402899 ] } },"
Aldi,Lowestoft,Pakefield,Suffolk,NR33 7NG,1.723132207,52.44544096,"{ ""tooltip"": ""Aldi<br/>Lowestoft<br/>Suffolk<br/>NR33 7NG"", ""geometry"": { ""coordinates"": [ 1.723132207, 52.44544096 ] } },"
Aldi,Brandon£ Suffolk,,Suffolk,IP27 0AU,0.624605366,52.44968806,"{ ""tooltip"": ""Aldi<br/>Brandon£ Suffolk<br/>Suffolk<br/>IP27 0AU"", ""geometry"": { ""coordinates"": [ 0.624605366, 52.44968806 ] } },"
Aldi,Ipswich,South Ipswich,Suffolk,IP3 9BG,1.183235316,52.04807284,"{ ""tooltip"": ""Aldi<br/>Ipswich<br/>Suffolk<br/>IP3 9BG"", ""geometry"": { ""coordinates"": [ 1.183235316, 52.04807284 ] } },"
Aldi,Ipswich,Chantry,Suffolk,IP8 3LQ,1.10320283,52.04299164,"{ ""tooltip"": ""Aldi<br/>Ipswich<br/>Suffolk<br/>IP8 3LQ"", ""geometry"": { ""coordinates"": [ 1.10320283, 52.04299164 ] } },"
Aldi,Martlesham Heath,,Suffolk,IP5 3QZ,1.277896552,52.06040753,"{ ""tooltip"": ""Aldi<br/>Martlesham Heath<br/>Suffolk<br/>IP5 3QZ"", ""geometry"": { ""coordinates"": [ 1.277896552, 52.06040753 ] } },"
Aldi,Ipswich,Castle Hill,Suffolk,IP1 6EB,1.127768181,52.07860911,"{ ""tooltip"": ""Aldi<br/>Ipswich<br/>Suffolk<br/>IP1 6EB"", ""geometry"": { ""coordinates"": [ 1.127768181, 52.07860911 ] } },"
Aldi,Walton-on-Thames,Walton-on-Thames,Surrey,KT12 1AE,-0.42060256,51.38633973,"{ ""tooltip"": ""Aldi<br/>Walton-on-Thames<br/>Surrey<br/>KT12 1AE"", ""geometry"": { ""coordinates"": [ -0.42060256, 51.38633973 ] } },"
Aldi,Chertsey,,Surrey,KT16 9AP,-0.506073744,51.39069696,"{ ""tooltip"": ""Aldi<br/>Chertsey<br/>Surrey<br/>KT16 9AP"", ""geometry"": { ""coordinates"": [ -0.506073744, 51.39069696 ] } },"
Aldi,Guildford,Merrow,Surrey,GU1 1YT,-0.545966869,51.25860225,"{ ""tooltip"": ""Aldi<br/>Guildford<br/>Surrey<br/>GU1 1YT"", ""geometry"": { ""coordinates"": [ -0.545966869, 51.25860225 ] } },"
Aldi,Epsom,West Ewell,Surrey,KT19 0BS,-0.263718472,51.36727149,"{ ""tooltip"": ""Aldi<br/>Epsom<br/>Surrey<br/>KT19 0BS"", ""geometry"": { ""coordinates"": [ -0.263718472, 51.36727149 ] } },"
Aldi,Cowes,Cowes,Isle of Wight,PO31 8PF,-1.30557142,50.74935318,"{ ""tooltip"": ""Aldi<br/>Cowes<br/>Isle of Wight<br/>PO31 8PF"", ""geometry"": { ""coordinates"": [ -1.30557142, 50.74935318 ] } },"
Aldi,Shanklin,Shanklin,Isle of Wight,PO36 9FT,-1.179537067,50.64542432,"{ ""tooltip"": ""Aldi<br/>Shanklin<br/>Isle of Wight<br/>PO36 9FT"", ""geometry"": { ""coordinates"": [ -1.179537067, 50.64542432 ] } },"
Aldi,Newcastle Upon Tyne,Forest Hall,Tyne and Wear,NE12 9EW,-1.553582427,55.02540763,"{ ""tooltip"": ""Aldi<br/>Newcastle Upon Tyne<br/>Tyne and Wear<br/>NE12 9EW"", ""geometry"": { ""coordinates"": [ -1.553582427, 55.02540763 ] } },"
Aldi,West Allotment,,Tyne and Wear,NE27 0FS,-1.522876489,55.03139915,"{ ""tooltip"": ""Aldi<br/>West Allotment<br/>Tyne and Wear<br/>NE27 0FS"", ""geometry"": { ""coordinates"": [ -1.522876489, 55.03139915 ] } },"
Aldi,Gateshead,Wrekenton,Tyne and Wear,NE9 7JR,-1.57560423,54.92526515,"{ ""tooltip"": ""Aldi<br/>Gateshead<br/>Tyne and Wear<br/>NE9 7JR"", ""geometry"": { ""coordinates"": [ -1.57560423, 54.92526515 ] } },"
Aldi,Gateshead,Leam Lane,Tyne and Wear,NE10 0QD,-1.5440417,54.95329244,"{ ""tooltip"": ""Aldi<br/>Gateshead<br/>Tyne and Wear<br/>NE10 0QD"", ""geometry"": { ""coordinates"": [ -1.5440417, 54.95329244 ] } },"
Aldi,Newcastle Upon Tyne,Wallsend,Tyne and Wear,NE28 8JD,-1.538692525,54.99066532,"{ ""tooltip"": ""Aldi<br/>Newcastle Upon Tyne<br/>Tyne and Wear<br/>NE28 8JD"", ""geometry"": { ""coordinates"": [ -1.538692525, 54.99066532 ] } },"
Aldi,Newcastle Upon Tyne,Walker,Tyne and Wear,NE6 3LB,-1.551203952,54.96564075,"{ ""tooltip"": ""Aldi<br/>Newcastle Upon Tyne<br/>Tyne and Wear<br/>NE6 3LB"", ""geometry"": { ""coordinates"": [ -1.551203952, 54.96564075 ] } },"
Aldi,Newcastle Upon Tyne,Howdon,Tyne and Wear,NE28 0EB,-1.494423451,54.9985059,"{ ""tooltip"": ""Aldi<br/>Newcastle Upon Tyne<br/>Tyne and Wear<br/>NE28 0EB"", ""geometry"": { ""coordinates"": [ -1.494423451, 54.9985059 ] } },"
Aldi,Gateshead,Central Gateshead,Tyne and Wear,NE8 3LG,-1.595129517,54.95899539,"{ ""tooltip"": ""Aldi<br/>Gateshead<br/>Tyne and Wear<br/>NE8 3LG"", ""geometry"": { ""coordinates"": [ -1.595129517, 54.95899539 ] } },"
Aldi,Hebburn£ Tyne & Wear,Hebburn,Tyne and Wear,NE31 1NU,-1.520565877,54.9738951,"{ ""tooltip"": ""Aldi<br/>Hebburn£ Tyne & Wear<br/>Tyne and Wear<br/>NE31 1NU"", ""geometry"": { ""coordinates"": [ -1.520565877, 54.9738951 ] } },"
Aldi,Whitley Bay,West Monkseaton,Tyne and Wear,NE25 8UG,-1.456747682,55.03390683,"{ ""tooltip"": ""Aldi<br/>Whitley Bay<br/>Tyne and Wear<br/>NE25 8UG"", ""geometry"": { ""coordinates"": [ -1.456747682, 55.03390683 ] } },"
Aldi,South Shields,Central South Shields,Tyne and Wear,NE33 4HF,-1.431043759,54.98968135,"{ ""tooltip"": ""Aldi<br/>South Shields<br/>Tyne and Wear<br/>NE33 4HF"", ""geometry"": { ""coordinates"": [ -1.431043759, 54.98968135 ] } },"
Aldi,Sunderland,Southwick,Tyne and Wear,SR5 2EX,-1.396878521,54.92465984,"{ ""tooltip"": ""Aldi<br/>Sunderland<br/>Tyne and Wear<br/>SR5 2EX"", ""geometry"": { ""coordinates"": [ -1.396878521, 54.92465984 ] } },"
Aldi,Sunderland,Doxford Park,Tyne and Wear,SR3 2XQ,-1.413480015,54.86490976,"{ ""tooltip"": ""Aldi<br/>Sunderland<br/>Tyne and Wear<br/>SR3 2XQ"", ""geometry"": { ""coordinates"": [ -1.413480015, 54.86490976 ] } },"
Aldi,Sunderland,Millfield,Tyne and Wear,SR4 7EG,-1.401918439,54.9063957,"{ ""tooltip"": ""Aldi<br/>Sunderland<br/>Tyne and Wear<br/>SR4 7EG"", ""geometry"": { ""coordinates"": [ -1.401918439, 54.9063957 ] } },"
Aldi,Sunderland,Castletown,Tyne and Wear,SR5 3XG,-1.431860426,54.91807995,"{ ""tooltip"": ""Aldi<br/>Sunderland<br/>Tyne and Wear<br/>SR5 3XG"", ""geometry"": { ""coordinates"": [ -1.431860426, 54.91807995 ] } },"
Aldi,Sunderland,Pennywell,Tyne and Wear,SR4 9FA,-1.451464153,54.89145865,"{ ""tooltip"": ""Aldi<br/>Sunderland<br/>Tyne and Wear<br/>SR4 9FA"", ""geometry"": { ""coordinates"": [ -1.451464153, 54.89145865 ] } },"
Aldi,Whickham,Metrocentre,Tyne and Wear,NE11 9XS,-1.679136708,54.96226798,"{ ""tooltip"": ""Aldi<br/>Whickham<br/>Tyne and Wear<br/>NE11 9XS"", ""geometry"": { ""coordinates"": [ -1.679136708, 54.96226798 ] } },"
Aldi,Newcastle Upon Tyne,Westerhope,Tyne and Wear,NE5 5HD,-1.688581558,54.99897034,"{ ""tooltip"": ""Aldi<br/>Newcastle Upon Tyne<br/>Tyne and Wear<br/>NE5 5HD"", ""geometry"": { ""coordinates"": [ -1.688581558, 54.99897034 ] } },"
Aldi,Newcastle Upon Tyne,Kenton,Tyne and Wear,NE3 3NB,-1.645047032,55.01294689,"{ ""tooltip"": ""Aldi<br/>Newcastle Upon Tyne<br/>Tyne and Wear<br/>NE3 3NB"", ""geometry"": { ""coordinates"": [ -1.645047032, 55.01294689 ] } },"
Aldi,Newcastle Upon Tyne,Fenham,Tyne and Wear,NE5 3AB,-1.658228279,54.99264136,"{ ""tooltip"": ""Aldi<br/>Newcastle Upon Tyne<br/>Tyne and Wear<br/>NE5 3AB"", ""geometry"": { ""coordinates"": [ -1.658228279, 54.99264136 ] } },"
Aldi,Gateshead,Dunston,Tyne and Wear,NE11 9SS,-1.639613634,54.95125782,"{ ""tooltip"": ""Aldi<br/>Gateshead<br/>Tyne and Wear<br/>NE11 9SS"", ""geometry"": { ""coordinates"": [ -1.639613634, 54.95125782 ] } },"
Aldi,Washington,Columbia,Tyne and Wear,NE38 7RW,-1.529831736,54.90395014,"{ ""tooltip"": ""Aldi<br/>Washington<br/>Tyne and Wear<br/>NE38 7RW"", ""geometry"": { ""coordinates"": [ -1.529831736, 54.90395014 ] } },"
Aldi,Washington,Blackfell,Tyne and Wear,NE37 1PR,-1.544057804,54.90818824,"{ ""tooltip"": ""Aldi<br/>Washington<br/>Tyne and Wear<br/>NE37 1PR"", ""geometry"": { ""coordinates"": [ -1.544057804, 54.90818824 ] } },"
Aldi,Studley,,Warwickshire,B80 7BG,-1.894258237,52.2751633,"{ ""tooltip"": ""Aldi<br/>Studley<br/>Warwickshire<br/>B80 7BG"", ""geometry"": { ""coordinates"": [ -1.894258237, 52.2751633 ] } },"
Aldi,Royal Leamington Spa,South Leamington Spa,Warwickshire,CV31 3LZ,-1.544906521,52.28052031,"{ ""tooltip"": ""Aldi<br/>Royal Leamington Spa<br/>Warwickshire<br/>CV31 3LZ"", ""geometry"": { ""coordinates"": [ -1.544906521, 52.28052031 ] } },"
Aldi,Stratford-Upon-Avon,Clopton,Warwickshire,CV37 0BJ,-1.717624023,52.20195518,"{ ""tooltip"": ""Aldi<br/>Stratford-Upon-Avon<br/>Warwickshire<br/>CV37 0BJ"", ""geometry"": { ""coordinates"": [ -1.717624023, 52.20195518 ] } },"
Aldi,Coleshill£ Warwickshire,,Warwickshire,B46 1HU,-1.706093143,52.50711206,"{ ""tooltip"": ""Aldi<br/>Coleshill£ Warwickshire<br/>Warwickshire<br/>B46 1HU"", ""geometry"": { ""coordinates"": [ -1.706093143, 52.50711206 ] } },"
Aldi,Rugby,Brownsover,Warwickshire,CV23 0UX,-1.244576605,52.40196157,"{ ""tooltip"": ""Aldi<br/>Rugby<br/>Warwickshire<br/>CV23 0UX"", ""geometry"": { ""coordinates"": [ -1.244576605, 52.40196157 ] } },"
Aldi,Rugby,Hillmorton,Warwickshire,CV22 5AU,-1.227674393,52.35992615,"{ ""tooltip"": ""Aldi<br/>Rugby<br/>Warwickshire<br/>CV22 5AU"", ""geometry"": { ""coordinates"": [ -1.227674393, 52.35992615 ] } },"
Aldi,Atherstone,,Warwickshire,CV9 1BU,-1.549503624,52.57764171,"{ ""tooltip"": ""Aldi<br/>Atherstone<br/>Warwickshire<br/>CV9 1BU"", ""geometry"": { ""coordinates"": [ -1.549503624, 52.57764171 ] } },"
Aldi,Nuneaton,Stockingford,Warwickshire,CV10 8QY,-1.511661156,52.52236676,"{ ""tooltip"": ""Aldi<br/>Nuneaton<br/>Warwickshire<br/>CV10 8QY"", ""geometry"": { ""coordinates"": [ -1.511661156, 52.52236676 ] } },"
Aldi,Nuneaton,Weddington,Warwickshire,CV10 0AH,-1.463388575,52.52976658,"{ ""tooltip"": ""Aldi<br/>Nuneaton<br/>Warwickshire<br/>CV10 0AH"", ""geometry"": { ""coordinates"": [ -1.463388575, 52.52976658 ] } },"
Aldi,Bedworth,Collycroft,Warwickshire,CV12 8JX,-1.475779744,52.47955751,"{ ""tooltip"": ""Aldi<br/>Bedworth<br/>Warwickshire<br/>CV12 8JX"", ""geometry"": { ""coordinates"": [ -1.475779744, 52.47955751 ] } },"
Aldi,Birmingham,Northfield,West Midlands,B31 2NS,-1.971909692,52.41327594,"{ ""tooltip"": ""Aldi<br/>Birmingham<br/>West Midlands<br/>B31 2NS"", ""geometry"": { ""coordinates"": [ -1.971909692, 52.41327594 ] } },"
Aldi,Birmingham,Langley,West Midlands,B69 4RJ,-2.020458424,52.48962409,"{ ""tooltip"": ""Aldi<br/>Birmingham<br/>West Midlands<br/>B69 4RJ"", ""geometry"": { ""coordinates"": [ -2.020458424, 52.48962409 ] } },"
Aldi,Birmingham,Warley,West Midlands,B66 4BH,-1.969009488,52.47518512,"{ ""tooltip"": ""Aldi<br/>Birmingham<br/>West Midlands<br/>B66 4BH"", ""geometry"": { ""coordinates"": [ -1.969009488, 52.47518512 ] } },"
Aldi,Halesowen,Halesowen,West Midlands,B63 3HR,-2.047240627,52.45311429,"{ ""tooltip"": ""Aldi<br/>Halesowen<br/>West Midlands<br/>B63 3HR"", ""geometry"": { ""coordinates"": [ -2.047240627, 52.45311429 ] } },"
Aldi,Dudley,Dudley,West Midlands,DY5 1HR,-2.118799639,52.49006296,"{ ""tooltip"": ""Aldi<br/>Dudley<br/>West Midlands<br/>DY5 1HR"", ""geometry"": { ""coordinates"": [ -2.118799639, 52.49006296 ] } },"
Aldi,Stourbridge,Brierley Hill,West Midlands,DY9 8EL,-2.11548993,52.46239007,"{ ""tooltip"": ""Aldi<br/>Stourbridge<br/>West Midlands<br/>DY9 8EL"", ""geometry"": { ""coordinates"": [ -2.11548993, 52.46239007 ] } },"
Aldi,Dudley,Netherton,West Midlands,DY2 9PE,-2.073718025,52.48359056,"{ ""tooltip"": ""Aldi<br/>Dudley<br/>West Midlands<br/>DY2 9PE"", ""geometry"": { ""coordinates"": [ -2.073718025, 52.48359056 ] } },"
Aldi,Stourbridge,Kingswinford,West Midlands,DY6 8BT,-2.154646652,52.50084184,"{ ""tooltip"": ""Aldi<br/>Stourbridge<br/>West Midlands<br/>DY6 8BT"", ""geometry"": { ""coordinates"": [ -2.154646652, 52.50084184 ] } },"
Aldi,Stourbridge,Stourbridge,West Midlands,DY8 3PZ,-2.162352876,52.45990451,"{ ""tooltip"": ""Aldi<br/>Stourbridge<br/>West Midlands<br/>DY8 3PZ"", ""geometry"": { ""coordinates"": [ -2.162352876, 52.45990451 ] } },"
Aldi,Stourbridge,Stourbridge,West Midlands,DY8 1PB,-2.146010581,52.45517103,"{ ""tooltip"": ""Aldi<br/>Stourbridge<br/>West Midlands<br/>DY8 1PB"", ""geometry"": { ""coordinates"": [ -2.146010581, 52.45517103 ] } },"
Aldi,Birmingham,Tyburn,West Midlands,B24 0QY,-1.802423246,52.5207706,"{ ""tooltip"": ""Aldi<br/>Birmingham<br/>West Midlands<br/>B24 0QY"", ""geometry"": { ""coordinates"": [ -1.802423246, 52.5207706 ] } },"
Aldi,Sutton Coldfield,Sutton Coldfield,West Midlands,B72 1PL,-1.824350723,52.56087698,"{ ""tooltip"": ""Aldi<br/>Sutton Coldfield<br/>West Midlands<br/>B72 1PL"", ""geometry"": { ""coordinates"": [ -1.824350723, 52.56087698 ] } },"
Aldi,Sutton Coldfield,New Oscott,West Midlands,B73 5DA,-1.858010462,52.54694185,"{ ""tooltip"": ""Aldi<br/>Sutton Coldfield<br/>West Midlands<br/>B73 5DA"", ""geometry"": { ""coordinates"": [ -1.858010462, 52.54694185 ] } },"
Aldi,Brownhills,Ogley Hay,West Midlands,WS8 6EQ,-1.934537717,52.64777283,"{ ""tooltip"": ""Aldi<br/>Brownhills<br/>West Midlands<br/>WS8 6EQ"", ""geometry"": { ""coordinates"": [ -1.934537717, 52.64777283 ] } },"
Aldi,Birmingham,Kingstanding,West Midlands,B44 0HL,-1.874398373,52.53747557,"{ ""tooltip"": ""Aldi<br/>Birmingham<br/>West Midlands<br/>B44 0HL"", ""geometry"": { ""coordinates"": [ -1.874398373, 52.53747557 ] } },"
Aldi,Birmingham,Selly Oak,West Midlands,B29 6AE,-1.935692961,52.44442853,"{ ""tooltip"": ""Aldi<br/>Birmingham<br/>West Midlands<br/>B29 6AE"", ""geometry"": { ""coordinates"": [ -1.935692961, 52.44442853 ] } },"
Aldi,Birmingham,Great Barr,West Midlands,B43 6NR,-1.934596281,52.546219,"{ ""tooltip"": ""Aldi<br/>Birmingham<br/>West Midlands<br/>B43 6NR"", ""geometry"": { ""coordinates"": [ -1.934596281, 52.546219 ] } },"
Aldi,Birmingham,Warstock,West Midlands,B14 5JE,-1.886341585,52.40541543,"{ ""tooltip"": ""Aldi<br/>Birmingham<br/>West Midlands<br/>B14 5JE"", ""geometry"": { ""coordinates"": [ -1.886341585, 52.40541543 ] } },"
Aldi,Birmingham,Aston,West Midlands,B19 2SS,-1.896934573,52.49675171,"{ ""tooltip"": ""Aldi<br/>Birmingham<br/>West Midlands<br/>B19 2SS"", ""geometry"": { ""coordinates"": [ -1.896934573, 52.49675171 ] } },"
Aldi,Birmingham,Kings Norton,West Midlands,B38 9EZ,-1.93739906,52.40005783,"{ ""tooltip"": ""Aldi<br/>Birmingham<br/>West Midlands<br/>B38 9EZ"", ""geometry"": { ""coordinates"": [ -1.93739906, 52.40005783 ] } },"
Aldi,Birmingham,Edgbaston,West Midlands,B5 7QS,-1.905470323,52.45477594,"{ ""tooltip"": ""Aldi<br/>Birmingham<br/>West Midlands<br/>B5 7QS"", ""geometry"": { ""coordinates"": [ -1.905470323, 52.45477594 ] } },"
Aldi,Birmingham,Sparkbrook,West Midlands,B11 1QS,-1.872444339,52.45972583,"{ ""tooltip"": ""Aldi<br/>Birmingham<br/>West Midlands<br/>B11 1QS"", ""geometry"": { ""coordinates"": [ -1.872444339, 52.45972583 ] } },"
Aldi,Birmingham,Hall Green,West Midlands,B28 9EH,-1.840595295,52.42701393,"{ ""tooltip"": ""Aldi<br/>Birmingham<br/>West Midlands<br/>B28 9EH"", ""geometry"": { ""coordinates"": [ -1.840595295, 52.42701393 ] } },"
Aldi,Solihull,Solihull,West Midlands,B91 3RD,-1.78130511,52.4125882,"{ ""tooltip"": ""Aldi<br/>Solihull<br/>West Midlands<br/>B91 3RD"", ""geometry"": { ""coordinates"": [ -1.78130511, 52.4125882 ] } },"
Aldi,Birmingham,Alum Rock,West Midlands,B9 5SP,-1.823503056,52.47927631,"{ ""tooltip"": ""Aldi<br/>Birmingham<br/>West Midlands<br/>B9 5SP"", ""geometry"": { ""coordinates"": [ -1.823503056, 52.47927631 ] } },"
Aldi,Solihull,Shirley,West Midlands,B90 3EA,-1.826781894,52.41045894,"{ ""tooltip"": ""Aldi<br/>Solihull<br/>West Midlands<br/>B90 3EA"", ""geometry"": { ""coordinates"": [ -1.826781894, 52.41045894 ] } },"
Aldi,Birmingham,Hodge Hill,West Midlands,B8 2AN,-1.817202806,52.49316308,"{ ""tooltip"": ""Aldi<br/>Birmingham<br/>West Midlands<br/>B8 2AN"", ""geometry"": { ""coordinates"": [ -1.817202806, 52.49316308 ] } },"
Aldi,Birmingham,Acocks Green,West Midlands,B27 6RH,-1.816826425,52.44467168,"{ ""tooltip"": ""Aldi<br/>Birmingham<br/>West Midlands<br/>B27 6RH"", ""geometry"": { ""coordinates"": [ -1.816826425, 52.44467168 ] } },"
Aldi,Birmingham,Castle Bromwich,West Midlands,B36 0LB,-1.761935702,52.5002532,"{ ""tooltip"": ""Aldi<br/>Birmingham<br/>West Midlands<br/>B36 0LB"", ""geometry"": { ""coordinates"": [ -1.761935702, 52.5002532 ] } },"
Aldi,Birmingham,Lyndon Green,West Midlands,B26 3HP,-1.792906888,52.45498958,"{ ""tooltip"": ""Aldi<br/>Birmingham<br/>West Midlands<br/>B26 3HP"", ""geometry"": { ""coordinates"": [ -1.792906888, 52.45498958 ] } },"
Aldi,Wolverhampton,Bilston,West Midlands,WV13 3EU,-2.067781246,52.58184038,"{ ""tooltip"": ""Aldi<br/>Wolverhampton<br/>West Midlands<br/>WV13 3EU"", ""geometry"": { ""coordinates"": [ -2.067781246, 52.58184038 ] } },"
Aldi,West Bromwich,West Bromwich,West Midlands,B70 9SJ,-2.006427262,52.52629015,"{ ""tooltip"": ""Aldi<br/>West Bromwich<br/>West Midlands<br/>B70 9SJ"", ""geometry"": { ""coordinates"": [ -2.006427262, 52.52629015 ] } },"
Aldi,Wolverhampton,Bilston,West Midlands,WS10 8SR,-2.050839186,52.56119821,"{ ""tooltip"": ""Aldi<br/>Wolverhampton<br/>West Midlands<br/>WS10 8SR"", ""geometry"": { ""coordinates"": [ -2.050839186, 52.56119821 ] } },"
Aldi,Willenhall,Short Heath,West Midlands,WV12 5XZ,-2.046094803,52.61758713,"{ ""tooltip"": ""Aldi<br/>Willenhall<br/>West Midlands<br/>WV12 5XZ"", ""geometry"": { ""coordinates"": [ -2.046094803, 52.61758713 ] } },"
Aldi,Coventry,Edgwick,West Midlands,CV6 5QG,-1.490848046,52.43059984,"{ ""tooltip"": ""Aldi<br/>Coventry<br/>West Midlands<br/>CV6 5QG"", ""geometry"": { ""coordinates"": [ -1.490848046, 52.43059984 ] } },"
Aldi,Coventry,Radford,West Midlands,CV6 3BU,-1.521563449,52.42328065,"{ ""tooltip"": ""Aldi<br/>Coventry<br/>West Midlands<br/>CV6 3BU"", ""geometry"": { ""coordinates"": [ -1.521563449, 52.42328065 ] } },"
Aldi,Coventry,Walsgrave,West Midlands,CV2 2TW,-1.435843546,52.43114531,"{ ""tooltip"": ""Aldi<br/>Coventry<br/>West Midlands<br/>CV2 2TW"", ""geometry"": { ""coordinates"": [ -1.435843546, 52.43114531 ] } },"
Aldi,Coventry,Willenhall,West Midlands,CV3 4RP,-1.46526739,52.3793436,"{ ""tooltip"": ""Aldi<br/>Coventry<br/>West Midlands<br/>CV3 4RP"", ""geometry"": { ""coordinates"": [ -1.46526739, 52.3793436 ] } },"
Aldi,Coventry,Canon Par,West Midlands,CV4 7AN,-1.554265997,52.38941764,"{ ""tooltip"": ""Aldi<br/>Coventry<br/>West Midlands<br/>CV4 7AN"", ""geometry"": { ""coordinates"": [ -1.554265997, 52.38941764 ] } },"
Aldi,Dudley,Dudley,West Midlands,DY1 4DS,-2.085378274,52.5272097,"{ ""tooltip"": ""Aldi<br/>Dudley<br/>West Midlands<br/>DY1 4DS"", ""geometry"": { ""coordinates"": [ -2.085378274, 52.5272097 ] } },"
Aldi,Wolverhampton,Rough Hills,West Midlands,WV2 3LQ,-2.124594355,52.57921592,"{ ""tooltip"": ""Aldi<br/>Wolverhampton<br/>West Midlands<br/>WV2 3LQ"", ""geometry"": { ""coordinates"": [ -2.124594355, 52.57921592 ] } },"
Aldi,Wolverhampton,Wednesfield,West Midlands,WV11 1BP,-2.087427066,52.59633069,"{ ""tooltip"": ""Aldi<br/>Wolverhampton<br/>West Midlands<br/>WV11 1BP"", ""geometry"": { ""coordinates"": [ -2.087427066, 52.59633069 ] } },"
Aldi,Wolverhampton,Blakenhall,West Midlands,WV2 3HP,-2.123881556,52.56646083,"{ ""tooltip"": ""Aldi<br/>Wolverhampton<br/>West Midlands<br/>WV2 3HP"", ""geometry"": { ""coordinates"": [ -2.123881556, 52.56646083 ] } },"
Aldi,Dudley,Netherton,West Midlands,DY2 0UY,-2.091431492,52.4993627,"{ ""tooltip"": ""Aldi<br/>Dudley<br/>West Midlands<br/>DY2 0UY"", ""geometry"": { ""coordinates"": [ -2.091431492, 52.4993627 ] } },"
Aldi,Wolverhampton,Central Wolverhampton,West Midlands,WV10 0AZ,-2.116861123,52.58877032,"{ ""tooltip"": ""Aldi<br/>Wolverhampton<br/>West Midlands<br/>WV10 0AZ"", ""geometry"": { ""coordinates"": [ -2.116861123, 52.58877032 ] } },"
Aldi,Wolverhampton,Whitmore Reans,West Midlands,WV10 6DG,-2.127758265,52.61090136,"{ ""tooltip"": ""Aldi<br/>Wolverhampton<br/>West Midlands<br/>WV10 6DG"", ""geometry"": { ""coordinates"": [ -2.127758265, 52.61090136 ] } },"
Aldi,Chichester,Chichester,West Sussex,PO19 7AG,-0.759400365,50.84701716,"{ ""tooltip"": ""Aldi<br/>Chichester<br/>West Sussex<br/>PO19 7AG"", ""geometry"": { ""coordinates"": [ -0.759400365, 50.84701716 ] } },"
Aldi,Littlehampton,Rustington,West Sussex,BN16 3FH,-0.505247382,50.81964853,"{ ""tooltip"": ""Aldi<br/>Littlehampton<br/>West Sussex<br/>BN16 3FH"", ""geometry"": { ""coordinates"": [ -0.505247382, 50.81964853 ] } },"
Aldi,Crawley,Manor Royal,West Sussex,RH10 9UY,-0.188080067,51.13466423,"{ ""tooltip"": ""Aldi<br/>Crawley<br/>West Sussex<br/>RH10 9UY"", ""geometry"": { ""coordinates"": [ -0.188080067, 51.13466423 ] } },"
Aldi,East Grinstead,East Grinstead,West Sussex,RH19 1HA,-0.015219013,51.12991871,"{ ""tooltip"": ""Aldi<br/>East Grinstead<br/>West Sussex<br/>RH19 1HA"", ""geometry"": { ""coordinates"": [ -0.015219013, 51.12991871 ] } },"
Aldi,Pontefract,Carleton,West Yorkshire,WF8 2LN,-1.29940194,53.69608368,"{ ""tooltip"": ""Aldi<br/>Pontefract<br/>West Yorkshire<br/>WF8 2LN"", ""geometry"": { ""coordinates"": [ -1.29940194, 53.69608368 ] } },"
Aldi,Featherstone,Featherstone,West Yorkshire,WF7 5LD,-1.363990459,53.674417,"{ ""tooltip"": ""Aldi<br/>Featherstone<br/>West Yorkshire<br/>WF7 5LD"", ""geometry"": { ""coordinates"": [ -1.363990459, 53.674417 ] } },"
Aldi,Castleford,Central Castleford,West Yorkshire,WF10 1EQ,-1.357753494,53.72382092,"{ ""tooltip"": ""Aldi<br/>Castleford<br/>West Yorkshire<br/>WF10 1EQ"", ""geometry"": { ""coordinates"": [ -1.357753494, 53.72382092 ] } },"
Aldi,Castleford,Glasshoughton,West Yorkshire,WF10 4RJ,-1.33411619,53.71123368,"{ ""tooltip"": ""Aldi<br/>Castleford<br/>West Yorkshire<br/>WF10 4RJ"", ""geometry"": { ""coordinates"": [ -1.33411619, 53.71123368 ] } },"
Aldi,Bradford,Allerton,West Yorkshire,BD15 7QU,-1.818143066,53.80303248,"{ ""tooltip"": ""Aldi<br/>Bradford<br/>West Yorkshire<br/>BD15 7QU"", ""geometry"": { ""coordinates"": [ -1.818143066, 53.80303248 ] } },"
Aldi,Bradford,Eccleshill,West Yorkshire,BD10 8AF,-1.73333778,53.83578818,"{ ""tooltip"": ""Aldi<br/>Bradford<br/>West Yorkshire<br/>BD10 8AF"", ""geometry"": { ""coordinates"": [ -1.73333778, 53.83578818 ] } },"
Aldi,Bingley,,West Yorkshire,BD16 2TW,-1.834928885,53.84783189,"{ ""tooltip"": ""Aldi<br/>Bingley<br/>West Yorkshire<br/>BD16 2TW"", ""geometry"": { ""coordinates"": [ -1.834928885, 53.84783189 ] } },"
Aldi,Yeadon,,West Yorkshire,LS19 7LX,-1.689749087,53.86532222,"{ ""tooltip"": ""Aldi<br/>Yeadon<br/>West Yorkshire<br/>LS19 7LX"", ""geometry"": { ""coordinates"": [ -1.689749087, 53.86532222 ] } },"
Aldi,Bradford,Windhill,West Yorkshire,BD17 7TS,-1.771032878,53.8355093,"{ ""tooltip"": ""Aldi<br/>Bradford<br/>West Yorkshire<br/>BD17 7TS"", ""geometry"": { ""coordinates"": [ -1.771032878, 53.8355093 ] } },"
Aldi,Bradford,Fagley,West Yorkshire,BD3 8JF,-1.712847426,53.80000258,"{ ""tooltip"": ""Aldi<br/>Bradford<br/>West Yorkshire<br/>BD3 8JF"", ""geometry"": { ""coordinates"": [ -1.712847426, 53.80000258 ] } },"
Aldi,Bradford,Scholemoor,West Yorkshire,BD7 2SG,-1.796712047,53.78347209,"{ ""tooltip"": ""Aldi<br/>Bradford<br/>West Yorkshire<br/>BD7 2SG"", ""geometry"": { ""coordinates"": [ -1.796712047, 53.78347209 ] } },"
Aldi,Bradford,Manningham,West Yorkshire,BD2 1AS,-1.763801664,53.8161926,"{ ""tooltip"": ""Aldi<br/>Bradford<br/>West Yorkshire<br/>BD2 1AS"", ""geometry"": { ""coordinates"": [ -1.763801664, 53.8161926 ] } },"
Aldi,Guiseley,,West Yorkshire,LS20 8FA,-1.725377353,53.87932512,"{ ""tooltip"": ""Aldi<br/>Guiseley<br/>West Yorkshire<br/>LS20 8FA"", ""geometry"": { ""coordinates"": [ -1.725377353, 53.87932512 ] } },"
Aldi,Rothwell,John O'Gaunts,West Yorkshire,LS26 0AE,-1.47907142,53.74632915,"{ ""tooltip"": ""Aldi<br/>Rothwell<br/>West Yorkshire<br/>LS26 0AE"", ""geometry"": { ""coordinates"": [ -1.47907142, 53.74632915 ] } },"
Aldi,Leeds,Seacroft,West Yorkshire,LS14 6HP,-1.456585347,53.81455279,"{ ""tooltip"": ""Aldi<br/>Leeds<br/>West Yorkshire<br/>LS14 6HP"", ""geometry"": { ""coordinates"": [ -1.456585347, 53.81455279 ] } },"
Aldi,Leeds,Meanwood,West Yorkshire,LS7 2TT,-1.564636214,53.82838136,"{ ""tooltip"": ""Aldi<br/>Leeds<br/>West Yorkshire<br/>LS7 2TT"", ""geometry"": { ""coordinates"": [ -1.564636214, 53.82838136 ] } },"
Aldi,Leeds,Armley,West Yorkshire,LS12 3TN,-1.602108331,53.79378443,"{ ""tooltip"": ""Aldi<br/>Leeds<br/>West Yorkshire<br/>LS12 3TN"", ""geometry"": { ""coordinates"": [ -1.602108331, 53.79378443 ] } },"
Aldi,Leeds,Kirkstall,West Yorkshire,LS4 2HR,-1.583813743,53.80584726,"{ ""tooltip"": ""Aldi<br/>Leeds<br/>West Yorkshire<br/>LS4 2HR"", ""geometry"": { ""coordinates"": [ -1.583813743, 53.80584726 ] } },"
Aldi,Leeds,Bramley,West Yorkshire,LS13 3AD,-1.624802006,53.80593421,"{ ""tooltip"": ""Aldi<br/>Leeds<br/>West Yorkshire<br/>LS13 3AD"", ""geometry"": { ""coordinates"": [ -1.624802006, 53.80593421 ] } },"
Aldi,Leeds,Chapel Allerton,West Yorkshire,LS7 3PD,-1.539396461,53.82959698,"{ ""tooltip"": ""Aldi<br/>Leeds<br/>West Yorkshire<br/>LS7 3PD"", ""geometry"": { ""coordinates"": [ -1.539396461, 53.82959698 ] } },"
Aldi,Leeds,Beeston,West Yorkshire,LS11 5JS,-1.543582631,53.77649595,"{ ""tooltip"": ""Aldi<br/>Leeds<br/>West Yorkshire<br/>LS11 5JS"", ""geometry"": { ""coordinates"": [ -1.543582631, 53.77649595 ] } },"
Aldi,Leeds,Harehills,West Yorkshire,LS7 1AX,-1.531782351,53.80401361,"{ ""tooltip"": ""Aldi<br/>Leeds<br/>West Yorkshire<br/>LS7 1AX"", ""geometry"": { ""coordinates"": [ -1.531782351, 53.80401361 ] } },"
Aldi,Leeds,Middleton,West Yorkshire,LS10 3SA,-1.546460085,53.74883405,"{ ""tooltip"": ""Aldi<br/>Leeds<br/>West Yorkshire<br/>LS10 3SA"", ""geometry"": { ""coordinates"": [ -1.546460085, 53.74883405 ] } },"
Aldi,South Elmsall,,West Yorkshire,WF9 2AA,-1.295154449,53.59489739,"{ ""tooltip"": ""Aldi<br/>South Elmsall<br/>West Yorkshire<br/>WF9 2AA"", ""geometry"": { ""coordinates"": [ -1.295154449, 53.59489739 ] } },"
Aldi,Halifax,Pellon,West Yorkshire,HX1 5RA,-1.871576954,53.72743493,"{ ""tooltip"": ""Aldi<br/>Halifax<br/>West Yorkshire<br/>HX1 5RA"", ""geometry"": { ""coordinates"": [ -1.871576954, 53.72743493 ] } },"
Aldi,Huddersfield,Golcar,West Yorkshire,HD3 4PE,-1.827064401,53.64037252,"{ ""tooltip"": ""Aldi<br/>Huddersfield<br/>West Yorkshire<br/>HD3 4PE"", ""geometry"": { ""coordinates"": [ -1.827064401, 53.64037252 ] } },"
Aldi,Huddersfield,Dalton,West Yorkshire,HD5 0AN,-1.732988993,53.64614424,"{ ""tooltip"": ""Aldi<br/>Huddersfield<br/>West Yorkshire<br/>HD5 0AN"", ""geometry"": { ""coordinates"": [ -1.732988993, 53.64614424 ] } },"
Aldi,Slaithwaite,Slaithwaite,West Yorkshire,HD7 5HE,-1.881437999,53.62179596,"{ ""tooltip"": ""Aldi<br/>Slaithwaite<br/>West Yorkshire<br/>HD7 5HE"", ""geometry"": { ""coordinates"": [ -1.881437999, 53.62179596 ] } },"
Aldi,Elland,Lower Edge,West Yorkshire,HX5 0HQ,-1.833090917,53.68221336,"{ ""tooltip"": ""Aldi<br/>Elland<br/>West Yorkshire<br/>HX5 0HQ"", ""geometry"": { ""coordinates"": [ -1.833090917, 53.68221336 ] } },"
Aldi,Holmfirth,,West Yorkshire,HD9 3JQ,-1.782199962,53.58059999,"{ ""tooltip"": ""Aldi<br/>Holmfirth<br/>West Yorkshire<br/>HD9 3JQ"", ""geometry"": { ""coordinates"": [ -1.782199962, 53.58059999 ] } },"
Aldi,Huddersfield,Fartown,West Yorkshire,HD1 5DG,-1.783353767,53.65379135,"{ ""tooltip"": ""Aldi<br/>Huddersfield<br/>West Yorkshire<br/>HD1 5DG"", ""geometry"": { ""coordinates"": [ -1.783353767, 53.65379135 ] } },"
Aldi,Silsden,,West Yorkshire,BD20 0EA,-1.938005266,53.91059154,"{ ""tooltip"": ""Aldi<br/>Silsden<br/>West Yorkshire<br/>BD20 0EA"", ""geometry"": { ""coordinates"": [ -1.938005266, 53.91059154 ] } },"
Aldi,Outwood,Newton Hill,West Yorkshire,WF1 2UZ,-1.506197629,53.69757088,"{ ""tooltip"": ""Aldi<br/>Outwood<br/>West Yorkshire<br/>WF1 2UZ"", ""geometry"": { ""coordinates"": [ -1.506197629, 53.69757088 ] } },"
Aldi,Batley,Central Batley,West Yorkshire,WF17 5RY,-1.63375304,53.71607967,"{ ""tooltip"": ""Aldi<br/>Batley<br/>West Yorkshire<br/>WF17 5RY"", ""geometry"": { ""coordinates"": [ -1.63375304, 53.71607967 ] } },"
Aldi,Wakefield,Sandal,West Yorkshire,WF2 7JE,-1.497549139,53.65005736,"{ ""tooltip"": ""Aldi<br/>Wakefield<br/>West Yorkshire<br/>WF2 7JE"", ""geometry"": { ""coordinates"": [ -1.497549139, 53.65005736 ] } },"
Aldi,Wakefield,Flanshaw,West Yorkshire,WF2 0AE,-1.526802536,53.68779622,"{ ""tooltip"": ""Aldi<br/>Wakefield<br/>West Yorkshire<br/>WF2 0AE"", ""geometry"": { ""coordinates"": [ -1.526802536, 53.68779622 ] } },"
Aldi,Wetherby,Wetherby,West Yorkshire,LS22 7TW,-1.384639916,53.93754548,"{ ""tooltip"": ""Aldi<br/>Wetherby<br/>West Yorkshire<br/>LS22 7TW"", ""geometry"": { ""coordinates"": [ -1.384639916, 53.93754548 ] } },"
Aldi,Oakham,,Rutland,LE15 7FS,-0.736834157,52.68110344,"{ ""tooltip"": ""Aldi<br/>Oakham<br/>Rutland<br/>LE15 7FS"", ""geometry"": { ""coordinates"": [ -0.736834157, 52.68110344 ] } },"
Aldi,Trowbridge,Trowbridge,Wiltshire,BA14 0QT,-2.213322714,51.31079951,"{ ""tooltip"": ""Aldi<br/>Trowbridge<br/>Wiltshire<br/>BA14 0QT"", ""geometry"": { ""coordinates"": [ -2.213322714, 51.31079951 ] } },"
Aldi,Melksham,Melksham,Wiltshire,SN12 8RP,-2.142917221,51.38094855,"{ ""tooltip"": ""Aldi<br/>Melksham<br/>Wiltshire<br/>SN12 8RP"", ""geometry"": { ""coordinates"": [ -2.142917221, 51.38094855 ] } },"
Aldi,Chippenham,Cepen Park North,Wiltshire,SN15 1JB,-2.111799966,51.46759999,"{ ""tooltip"": ""Aldi<br/>Chippenham<br/>Wiltshire<br/>SN15 1JB"", ""geometry"": { ""coordinates"": [ -2.111799966, 51.46759999 ] } },"
Aldi,Westbury,Westbury,Wiltshire,BA13 3PL,-2.185423334,51.25783587,"{ ""tooltip"": ""Aldi<br/>Westbury<br/>Wiltshire<br/>BA13 3PL"", ""geometry"": { ""coordinates"": [ -2.185423334, 51.25783587 ] } },"
Aldi,Swindon,Even Swindon,Wiltshire,SN2 2AS,-1.801821105,51.56756663,"{ ""tooltip"": ""Aldi<br/>Swindon<br/>Wiltshire<br/>SN2 2AS"", ""geometry"": { ""coordinates"": [ -1.801821105, 51.56756663 ] } },"
Aldi,Swindon,Stratton,Wiltshire,SN3 4NS,-1.751170063,51.58358635,"{ ""tooltip"": ""Aldi<br/>Swindon<br/>Wiltshire<br/>SN3 4NS"", ""geometry"": { ""coordinates"": [ -1.751170063, 51.58358635 ] } },"
Aldi,Swindon,Central Swindon,Wiltshire,SN1 3AD,-1.771912546,51.56183184,"{ ""tooltip"": ""Aldi<br/>Swindon<br/>Wiltshire<br/>SN1 3AD"", ""geometry"": { ""coordinates"": [ -1.771912546, 51.56183184 ] } },"
Aldi,Swindon,Penhill,Wiltshire,SN25 4DL,-1.783377969,51.60170141,"{ ""tooltip"": ""Aldi<br/>Swindon<br/>Wiltshire<br/>SN25 4DL"", ""geometry"": { ""coordinates"": [ -1.783377969, 51.60170141 ] } },"
Aldi,Royal Wootton Bassett,,Wiltshire,SN4 8ES,-1.892135675,51.55035043,"{ ""tooltip"": ""Aldi<br/>Royal Wootton Bassett<br/>Wiltshire<br/>SN4 8ES"", ""geometry"": { ""coordinates"": [ -1.892135675, 51.55035043 ] } },"
Aldi,Swindon,Freshbrook,Wiltshire,SN5 7EZ,-1.825643501,51.56589571,"{ ""tooltip"": ""Aldi<br/>Swindon<br/>Wiltshire<br/>SN5 7EZ"", ""geometry"": { ""coordinates"": [ -1.825643501, 51.56589571 ] } },"
Aldi,Amesbury,Amesbury,Wiltshire,SP4 7HD,-1.779982659,51.17118943,"{ ""tooltip"": ""Aldi<br/>Amesbury<br/>Wiltshire<br/>SP4 7HD"", ""geometry"": { ""coordinates"": [ -1.779982659, 51.17118943 ] } },"
Aldi,Salisbury,Bishopdown,Wiltshire,SP1 3HP,-1.778076058,51.08276574,"{ ""tooltip"": ""Aldi<br/>Salisbury<br/>Wiltshire<br/>SP1 3HP"", ""geometry"": { ""coordinates"": [ -1.778076058, 51.08276574 ] } },"
Aldi,Worcester,St John's,Worcestershire,WR2 5BA,-2.231311125,52.19083462,"{ ""tooltip"": ""Aldi<br/>Worcester<br/>Worcestershire<br/>WR2 5BA"", ""geometry"": { ""coordinates"": [ -2.231311125, 52.19083462 ] } },"
Aldi,Droitwich,Primsland,Worcestershire,WR9 9AY,-2.159743195,52.27291611,"{ ""tooltip"": ""Aldi<br/>Droitwich<br/>Worcestershire<br/>WR9 9AY"", ""geometry"": { ""coordinates"": [ -2.159743195, 52.27291611 ] } },"
Aldi,Worcester,St Peter the Great,Worcestershire,WR5 3HW,-2.217488334,52.16580558,"{ ""tooltip"": ""Aldi<br/>Worcester<br/>Worcestershire<br/>WR5 3HW"", ""geometry"": { ""coordinates"": [ -2.217488334, 52.16580558 ] } },"
Aldi,Evesham,Four Pools,Worcestershire,WR11 2GE,-1.94383207,52.08013513,"{ ""tooltip"": ""Aldi<br/>Evesham<br/>Worcestershire<br/>WR11 2GE"", ""geometry"": { ""coordinates"": [ -1.94383207, 52.08013513 ] } },"
Aldi,Evesham,Greenhill,Worcestershire,WR11 4PA,-1.945361339,52.09412219,"{ ""tooltip"": ""Aldi<br/>Evesham<br/>Worcestershire<br/>WR11 4PA"", ""geometry"": { ""coordinates"": [ -1.945361339, 52.09412219 ] } },"
Aldi,Redditch,Central Redditch,Worcestershire,B98 7AH,-1.935278255,52.30415814,"{ ""tooltip"": ""Aldi<br/>Redditch<br/>Worcestershire<br/>B98 7AH"", ""geometry"": { ""coordinates"": [ -1.935278255, 52.30415814 ] } },"
Aldi,Worcester,Central Worcester,Worcestershire,WR1 2DZ,-2.215488804,52.19501728,"{ ""tooltip"": ""Aldi<br/>Worcester<br/>Worcestershire<br/>WR1 2DZ"", ""geometry"": { ""coordinates"": [ -2.215488804, 52.19501728 ] } },"
Aldi,Bromsgrove,Aston Fields,Worcestershire,B60 3DR,-2.062583274,52.31834009,"{ ""tooltip"": ""Aldi<br/>Bromsgrove<br/>Worcestershire<br/>B60 3DR"", ""geometry"": { ""coordinates"": [ -2.062583274, 52.31834009 ] } },"
Aldi,Bromsgrove,Sidemoor,Worcestershire,B61 0DR,-2.05711359,52.33866144,"{ ""tooltip"": ""Aldi<br/>Bromsgrove<br/>Worcestershire<br/>B61 0DR"", ""geometry"": { ""coordinates"": [ -2.05711359, 52.33866144 ] } },"
Aldi,Kidderminster,Central Kidderminster,Worcestershire,DY10 1JF,-2.247272967,52.38423343,"{ ""tooltip"": ""Aldi<br/>Kidderminster<br/>Worcestershire<br/>DY10 1JF"", ""geometry"": { ""coordinates"": [ -2.247272967, 52.38423343 ] } },"
Aldi,Kidderminster,Birchen Coppice,Worcestershire,DY11 7DT,-2.262423109,52.36972748,"{ ""tooltip"": ""Aldi<br/>Kidderminster<br/>Worcestershire<br/>DY11 7DT"", ""geometry"": { ""coordinates"": [ -2.262423109, 52.36972748 ] } },"
Aldi,Darlington,Harrowgate,County Durham,DL1 2EE,-1.55148732,54.5353942,"{ ""tooltip"": ""Aldi<br/>Darlington<br/>County Durham<br/>DL1 2EE"", ""geometry"": { ""coordinates"": [ -1.55148732, 54.5353942 ] } },"
Aldi,Darlington,Lascelles,County Durham,DL1 1BA,-1.525603184,54.52320219,"{ ""tooltip"": ""Aldi<br/>Darlington<br/>County Durham<br/>DL1 1BA"", ""geometry"": { ""coordinates"": [ -1.525603184, 54.52320219 ] } },"
Aldi,Darlington,Harrowgate,County Durham,DL2 2GZ,-1.587608843,54.54817628,"{ ""tooltip"": ""Aldi<br/>Darlington<br/>County Durham<br/>DL2 2GZ"", ""geometry"": { ""coordinates"": [ -1.587608843, 54.54817628 ] } },"
Aldi,Peterlee,Horden,County Durham,SR8 5AH,-1.320648959,54.76048909,"{ ""tooltip"": ""Aldi<br/>Peterlee<br/>County Durham<br/>SR8 5AH"", ""geometry"": { ""coordinates"": [ -1.320648959, 54.76048909 ] } },"
Aldi,Seaham,Dawdon,County Durham,SR7 7DA,-1.333294324,54.83832554,"{ ""tooltip"": ""Aldi<br/>Seaham<br/>County Durham<br/>SR7 7DA"", ""geometry"": { ""coordinates"": [ -1.333294324, 54.83832554 ] } },"
Aldi,Billingham,Billingham,County Durham,TS23 2JT,-1.289444855,54.60774536,"{ ""tooltip"": ""Aldi<br/>Billingham<br/>County Durham<br/>TS23 2JT"", ""geometry"": { ""coordinates"": [ -1.289444855, 54.60774536 ] } },"
Aldi,Stockton,Norton,County Durham,TS20 1BW,-1.324048495,54.58587953,"{ ""tooltip"": ""Aldi<br/>Stockton<br/>County Durham<br/>TS20 1BW"", ""geometry"": { ""coordinates"": [ -1.324048495, 54.58587953 ] } },"
Aldi,Stockton,Central Stockton,County Durham,TS18 1LQ,-1.320730147,54.56141606,"{ ""tooltip"": ""Aldi<br/>Stockton<br/>County Durham<br/>TS18 1LQ"", ""geometry"": { ""coordinates"": [ -1.320730147, 54.56141606 ] } },"
Aldi,Hartlepool,Foggy Furze,County Durham,TS25 1SD,-1.21307718,54.66754021,"{ ""tooltip"": ""Aldi<br/>Hartlepool<br/>County Durham<br/>TS25 1SD"", ""geometry"": { ""coordinates"": [ -1.21307718, 54.66754021 ] } },"
Aldi,Hartlepool,Foggy Furze,County Durham,TS25 1XJ,-1.208829647,54.6674655,"{ ""tooltip"": ""Aldi<br/>Hartlepool<br/>County Durham<br/>TS25 1XJ"", ""geometry"": { ""coordinates"": [ -1.208829647, 54.6674655 ] } },"
Aldi,Hartlepool,Throston Grange,County Durham,TS26 0EN,-1.24244648,54.69167438,"{ ""tooltip"": ""Aldi<br/>Hartlepool<br/>County Durham<br/>TS26 0EN"", ""geometry"": { ""coordinates"": [ -1.24244648, 54.69167438 ] } },"
Aldi,Consett,Number One,County Durham,DH8 5RE,-1.834277041,54.84960422,"{ ""tooltip"": ""Aldi<br/>Consett<br/>County Durham<br/>DH8 5RE"", ""geometry"": { ""coordinates"": [ -1.834277041, 54.84960422 ] } },"
Aldi,Crook,Crook,County Durham,DL15 8QQ,-1.747417312,54.71398954,"{ ""tooltip"": ""Aldi<br/>Crook<br/>County Durham<br/>DL15 8QQ"", ""geometry"": { ""coordinates"": [ -1.747417312, 54.71398954 ] } },"
Aldi,Chester-le-Street,Drum Industrial Estate,County Durham,DH3 3SN,-1.573161382,54.86002917,"{ ""tooltip"": ""Aldi<br/>Chester-le-Street<br/>County Durham<br/>DH3 3SN"", ""geometry"": { ""coordinates"": [ -1.573161382, 54.86002917 ] } },"
Aldi,Stanley,Stanley,County Durham,DH9 0HU,-1.698958802,54.86870139,"{ ""tooltip"": ""Aldi<br/>Stanley<br/>County Durham<br/>DH9 0HU"", ""geometry"": { ""coordinates"": [ -1.698958802, 54.86870139 ] } },"
Aldi,Bishop Auckland,Woodhouse Close Estate,County Durham,DL14 9AU,-1.681947435,54.6424762,"{ ""tooltip"": ""Aldi<br/>Bishop Auckland<br/>County Durham<br/>DL14 9AU"", ""geometry"": { ""coordinates"": [ -1.681947435, 54.6424762 ] } },"
Aldi,Newton Aycliffe,Newton Aycliffe,County Durham,DL5 4DH,-1.571126497,54.6203338,"{ ""tooltip"": ""Aldi<br/>Newton Aycliffe<br/>County Durham<br/>DL5 4DH"", ""geometry"": { ""coordinates"": [ -1.571126497, 54.6203338 ] } },"
Aldi,Spennymoor,Spennymoor,County Durham,DL16 6DF,-1.601181503,54.69865446,"{ ""tooltip"": ""Aldi<br/>Spennymoor<br/>County Durham<br/>DL16 6DF"", ""geometry"": { ""coordinates"": [ -1.601181503, 54.69865446 ] } },"
Aldi,Durham,Belmont,County Durham,DH1 2WP,-1.541303518,54.7769614,"{ ""tooltip"": ""Aldi<br/>Durham<br/>County Durham<br/>DH1 2WP"", ""geometry"": { ""coordinates"": [ -1.541303518, 54.7769614 ] } },"
Aldi,Elgin,Newton,Moray,IV30 1UL,-3.31685259,57.65007494,"{ ""tooltip"": ""Aldi<br/>Elgin<br/>Moray<br/>IV30 1UL"", ""geometry"": { ""coordinates"": [ -3.31685259, 57.65007494 ] } },"
Aldi,Perth,North Muirton,Perth & Kinross,PH1 3EE,-3.468780611,56.41942552,"{ ""tooltip"": ""Aldi<br/>Perth<br/>Perth & Kinross<br/>PH1 3EE"", ""geometry"": { ""coordinates"": [ -3.468780611, 56.41942552 ] } },"
Aldi,Perth,Craigie,Perth & Kinross,PH2 0NZ,-3.44268849,56.39621312,"{ ""tooltip"": ""Aldi<br/>Perth<br/>Perth & Kinross<br/>PH2 0NZ"", ""geometry"": { ""coordinates"": [ -3.44268849, 56.39621312 ] } },"
Aldi,Crieff,,Perth & Kinross,PH7 3SE,-3.841354596,56.3672477,"{ ""tooltip"": ""Aldi<br/>Crieff<br/>Perth & Kinross<br/>PH7 3SE"", ""geometry"": { ""coordinates"": [ -3.841354596, 56.3672477 ] } },"
Aldi,Luton,Sundon Park,Bedfordshire,LU3 3BF,-0.472075962,51.91691484,"{ ""tooltip"": ""Aldi<br/>Luton<br/>Bedfordshire<br/>LU3 3BF"", ""geometry"": { ""coordinates"": [ -0.472075962, 51.91691484 ] } },"
Aldi,Luton,Bury Park,Bedfordshire,LU1 1NJ,-0.455110712,51.88733593,"{ ""tooltip"": ""Aldi<br/>Luton<br/>Bedfordshire<br/>LU1 1NJ"", ""geometry"": { ""coordinates"": [ -0.455110712, 51.88733593 ] } },"
Aldi,Dunstable,Beecroft,Bedfordshire,LU5 4RP,-0.518672241,51.88702378,"{ ""tooltip"": ""Aldi<br/>Dunstable<br/>Bedfordshire<br/>LU5 4RP"", ""geometry"": { ""coordinates"": [ -0.518672241, 51.88702378 ] } },"
Aldi,Biggleswade,,Bedfordshire,SG18 8AY,-0.263931338,52.08513781,"{ ""tooltip"": ""Aldi<br/>Biggleswade<br/>Bedfordshire<br/>SG18 8AY"", ""geometry"": { ""coordinates"": [ -0.263931338, 52.08513781 ] } },"
Aldi,Bedford,Cauldwell,Bedfordshire,MK42 9BL,-0.473052434,52.12360667,"{ ""tooltip"": ""Aldi<br/>Bedford<br/>Bedfordshire<br/>MK42 9BL"", ""geometry"": { ""coordinates"": [ -0.473052434, 52.12360667 ] } },"
Aldi,Bedford,Central Bedford,Bedfordshire,MK41 7PJ,-0.485304651,52.14699692,"{ ""tooltip"": ""Aldi<br/>Bedford<br/>Bedfordshire<br/>MK41 7PJ"", ""geometry"": { ""coordinates"": [ -0.485304651, 52.14699692 ] } },"
Aldi,Bedford,Goldington,Bedfordshire,MK41 0PW,-0.427611504,52.15346903,"{ ""tooltip"": ""Aldi<br/>Bedford<br/>Bedfordshire<br/>MK41 0PW"", ""geometry"": { ""coordinates"": [ -0.427611504, 52.15346903 ] } },"
Aldi,Leighton Buzzard,Leighton Buzzard,Bedfordshire,LU7 4EG,-0.666149594,51.90384788,"{ ""tooltip"": ""Aldi<br/>Leighton Buzzard<br/>Bedfordshire<br/>LU7 4EG"", ""geometry"": { ""coordinates"": [ -0.666149594, 51.90384788 ] } },"
Aldi,Leighton Buzzard,Leighton Buzzard,Bedfordshire,LU7 7ER,-0.667923491,51.91790632,"{ ""tooltip"": ""Aldi<br/>Leighton Buzzard<br/>Bedfordshire<br/>LU7 7ER"", ""geometry"": { ""coordinates"": [ -0.667923491, 51.91790632 ] } },"
Aldi,Newbury,Donnington,Berkshire,RG14 1LA,-1.320911454,51.40668342,"{ ""tooltip"": ""Aldi<br/>Newbury<br/>Berkshire<br/>RG14 1LA"", ""geometry"": { ""coordinates"": [ -1.320911454, 51.40668342 ] } },"
Aldi,Wokingham,Wokingham,Berkshire,RG40 2EX,-0.837602592,51.40839234,"{ ""tooltip"": ""Aldi<br/>Wokingham<br/>Berkshire<br/>RG40 2EX"", ""geometry"": { ""coordinates"": [ -0.837602592, 51.40839234 ] } },"
Aldi,Bracknell,Great Hollands,Berkshire,RG12 7DE,-0.752610417,51.39219648,"{ ""tooltip"": ""Aldi<br/>Bracknell<br/>Berkshire<br/>RG12 7DE"", ""geometry"": { ""coordinates"": [ -0.752610417, 51.39219648 ] } },"
Aldi,Sandhurst,College Town,Berkshire,GU47 0PU,-0.777554091,51.34060382,"{ ""tooltip"": ""Aldi<br/>Sandhurst<br/>Berkshire<br/>GU47 0PU"", ""geometry"": { ""coordinates"": [ -0.777554091, 51.34060382 ] } },"
Aldi,Reading,Central Reading,Berkshire,RG1 8AL,-0.973113767,51.46070095,"{ ""tooltip"": ""Aldi<br/>Reading<br/>Berkshire<br/>RG1 8AL"", ""geometry"": { ""coordinates"": [ -0.973113767, 51.46070095 ] } },"
Aldi,Reading,North Earley,Berkshire,RG6 1LA,-0.933339761,51.45796184,"{ ""tooltip"": ""Aldi<br/>Reading<br/>Berkshire<br/>RG6 1LA"", ""geometry"": { ""coordinates"": [ -0.933339761, 51.45796184 ] } },"
Aldi,Reading,Whitley,Berkshire,RG2 0NT,-0.969744004,51.43256983,"{ ""tooltip"": ""Aldi<br/>Reading<br/>Berkshire<br/>RG2 0NT"", ""geometry"": { ""coordinates"": [ -0.969744004, 51.43256983 ] } },"
Aldi,Reading,Calcot,Berkshire,RG30 2HB,-1.023952859,51.44381276,"{ ""tooltip"": ""Aldi<br/>Reading<br/>Berkshire<br/>RG30 2HB"", ""geometry"": { ""coordinates"": [ -1.023952859, 51.44381276 ] } },"
Aldi,Peterborough,Stanground,Cambridgeshire,PE2 8SQ,-0.228621853,52.55603109,"{ ""tooltip"": ""Aldi<br/>Peterborough<br/>Cambridgeshire<br/>PE2 8SQ"", ""geometry"": { ""coordinates"": [ -0.228621853, 52.55603109 ] } },"
Aldi,Peterborough,North Bretton,Cambridgeshire,PE3 8DF,-0.282342852,52.59092626,"{ ""tooltip"": ""Aldi<br/>Peterborough<br/>Cambridgeshire<br/>PE3 8DF"", ""geometry"": { ""coordinates"": [ -0.282342852, 52.59092626 ] } },"
Aldi,Wisbech,,Cambridgeshire,PE13 1NX,0.157218783,52.66735864,"{ ""tooltip"": ""Aldi<br/>Wisbech<br/>Cambridgeshire<br/>PE13 1NX"", ""geometry"": { ""coordinates"": [ 0.157218783, 52.66735864 ] } },"
Aldi,Peterborough,Dogsthorpe,Cambridgeshire,PE1 2BT,-0.262016858,52.59488977,"{ ""tooltip"": ""Aldi<br/>Peterborough<br/>Cambridgeshire<br/>PE1 2BT"", ""geometry"": { ""coordinates"": [ -0.262016858, 52.59488977 ] } },"
Aldi,Chatteris,,Cambridgeshire,PE16 6AZ,0.045612944,52.4641203,"{ ""tooltip"": ""Aldi<br/>Chatteris<br/>Cambridgeshire<br/>PE16 6AZ"", ""geometry"": { ""coordinates"": [ 0.045612944, 52.4641203 ] } },"
Aldi,Peterborough,Hampton Vale,Cambridgeshire,PE7 8NZ,-0.25798066,52.53699795,"{ ""tooltip"": ""Aldi<br/>Peterborough<br/>Cambridgeshire<br/>PE7 8NZ"", ""geometry"": { ""coordinates"": [ -0.25798066, 52.53699795 ] } },"
Aldi,Cambridge,Central Cambridge,Cambridgeshire,CB5 8JG,0.147094298,52.21176381,"{ ""tooltip"": ""Aldi<br/>Cambridge<br/>Cambridgeshire<br/>CB5 8JG"", ""geometry"": { ""coordinates"": [ 0.147094298, 52.21176381 ] } },"
Aldi,Ely,,Cambridgeshire,CB7 4AS,0.26969295,52.39906381,"{ ""tooltip"": ""Aldi<br/>Ely<br/>Cambridgeshire<br/>CB7 4AS"", ""geometry"": { ""coordinates"": [ 0.26969295, 52.39906381 ] } },"
Aldi,St Ives£ Cambridgeshire,,Cambridgeshire,PE27 5JL,-0.059224951,52.33225311,"{ ""tooltip"": ""Aldi<br/>St Ives£ Cambridgeshire<br/>Cambridgeshire<br/>PE27 5JL"", ""geometry"": { ""coordinates"": [ -0.059224951, 52.33225311 ] } },"
Aldi,Cambridge,Chesterton,Cambridgeshire,CB4 3JD,0.110487395,52.21946977,"{ ""tooltip"": ""Aldi<br/>Cambridge<br/>Cambridgeshire<br/>CB4 3JD"", ""geometry"": { ""coordinates"": [ 0.110487395, 52.21946977 ] } },"
Aldi,Eaton Socon,,Cambridgeshire,PE19 8EX,-0.289136832,52.21069507,"{ ""tooltip"": ""Aldi<br/>Eaton Socon<br/>Cambridgeshire<br/>PE19 8EX"", ""geometry"": { ""coordinates"": [ -0.289136832, 52.21069507 ] } },"
Aldi,Huntingdon,Hartford,Cambridgeshire,PE29 3DG,-0.190257998,52.3332732,"{ ""tooltip"": ""Aldi<br/>Huntingdon<br/>Cambridgeshire<br/>PE29 3DG"", ""geometry"": { ""coordinates"": [ -0.190257998, 52.3332732 ] } },"
Aldi,Warrington,Orford,Cheshire,WA2 9SX,-2.59676675,53.41513652,"{ ""tooltip"": ""Aldi<br/>Warrington<br/>Cheshire<br/>WA2 9SX"", ""geometry"": { ""coordinates"": [ -2.59676675, 53.41513652 ] } },"
Aldi,Warrington,Walton,Cheshire,WA4 6NJ,-2.581682797,53.37034764,"{ ""tooltip"": ""Aldi<br/>Warrington<br/>Cheshire<br/>WA4 6NJ"", ""geometry"": { ""coordinates"": [ -2.581682797, 53.37034764 ] } },"
Aldi,Warrington,Central Warrington,Cheshire,WA1 1UD,-2.603363444,53.3890204,"{ ""tooltip"": ""Aldi<br/>Warrington<br/>Cheshire<br/>WA1 1UD"", ""geometry"": { ""coordinates"": [ -2.603363444, 53.3890204 ] } },"
Aldi,Neston,Neston,Cheshire,CH64 3RG,-3.06385865,53.29243708,"{ ""tooltip"": ""Aldi<br/>Neston<br/>Cheshire<br/>CH64 3RG"", ""geometry"": { ""coordinates"": [ -3.06385865, 53.29243708 ] } },"
Aldi,Ellesmere Port,Ellesmere Port,Cheshire,CH65 0EA,-2.897084673,53.27877877,"{ ""tooltip"": ""Aldi<br/>Ellesmere Port<br/>Cheshire<br/>CH65 0EA"", ""geometry"": { ""coordinates"": [ -2.897084673, 53.27877877 ] } },"
Aldi,Crewe,Wistaston Green,Cheshire,CW2 6BP,-2.44595227,53.08710938,"{ ""tooltip"": ""Aldi<br/>Crewe<br/>Cheshire<br/>CW2 6BP"", ""geometry"": { ""coordinates"": [ -2.44595227, 53.08710938 ] } },"
Aldi,Nantwich,Nantwich,Cheshire,CW5 5SP,-2.518273454,53.06396648,"{ ""tooltip"": ""Aldi<br/>Nantwich<br/>Cheshire<br/>CW5 5SP"", ""geometry"": { ""coordinates"": [ -2.518273454, 53.06396648 ] } },"
Aldi,Crewe,Sydney,Cheshire,CW1 5NP,-2.412628757,53.09360588,"{ ""tooltip"": ""Aldi<br/>Crewe<br/>Cheshire<br/>CW1 5NP"", ""geometry"": { ""coordinates"": [ -2.412628757, 53.09360588 ] } },"
Aldi,Chester,Boughton,Cheshire,CH3 5ND,-2.862725757,53.19333556,"{ ""tooltip"": ""Aldi<br/>Chester<br/>Cheshire<br/>CH3 5ND"", ""geometry"": { ""coordinates"": [ -2.862725757, 53.19333556 ] } },"
Aldi,Holmes Chapel,,Cheshire,CW4 8AB,-2.347595165,53.2007407,"{ ""tooltip"": ""Aldi<br/>Holmes Chapel<br/>Cheshire<br/>CW4 8AB"", ""geometry"": { ""coordinates"": [ -2.347595165, 53.2007407 ] } },"
Aldi,Sandbach,Sandbach,Cheshire,CW11 1DH,-2.36688263,53.14427298,"{ ""tooltip"": ""Aldi<br/>Sandbach<br/>Cheshire<br/>CW11 1DH"", ""geometry"": { ""coordinates"": [ -2.36688263, 53.14427298 ] } },"
Aldi,Congleton,West Heath,Cheshire,CW12 4NB,-2.235179711,53.16511113,"{ ""tooltip"": ""Aldi<br/>Congleton<br/>Cheshire<br/>CW12 4NB"", ""geometry"": { ""coordinates"": [ -2.235179711, 53.16511113 ] } },"
Aldi,Congleton,Congleton,Cheshire,CW12 1DL,-2.211463713,53.16567476,"{ ""tooltip"": ""Aldi<br/>Congleton<br/>Cheshire<br/>CW12 1DL"", ""geometry"": { ""coordinates"": [ -2.211463713, 53.16567476 ] } },"
Aldi,Knutsford,,Cheshire,WA16 8BN,-2.368907771,53.30236462,"{ ""tooltip"": ""Aldi<br/>Knutsford<br/>Cheshire<br/>WA16 8BN"", ""geometry"": { ""coordinates"": [ -2.368907771, 53.30236462 ] } },"
Aldi,Runcorn,Grange,Cheshire,WA7 2FQ,-2.701350429,53.32661686,"{ ""tooltip"": ""Aldi<br/>Runcorn<br/>Cheshire<br/>WA7 2FQ"", ""geometry"": { ""coordinates"": [ -2.701350429, 53.32661686 ] } },"
Aldi,Widnes,Central Widnes,Cheshire,WA8 6UF,-2.722716349,53.36574799,"{ ""tooltip"": ""Aldi<br/>Widnes<br/>Cheshire<br/>WA8 6UF"", ""geometry"": { ""coordinates"": [ -2.722716349, 53.36574799 ] } },"
Aldi,Widnes,Upton Rocks,Cheshire,WA8 9BF,-2.719848762,53.38464785,"{ ""tooltip"": ""Aldi<br/>Widnes<br/>Cheshire<br/>WA8 9BF"", ""geometry"": { ""coordinates"": [ -2.719848762, 53.38464785 ] } },"
Aldi,Runcorn,Grange,Cheshire,WA7 6SA,-2.671472626,53.31563475,"{ ""tooltip"": ""Aldi<br/>Runcorn<br/>Cheshire<br/>WA7 6SA"", ""geometry"": { ""coordinates"": [ -2.671472626, 53.31563475 ] } },"
Aldi,Macclesfield,Central Macclesfield,Cheshire,SK11 6LP,-2.124258529,53.25863277,"{ ""tooltip"": ""Aldi<br/>Macclesfield<br/>Cheshire<br/>SK11 6LP"", ""geometry"": { ""coordinates"": [ -2.124258529, 53.25863277 ] } },"
Aldi,Birchwood,,Cheshire,WA3 7PG,-2.527527097,53.41519921,"{ ""tooltip"": ""Aldi<br/>Birchwood<br/>Cheshire<br/>WA3 7PG"", ""geometry"": { ""coordinates"": [ -2.527527097, 53.41519921 ] } },"
Aldi,Northwich,Greenbank,Cheshire,CW9 5LG,-2.505904316,53.26537011,"{ ""tooltip"": ""Aldi<br/>Northwich<br/>Cheshire<br/>CW9 5LG"", ""geometry"": { ""coordinates"": [ -2.505904316, 53.26537011 ] } },"
Aldi,Winsford,Glebe Green,Cheshire,CW7 1AT,-2.531139981,53.19090418,"{ ""tooltip"": ""Aldi<br/>Winsford<br/>Cheshire<br/>CW7 1AT"", ""geometry"": { ""coordinates"": [ -2.531139981, 53.19090418 ] } },"
Aldi,Poynton£ Cheshire,,Cheshire,SK12 1NJ,-2.123664549,53.34760022,"{ ""tooltip"": ""Aldi<br/>Poynton£ Cheshire<br/>Cheshire<br/>SK12 1NJ"", ""geometry"": { ""coordinates"": [ -2.123664549, 53.34760022 ] } },"
Aldi,Chester,Blacon,Cheshire,CH1 4NT,-2.912624438,53.1944256,"{ ""tooltip"": ""Aldi<br/>Chester<br/>Cheshire<br/>CH1 4NT"", ""geometry"": { ""coordinates"": [ -2.912624438, 53.1944256 ] } },"
Aldi,Chester,Central Chester,Cheshire,CH1 4BE,-2.901969427,53.20510298,"{ ""tooltip"": ""Aldi<br/>Chester<br/>Cheshire<br/>CH1 4BE"", ""geometry"": { ""coordinates"": [ -2.901969427, 53.20510298 ] } },"
Aldi,Derby,Allenton,Derbyshire,DE24 8NH,-1.444665244,52.89243138,"{ ""tooltip"": ""Aldi<br/>Derby<br/>Derbyshire<br/>DE24 8NH"", ""geometry"": { ""coordinates"": [ -1.444665244, 52.89243138 ] } },"
Aldi,Hilton£ Derbyshire,,Derbyshire,DE65 5HD,-1.628625332,52.87122178,"{ ""tooltip"": ""Aldi<br/>Hilton£ Derbyshire<br/>Derbyshire<br/>DE65 5HD"", ""geometry"": { ""coordinates"": [ -1.628625332, 52.87122178 ] } },"
Aldi,Derby,Chaddesden,Derbyshire,DE21 4SY,-1.462513212,52.94250887,"{ ""tooltip"": ""Aldi<br/>Derby<br/>Derbyshire<br/>DE21 4SY"", ""geometry"": { ""coordinates"": [ -1.462513212, 52.94250887 ] } },"
Aldi,Derby,Normanton,Derbyshire,DE1 1TG,-1.479692711,52.91587695,"{ ""tooltip"": ""Aldi<br/>Derby<br/>Derbyshire<br/>DE1 1TG"", ""geometry"": { ""coordinates"": [ -1.479692711, 52.91587695 ] } },"
Aldi,Derby,St Lukes,Derbyshire,DE22 3HN,-1.515888272,52.91299317,"{ ""tooltip"": ""Aldi<br/>Derby<br/>Derbyshire<br/>DE22 3HN"", ""geometry"": { ""coordinates"": [ -1.515888272, 52.91299317 ] } },"
Aldi,Derby,Chaddesden,Derbyshire,DE21 6LZ,-1.436586268,52.92374234,"{ ""tooltip"": ""Aldi<br/>Derby<br/>Derbyshire<br/>DE21 6LZ"", ""geometry"": { ""coordinates"": [ -1.436586268, 52.92374234 ] } },"
Aldi,Belper,Belper,Derbyshire,DE56 1AR,-1.486078936,53.02190451,"{ ""tooltip"": ""Aldi<br/>Belper<br/>Derbyshire<br/>DE56 1AR"", ""geometry"": { ""coordinates"": [ -1.486078936, 53.02190451 ] } },"
Aldi,Derby,Chellaston,Derbyshire,DE73 6WS,-1.435264989,52.86132047,"{ ""tooltip"": ""Aldi<br/>Derby<br/>Derbyshire<br/>DE73 6WS"", ""geometry"": { ""coordinates"": [ -1.435264989, 52.86132047 ] } },"
Aldi,Killamarsh,,Derbyshire,S21 1FY,-1.316317979,53.32467696,"{ ""tooltip"": ""Aldi<br/>Killamarsh<br/>Derbyshire<br/>S21 1FY"", ""geometry"": { ""coordinates"": [ -1.316317979, 53.32467696 ] } },"
Aldi,Eckington£ Derbyshire,,Derbyshire,S21 4EF,-1.350797183,53.31053751,"{ ""tooltip"": ""Aldi<br/>Eckington£ Derbyshire<br/>Derbyshire<br/>S21 4EF"", ""geometry"": { ""coordinates"": [ -1.350797183, 53.31053751 ] } },"
Aldi,Shirebrook,,Derbyshire,NG20 8PE,-1.214275673,53.20492163,"{ ""tooltip"": ""Aldi<br/>Shirebrook<br/>Derbyshire<br/>NG20 8PE"", ""geometry"": { ""coordinates"": [ -1.214275673, 53.20492163 ] } },"
Aldi,Clay Cross,,Derbyshire,S45 9DY,-1.415500962,53.16823182,"{ ""tooltip"": ""Aldi<br/>Clay Cross<br/>Derbyshire<br/>S45 9DY"", ""geometry"": { ""coordinates"": [ -1.415500962, 53.16823182 ] } },"
Aldi,Clowne,,Derbyshire,S43 4LJ,-1.263644855,53.27556188,"{ ""tooltip"": ""Aldi<br/>Clowne<br/>Derbyshire<br/>S43 4LJ"", ""geometry"": { ""coordinates"": [ -1.263644855, 53.27556188 ] } },"
Aldi,Chesterfield,Newbold,Derbyshire,S41 7EW,-1.426927333,53.25223506,"{ ""tooltip"": ""Aldi<br/>Chesterfield<br/>Derbyshire<br/>S41 7EW"", ""geometry"": { ""coordinates"": [ -1.426927333, 53.25223506 ] } },"
Aldi,Dronfield,Coal Aston,Derbyshire,S18 2GG,-1.474803739,53.30494036,"{ ""tooltip"": ""Aldi<br/>Dronfield<br/>Derbyshire<br/>S18 2GG"", ""geometry"": { ""coordinates"": [ -1.474803739, 53.30494036 ] } },"
Aldi,Somercotes,,Derbyshire,DE55 4JN,-1.374800595,53.08468694,"{ ""tooltip"": ""Aldi<br/>Somercotes<br/>Derbyshire<br/>DE55 4JN"", ""geometry"": { ""coordinates"": [ -1.374800595, 53.08468694 ] } },"
Aldi,Chapel en le Frith,,Derbyshire,SK23 0RB,-1.910395625,53.33021687,"{ ""tooltip"": ""Aldi<br/>Chapel en le Frith<br/>Derbyshire<br/>SK23 0RB"", ""geometry"": { ""coordinates"": [ -1.910395625, 53.33021687 ] } },"
Aldi,Bakewell,,Derbyshire,DE45 1GL,-1.683799962,53.21819999,"{ ""tooltip"": ""Aldi<br/>Bakewell<br/>Derbyshire<br/>DE45 1GL"", ""geometry"": { ""coordinates"": [ -1.683799962, 53.21819999 ] } },"
Aldi,Ashbourne,,Derbyshire,DE6 1AY,-1.747814868,53.00929151,"{ ""tooltip"": ""Aldi<br/>Ashbourne<br/>Derbyshire<br/>DE6 1AY"", ""geometry"": { ""coordinates"": [ -1.747814868, 53.00929151 ] } },"
Aldi,Buxton,Fairfield,Derbyshire,SK17 6AQ,-1.909059142,53.26063976,"{ ""tooltip"": ""Aldi<br/>Buxton<br/>Derbyshire<br/>SK17 6AQ"", ""geometry"": { ""coordinates"": [ -1.909059142, 53.26063976 ] } },"
Aldi,Glossop,,Derbyshire,SK13 7AB,-1.954434517,53.4440291,"{ ""tooltip"": ""Aldi<br/>Glossop<br/>Derbyshire<br/>SK13 7AB"", ""geometry"": { ""coordinates"": [ -1.954434517, 53.4440291 ] } },"
Aldi,Swadlincote,Swadlincote,Derbyshire,DE11 9FQ,-1.555278772,52.77085044,"{ ""tooltip"": ""Aldi<br/>Swadlincote<br/>Derbyshire<br/>DE11 9FQ"", ""geometry"": { ""coordinates"": [ -1.555278772, 52.77085044 ] } },"
Aldi,Heanor,Marlpool,Derbyshire,DE75 7EX,-1.357335096,53.01621475,"{ ""tooltip"": ""Aldi<br/>Heanor<br/>Derbyshire<br/>DE75 7EX"", ""geometry"": { ""coordinates"": [ -1.357335096, 53.01621475 ] } },"
Aldi,Long Eaton,Grange Park,Derbyshire,NG10 1HD,-1.267367628,52.8976488,"{ ""tooltip"": ""Aldi<br/>Long Eaton<br/>Derbyshire<br/>NG10 1HD"", ""geometry"": { ""coordinates"": [ -1.267367628, 52.8976488 ] } },"
Aldi,Ilkeston,Cotmanhay,Derbyshire,DE7 8EG,-1.310092473,52.97748765,"{ ""tooltip"": ""Aldi<br/>Ilkeston<br/>Derbyshire<br/>DE7 8EG"", ""geometry"": { ""coordinates"": [ -1.310092473, 52.97748765 ] } },"
Aldi,Bideford,Bideford,Devon,EX39 3FR,-4.240128417,51.00965543,"{ ""tooltip"": ""Aldi<br/>Bideford<br/>Devon<br/>EX39 3FR"", ""geometry"": { ""coordinates"": [ -4.240128417, 51.00965543 ] } },"
Aldi,Plymouth,Central Plymouth,Devon,PL1 3HF,-4.155849308,50.36947099,"{ ""tooltip"": ""Aldi<br/>Plymouth<br/>Devon<br/>PL1 3HF"", ""geometry"": { ""coordinates"": [ -4.155849308, 50.36947099 ] } },"
Aldi,Plympton,Woodford,Devon,PL7 4JW,-4.048402812,50.39298899,"{ ""tooltip"": ""Aldi<br/>Plympton<br/>Devon<br/>PL7 4JW"", ""geometry"": { ""coordinates"": [ -4.048402812, 50.39298899 ] } },"
Aldi,Plymouth,Southway,Devon,PL6 6GB,-4.124471984,50.43001279,"{ ""tooltip"": ""Aldi<br/>Plymouth<br/>Devon<br/>PL6 6GB"", ""geometry"": { ""coordinates"": [ -4.124471984, 50.43001279 ] } },"
Aldi,Plymouth,Mount Gould,Devon,PL4 7JQ,-4.130324135,50.37899628,"{ ""tooltip"": ""Aldi<br/>Plymouth<br/>Devon<br/>PL4 7JQ"", ""geometry"": { ""coordinates"": [ -4.130324135, 50.37899628 ] } },"
Aldi,Cullompton,,Devon,EX15 1FU,-3.393419892,50.85379712,"{ ""tooltip"": ""Aldi<br/>Cullompton<br/>Devon<br/>EX15 1FU"", ""geometry"": { ""coordinates"": [ -3.393419892, 50.85379712 ] } },"
Aldi,Honiton,,Devon,EX14 1AZ,-3.206867972,50.79498942,"{ ""tooltip"": ""Aldi<br/>Honiton<br/>Devon<br/>EX14 1AZ"", ""geometry"": { ""coordinates"": [ -3.206867972, 50.79498942 ] } },"
Aldi,Exeter,St Thomas,Devon,EX2 8HG,-3.535685322,50.71391333,"{ ""tooltip"": ""Aldi<br/>Exeter<br/>Devon<br/>EX2 8HG"", ""geometry"": { ""coordinates"": [ -3.535685322, 50.71391333 ] } },"
Aldi,Exeter,Whipton,Devon,EX4 8JD,-3.480127377,50.73558085,"{ ""tooltip"": ""Aldi<br/>Exeter<br/>Devon<br/>EX4 8JD"", ""geometry"": { ""coordinates"": [ -3.480127377, 50.73558085 ] } },"
Aldi,Countess Wear,Countess Wear,Devon,EX2 7DT,-3.478631181,50.69151833,"{ ""tooltip"": ""Aldi<br/>Countess Wear<br/>Devon<br/>EX2 7DT"", ""geometry"": { ""coordinates"": [ -3.478631181, 50.69151833 ] } },"
Aldi,Paignton,Paignton,Devon,TQ4 7BD,-3.586053787,50.41908238,"{ ""tooltip"": ""Aldi<br/>Paignton<br/>Devon<br/>TQ4 7BD"", ""geometry"": { ""coordinates"": [ -3.586053787, 50.41908238 ] } },"
Aldi,Newton Abbot,Broadlands,Devon,TQ12 4PY,-3.598606706,50.52732063,"{ ""tooltip"": ""Aldi<br/>Newton Abbot<br/>Devon<br/>TQ12 4PY"", ""geometry"": { ""coordinates"": [ -3.598606706, 50.52732063 ] } },"
Aldi,Weymouth,Westham,Dorset,DT3 4FL,-2.495956742,50.61507668,"{ ""tooltip"": ""Aldi<br/>Weymouth<br/>Dorset<br/>DT3 4FL"", ""geometry"": { ""coordinates"": [ -2.495956742, 50.61507668 ] } },"
Aldi,Weymouth,Broadwey,Dorset,DT3 5FA,-2.46064605,50.63365337,"{ ""tooltip"": ""Aldi<br/>Weymouth<br/>Dorset<br/>DT3 5FA"", ""geometry"": { ""coordinates"": [ -2.46064605, 50.63365337 ] } },"
Aldi,Gillingham£ Dorset,,Dorset,SP8 5FB,-2.256668823,51.02899503,"{ ""tooltip"": ""Aldi<br/>Gillingham£ Dorset<br/>Dorset<br/>SP8 5FB"", ""geometry"": { ""coordinates"": [ -2.256668823, 51.02899503 ] } },"
Aldi,Bournemouth,Wallisdown,Dorset,BH10 4HZ,-1.909589874,50.74665097,"{ ""tooltip"": ""Aldi<br/>Bournemouth<br/>Dorset<br/>BH10 4HZ"", ""geometry"": { ""coordinates"": [ -1.909589874, 50.74665097 ] } },"
Aldi,Bournemouth,Springbourne,Dorset,BH8 8NT,-1.855109896,50.73128202,"{ ""tooltip"": ""Aldi<br/>Bournemouth<br/>Dorset<br/>BH8 8NT"", ""geometry"": { ""coordinates"": [ -1.855109896, 50.73128202 ] } },"
Aldi,Bournemouth,Strouden,Dorset,BH8 9PE,-1.846668561,50.74839724,"{ ""tooltip"": ""Aldi<br/>Bournemouth<br/>Dorset<br/>BH8 9PE"", ""geometry"": { ""coordinates"": [ -1.846668561, 50.74839724 ] } },"
Aldi,Bournemouth,Boscombe,Dorset,BH1 4DB,-1.841971343,50.72701478,"{ ""tooltip"": ""Aldi<br/>Bournemouth<br/>Dorset<br/>BH1 4DB"", ""geometry"": { ""coordinates"": [ -1.841971343, 50.72701478 ] } },"
Aldi,Withernsea,,East Riding of Yorkshire,HU19 2HB,0.033334683,53.72958418,"{ ""tooltip"": ""Aldi<br/>Withernsea<br/>East Riding of Yorkshire<br/>HU19 2HB"", ""geometry"": { ""coordinates"": [ 0.033334683, 53.72958418 ] } },"
Aldi,Pocklington,,East Riding of Yorkshire,YO42 2QT,-0.779128052,53.92791161,"{ ""tooltip"": ""Aldi<br/>Pocklington<br/>East Riding of Yorkshire<br/>YO42 2QT"", ""geometry"": { ""coordinates"": [ -0.779128052, 53.92791161 ] } },"
Aldi,Hull,Anlaby Park,East Riding of Yorkshire,HU4 7DY,-0.417178126,53.72311792,"{ ""tooltip"": ""Aldi<br/>Hull<br/>East Riding of Yorkshire<br/>HU4 7DY"", ""geometry"": { ""coordinates"": [ -0.417178126, 53.72311792 ] } },"
Aldi,Hull,Cottingham,East Riding of Yorkshire,HU16 5QW,-0.414299076,53.78436797,"{ ""tooltip"": ""Aldi<br/>Hull<br/>East Riding of Yorkshire<br/>HU16 5QW"", ""geometry"": { ""coordinates"": [ -0.414299076, 53.78436797 ] } },"
Aldi,Beverley,Grovehill,East Riding of Yorkshire,HU17 0JX,-0.407118021,53.84450935,"{ ""tooltip"": ""Aldi<br/>Beverley<br/>East Riding of Yorkshire<br/>HU17 0JX"", ""geometry"": { ""coordinates"": [ -0.407118021, 53.84450935 ] } },"
Aldi,Hull,Kirk Ella,East Riding of Yorkshire,HU10 6DE,-0.453625846,53.76240284,"{ ""tooltip"": ""Aldi<br/>Hull<br/>East Riding of Yorkshire<br/>HU10 6DE"", ""geometry"": { ""coordinates"": [ -0.453625846, 53.76240284 ] } },"
Aldi,Hull,Sculcoates,East Riding of Yorkshire,HU3 1TY,-0.350258139,53.75646042,"{ ""tooltip"": ""Aldi<br/>Hull<br/>East Riding of Yorkshire<br/>HU3 1TY"", ""geometry"": { ""coordinates"": [ -0.350258139, 53.75646042 ] } },"
Aldi,Hull,Greatfield,East Riding of Yorkshire,HU9 5AJ,-0.271756982,53.75740281,"{ ""tooltip"": ""Aldi<br/>Hull<br/>East Riding of Yorkshire<br/>HU9 5AJ"", ""geometry"": { ""coordinates"": [ -0.271756982, 53.75740281 ] } },"
Aldi,Hull,Newington,East Riding of Yorkshire,HU3 1TY,-0.385771826,53.7422438,"{ ""tooltip"": ""Aldi<br/>Hull<br/>East Riding of Yorkshire<br/>HU3 1TY"", ""geometry"": { ""coordinates"": [ -0.385771826, 53.7422438 ] } },"
Aldi,Hull,Bransholme,East Riding of Yorkshire,HU7 0AF,-0.331047456,53.77884183,"{ ""tooltip"": ""Aldi<br/>Hull<br/>East Riding of Yorkshire<br/>HU7 0AF"", ""geometry"": { ""coordinates"": [ -0.331047456, 53.77884183 ] } },"
Aldi,Bridlington,Wilsthorpe,East Riding of Yorkshire,YO16 4SJ,-0.207654668,54.08200611,"{ ""tooltip"": ""Aldi<br/>Bridlington<br/>East Riding of Yorkshire<br/>YO16 4SJ"", ""geometry"": { ""coordinates"": [ -0.207654668, 54.08200611 ] } },"
Aldi,Hastings,Bulverhythe,East Sussex,TN38 8FA,0.520520996,50.84976647,"{ ""tooltip"": ""Aldi<br/>Hastings<br/>East Sussex<br/>TN38 8FA"", ""geometry"": { ""coordinates"": [ 0.520520996, 50.84976647 ] } },"
Aldi,Hastings,Ore,East Sussex,TN35 5DG,0.609471849,50.87522255,"{ ""tooltip"": ""Aldi<br/>Hastings<br/>East Sussex<br/>TN35 5DG"", ""geometry"": { ""coordinates"": [ 0.609471849, 50.87522255 ] } },"
Aldi,Bexhill,Glyne Gap,East Sussex,TN39 3JY,0.468997083,50.84359129,"{ ""tooltip"": ""Aldi<br/>Bexhill<br/>East Sussex<br/>TN39 3JY"", ""geometry"": { ""coordinates"": [ 0.468997083, 50.84359129 ] } },"
Aldi,Eastbourne,Willingdon Trees,East Sussex,BN22 9AA,0.281748188,50.79686857,"{ ""tooltip"": ""Aldi<br/>Eastbourne<br/>East Sussex<br/>BN22 9AA"", ""geometry"": { ""coordinates"": [ 0.281748188, 50.79686857 ] } },"
Aldi,Brighton,Moulsecoomb,East Sussex,BN2 3QA,-0.123247402,50.84056371,"{ ""tooltip"": ""Aldi<br/>Brighton<br/>East Sussex<br/>BN2 3QA"", ""geometry"": { ""coordinates"": [ -0.123247402, 50.84056371 ] } },"
Aldi,Brighton,Central Brighton,East Sussex,BN1 4JA,-0.136337383,50.82963476,"{ ""tooltip"": ""Aldi<br/>Brighton<br/>East Sussex<br/>BN1 4JA"", ""geometry"": { ""coordinates"": [ -0.136337383, 50.82963476 ] } },"
Aldi,Portslade,Portslade,East Sussex,BN41 1XF,-0.205994944,50.83632728,"{ ""tooltip"": ""Aldi<br/>Portslade<br/>East Sussex<br/>BN41 1XF"", ""geometry"": { ""coordinates"": [ -0.205994944, 50.83632728 ] } },"
Aldi,Lewes,,East Sussex,BN7 2BY,0.016930895,50.87690854,"{ ""tooltip"": ""Aldi<br/>Lewes<br/>East Sussex<br/>BN7 2BY"", ""geometry"": { ""coordinates"": [ 0.016930895, 50.87690854 ] } },"
Aldi,London,Feltham,Greater London,TW13 4DD,-0.412011585,51.44392087,"{ ""tooltip"": ""Aldi<br/>London<br/>Greater London<br/>TW13 4DD"", ""geometry"": { ""coordinates"": [ -0.412011585, 51.44392087 ] } },"
Aldi,London,Hounslow,Greater London,TW3 3HY,-0.372083097,51.46762916,"{ ""tooltip"": ""Aldi<br/>London<br/>Greater London<br/>TW3 3HY"", ""geometry"": { ""coordinates"": [ -0.372083097, 51.46762916 ] } },"
Aldi,London,Bruce Grove,Greater London,N17 9TA,-0.06799805,51.59602678,"{ ""tooltip"": ""Aldi<br/>London<br/>Greater London<br/>N17 9TA"", ""geometry"": { ""coordinates"": [ -0.06799805, 51.59602678 ] } },"
Aldi,London,Southbury,Greater London,EN1 1TH,-0.056708667,51.65446956,"{ ""tooltip"": ""Aldi<br/>London<br/>Greater London<br/>EN1 1TH"", ""geometry"": { ""coordinates"": [ -0.056708667, 51.65446956 ] } },"
Aldi,London,Kingston Upon Thames,Greater London,KT1 1DF,-0.301207272,51.41028068,"{ ""tooltip"": ""Aldi<br/>London<br/>Greater London<br/>KT1 1DF"", ""geometry"": { ""coordinates"": [ -0.301207272, 51.41028068 ] } },"
Aldi,London,Norbiton,Greater London,KT3 3SY,-0.272282012,51.40411508,"{ ""tooltip"": ""Aldi<br/>London<br/>Greater London<br/>KT3 3SY"", ""geometry"": { ""coordinates"": [ -0.272282012, 51.40411508 ] } },"
Aldi,London,North Finchley,Greater London,N12 0ER,-0.176944086,51.61283462,"{ ""tooltip"": ""Aldi<br/>London<br/>Greater London<br/>N12 0ER"", ""geometry"": { ""coordinates"": [ -0.176944086, 51.61283462 ] } },"
Aldi,London,East Barnet,Greater London,EN4 8SL,-0.163850474,51.64461952,"{ ""tooltip"": ""Aldi<br/>London<br/>Greater London<br/>EN4 8SL"", ""geometry"": { ""coordinates"": [ -0.163850474, 51.64461952 ] } },"
Aldi,London,Leyton,Greater London,E10 7NQ,-0.030050592,51.56922275,"{ ""tooltip"": ""Aldi<br/>London<br/>Greater London<br/>E10 7NQ"", ""geometry"": { ""coordinates"": [ -0.030050592, 51.56922275 ] } },"
Aldi,London,Collier Row,Greater London,RM5 2AT,0.157696483,51.59790138,"{ ""tooltip"": ""Aldi<br/>London<br/>Greater London<br/>RM5 2AT"", ""geometry"": { ""coordinates"": [ 0.157696483, 51.59790138 ] } },"
Aldi,London,Newbury Park,Greater London,IG2 6BE,0.084378169,51.57507368,"{ ""tooltip"": ""Aldi<br/>London<br/>Greater London<br/>IG2 6BE"", ""geometry"": { ""coordinates"": [ 0.084378169, 51.57507368 ] } },"
Aldi,London,Dagenham,Greater London,RM9 6SJ,0.144825062,51.53094751,"{ ""tooltip"": ""Aldi<br/>London<br/>Greater London<br/>RM9 6SJ"", ""geometry"": { ""coordinates"": [ 0.144825062, 51.53094751 ] } },"
Aldi,London,Seven Kings,Greater London,IG3 8RS,0.10481172,51.56519416,"{ ""tooltip"": ""Aldi<br/>London<br/>Greater London<br/>IG3 8RS"", ""geometry"": { ""coordinates"": [ 0.10481172, 51.56519416 ] } },"
Aldi,London,Romford,Greater London,RM1 3AB,0.182198858,51.58004588,"{ ""tooltip"": ""Aldi<br/>London<br/>Greater London<br/>RM1 3AB"", ""geometry"": { ""coordinates"": [ 0.182198858, 51.58004588 ] } },"
Aldi,London,Romford,Greater London,RM7 8AD,0.163286538,51.5816566,"{ ""tooltip"": ""Aldi<br/>London<br/>Greater London<br/>RM7 8AD"", ""geometry"": { ""coordinates"": [ 0.163286538, 51.5816566 ] } },"
Aldi,London,Yiewsley,Greater London,UB7 7QN,-0.474290384,51.51447436,"{ ""tooltip"": ""Aldi<br/>London<br/>Greater London<br/>UB7 7QN"", ""geometry"": { ""coordinates"": [ -0.474290384, 51.51447436 ] } },"
Aldi,London,Thamesmead,Greater London,SE28 8DT,0.106118499,51.506094,"{ ""tooltip"": ""Aldi<br/>London<br/>Greater London<br/>SE28 8DT"", ""geometry"": { ""coordinates"": [ 0.106118499, 51.506094 ] } },"
Aldi,London,Coulsdon,Greater London,CR5 2NH,-0.137721328,51.32094826,"{ ""tooltip"": ""Aldi<br/>London<br/>Greater London<br/>CR5 2NH"", ""geometry"": { ""coordinates"": [ -0.137721328, 51.32094826 ] } },"
Aldi Local,London,Camden Town,Greater London,NW1 7JR,-0.141838321,51.53746004,"{ ""tooltip"": ""Aldi Local<br/>London<br/>Greater London<br/>NW1 7JR"", ""geometry"": { ""coordinates"": [ -0.141838321, 51.53746004 ] } },"
Aldi,London,Upper Holloway,Greater London,N19 5SE,-0.133982107,51.56514492,"{ ""tooltip"": ""Aldi<br/>London<br/>Greater London<br/>N19 5SE"", ""geometry"": { ""coordinates"": [ -0.133982107, 51.56514492 ] } },"
Aldi,London,Catford,Greater London,SE6 4JD,-0.017733214,51.44865754,"{ ""tooltip"": ""Aldi<br/>London<br/>Greater London<br/>SE6 4JD"", ""geometry"": { ""coordinates"": [ -0.017733214, 51.44865754 ] } },"
Aldi,London,Peckham,Greater London,SE15 1NQ,-0.055677364,51.47876141,"{ ""tooltip"": ""Aldi<br/>London<br/>Greater London<br/>SE15 1NQ"", ""geometry"": { ""coordinates"": [ -0.055677364, 51.47876141 ] } },"
Aldi,London,Charlton,Greater London,SE7 7FR,0.02235318,51.49086078,"{ ""tooltip"": ""Aldi<br/>London<br/>Greater London<br/>SE7 7FR"", ""geometry"": { ""coordinates"": [ 0.02235318, 51.49086078 ] } },"
Aldi,London,Kidbrooke,Greater London,SE3 9PP,0.029227153,51.46388578,"{ ""tooltip"": ""Aldi<br/>London<br/>Greater London<br/>SE3 9PP"", ""geometry"": { ""coordinates"": [ 0.029227153, 51.46388578 ] } },"
Aldi Local,London,Kilburn,Greater London,NW6 4JD,-0.196065327,51.54062609,"{ ""tooltip"": ""Aldi Local<br/>London<br/>Greater London<br/>NW6 4JD"", ""geometry"": { ""coordinates"": [ -0.196065327, 51.54062609 ] } },"
Aldi,London,Eastcote,Greater London,HA5 1QH,-0.3990254,51.57921638,"{ ""tooltip"": ""Aldi<br/>London<br/>Greater London<br/>HA5 1QH"", ""geometry"": { ""coordinates"": [ -0.3990254, 51.57921638 ] } },"
Aldi,London,South Ruislip,Greater London,HA4 0AJ,-0.401444637,51.55962795,"{ ""tooltip"": ""Aldi<br/>London<br/>Greater London<br/>HA4 0AJ"", ""geometry"": { ""coordinates"": [ -0.401444637, 51.55962795 ] } },"
Aldi,London,Anerley,Greater London,SE20 7SX,-0.059073702,51.40858795,"{ ""tooltip"": ""Aldi<br/>London<br/>Greater London<br/>SE20 7SX"", ""geometry"": { ""coordinates"": [ -0.059073702, 51.40858795 ] } },"
Aldi,London,Bell Green,Greater London,SE26 4PU,-0.035133332,51.43168282,"{ ""tooltip"": ""Aldi<br/>London<br/>Greater London<br/>SE26 4PU"", ""geometry"": { ""coordinates"": [ -0.035133332, 51.43168282 ] } },"
Aldi,London,South Norwood,Greater London,SE25 5AJ,-0.076541366,51.39771671,"{ ""tooltip"": ""Aldi<br/>London<br/>Greater London<br/>SE25 5AJ"", ""geometry"": { ""coordinates"": [ -0.076541366, 51.39771671 ] } },"
Aldi,London,Selsdon/South Croydon,Greater London,CR2 8LE,-0.059131589,51.34493661,"{ ""tooltip"": ""Aldi<br/>London<br/>Greater London<br/>CR2 8LE"", ""geometry"": { ""coordinates"": [ -0.059131589, 51.34493661 ] } },"
Aldi,London,Upminster,Greater London,RM14 2QB,0.248396772,51.55644401,"{ ""tooltip"": ""Aldi<br/>London<br/>Greater London<br/>RM14 2QB"", ""geometry"": { ""coordinates"": [ 0.248396772, 51.55644401 ] } },"
Aldi,London,Kingsbury,Greater London,NW9 9HN,-0.279937316,51.58525902,"{ ""tooltip"": ""Aldi<br/>London<br/>Greater London<br/>NW9 9HN"", ""geometry"": { ""coordinates"": [ -0.279937316, 51.58525902 ] } },"
Aldi,London,Colindale,Greater London,NW9 0EQ,-0.263579326,51.59435262,"{ ""tooltip"": ""Aldi<br/>London<br/>Greater London<br/>NW9 0EQ"", ""geometry"": { ""coordinates"": [ -0.263579326, 51.59435262 ] } },"
Aldi,London,Collier's Wood,Greater London,SW19 2PP,-0.178790417,51.41598451,"{ ""tooltip"": ""Aldi<br/>London<br/>Greater London<br/>SW19 2PP"", ""geometry"": { ""coordinates"": [ -0.178790417, 51.41598451 ] } },"
Aldi,London,Crayford,Greater London,DA1 4FY,0.178117707,51.45076996,"{ ""tooltip"": ""Aldi<br/>London<br/>Greater London<br/>DA1 4FY"", ""geometry"": { ""coordinates"": [ 0.178117707, 51.45076996 ] } },"
Aldi Local,London,Balham,Greater London,SW12 9AU,-0.152350907,51.44358294,"{ ""tooltip"": ""Aldi Local<br/>London<br/>Greater London<br/>SW12 9AU"", ""geometry"": { ""coordinates"": [ -0.152350907, 51.44358294 ] } },"
Aldi,London,Streatham,Greater London,SW16 6HP,-0.131502692,51.42617558,"{ ""tooltip"": ""Aldi<br/>London<br/>Greater London<br/>SW16 6HP"", ""geometry"": { ""coordinates"": [ -0.131502692, 51.42617558 ] } },"
Aldi Local,London,Tooting,Greater London,SW17 0SP,-0.1668814,51.42874447,"{ ""tooltip"": ""Aldi Local<br/>London<br/>Greater London<br/>SW17 0SP"", ""geometry"": { ""coordinates"": [ -0.1668814, 51.42874447 ] } },"
Aldi,Gloucester,Linden,Gloucestershire,GL1 5BJ,-2.25078866,51.85720859,"{ ""tooltip"": ""Aldi<br/>Gloucester<br/>Gloucestershire<br/>GL1 5BJ"", ""geometry"": { ""coordinates"": [ -2.25078866, 51.85720859 ] } },"
Aldi,Christchurch,Somerford,Dorset,BH23 3RT,-1.743573403,50.74065264,"{ ""tooltip"": ""Aldi<br/>Christchurch<br/>Dorset<br/>BH23 3RT"", ""geometry"": { ""coordinates"": [ -1.743573403, 50.74065264 ] } },"
Aldi,Keighley,Eastwood,West Yorkshire,BD21 5JG,-1.902308169,53.86726977,"{ ""tooltip"": ""Aldi<br/>Keighley<br/>West Yorkshire<br/>BD21 5JG"", ""geometry"": { ""coordinates"": [ -1.902308169, 53.86726977 ] } },"
Aldi,Poole,Central Poole,Dorset,BH15 1XU,-1.977828871,50.71528266,"{ ""tooltip"": ""Aldi<br/>Poole<br/>Dorset<br/>BH15 1XU"", ""geometry"": { ""coordinates"": [ -1.977828871, 50.71528266 ] } },"
Aldi,Horwich,Horwich,Greater Manchester,BL6 5QP,-2.550355872,53.59722174,"{ ""tooltip"": ""Aldi<br/>Horwich<br/>Greater Manchester<br/>BL6 5QP"", ""geometry"": { ""coordinates"": [ -2.550355872, 53.59722174 ] } },"
Aldi,Hindley,Hindley Green,Greater Manchester,WN2 4SQ,-2.55295589,53.52569336,"{ ""tooltip"": ""Aldi<br/>Hindley<br/>Greater Manchester<br/>WN2 4SQ"", ""geometry"": { ""coordinates"": [ -2.55295589, 53.52569336 ] } },"
Aldi,Manchester,Urmston,Greater Manchester,M41 0NA,-2.353906132,53.44984497,"{ ""tooltip"": ""Aldi<br/>Manchester<br/>Greater Manchester<br/>M41 0NA"", ""geometry"": { ""coordinates"": [ -2.353906132, 53.44984497 ] } },"
Aldi,Manchester,Eccles,Greater Manchester,M30 0LJ,-2.339613132,53.48357763,"{ ""tooltip"": ""Aldi<br/>Manchester<br/>Greater Manchester<br/>M30 0LJ"", ""geometry"": { ""coordinates"": [ -2.339613132, 53.48357763 ] } },"
Aldi,Manchester,Davyhulme,Greater Manchester,M41 7ND,-2.359852285,53.46174514,"{ ""tooltip"": ""Aldi<br/>Manchester<br/>Greater Manchester<br/>M41 7ND"", ""geometry"": { ""coordinates"": [ -2.359852285, 53.46174514 ] } },"
Aldi,Manchester,Irlam o the Height,Greater Manchester,M6 7NJ,-2.309616592,53.50068906,"{ ""tooltip"": ""Aldi<br/>Manchester<br/>Greater Manchester<br/>M6 7NJ"", ""geometry"": { ""coordinates"": [ -2.309616592, 53.50068906 ] } },"
Aldi,Sale,Central Sale,Greater Manchester,M33 7YF,-2.323523598,53.42505816,"{ ""tooltip"": ""Aldi<br/>Sale<br/>Greater Manchester<br/>M33 7YF"", ""geometry"": { ""coordinates"": [ -2.323523598, 53.42505816 ] } },"
Aldi,Manchester,Stretford,Greater Manchester,M32 9BA,-2.308200273,53.44565416,"{ ""tooltip"": ""Aldi<br/>Manchester<br/>Greater Manchester<br/>M32 9BA"", ""geometry"": { ""coordinates"": [ -2.308200273, 53.44565416 ] } },"
Aldi,Altrincham,Broadheath,Greater Manchester,WA14 5BW,-2.354973622,53.39812243,"{ ""tooltip"": ""Aldi<br/>Altrincham<br/>Greater Manchester<br/>WA14 5BW"", ""geometry"": { ""coordinates"": [ -2.354973622, 53.39812243 ] } },"
Aldi,Manchester,Brookhouse Estate,Greater Manchester,M30 7EY,-2.378552893,53.47013376,"{ ""tooltip"": ""Aldi<br/>Manchester<br/>Greater Manchester<br/>M30 7EY"", ""geometry"": { ""coordinates"": [ -2.378552893, 53.47013376 ] } },"
Aldi,Manchester,Didsbury,Greater Manchester,M20 2DN,-2.232938536,53.41911033,"{ ""tooltip"": ""Aldi<br/>Manchester<br/>Greater Manchester<br/>M20 2DN"", ""geometry"": { ""coordinates"": [ -2.232938536, 53.41911033 ] } },"
Aldi,Manchester,Moss Side,Greater Manchester,M14 7LA,-2.238980222,53.4475566,"{ ""tooltip"": ""Aldi<br/>Manchester<br/>Greater Manchester<br/>M14 7LA"", ""geometry"": { ""coordinates"": [ -2.238980222, 53.4475566 ] } },"
Aldi,Manchester,Central Manchester,Greater Manchester,M4 6DE,-2.227753533,53.48164462,"{ ""tooltip"": ""Aldi<br/>Manchester<br/>Greater Manchester<br/>M4 6DE"", ""geometry"": { ""coordinates"": [ -2.227753533, 53.48164462 ] } },"
Aldi,Manchester,Burnage,Greater Manchester,M19 1LJ,-2.209725705,53.42690745,"{ ""tooltip"": ""Aldi<br/>Manchester<br/>Greater Manchester<br/>M19 1LJ"", ""geometry"": { ""coordinates"": [ -2.209725705, 53.42690745 ] } },"
Aldi,Manchester,Central Manchester,Greater Manchester,M1 1WR,-2.240617518,53.48279409,"{ ""tooltip"": ""Aldi<br/>Manchester<br/>Greater Manchester<br/>M1 1WR"", ""geometry"": { ""coordinates"": [ -2.240617518, 53.48279409 ] } },"
Aldi,Manchester,Gorton,Greater Manchester,M18 8HE,-2.179373364,53.46272445,"{ ""tooltip"": ""Aldi<br/>Manchester<br/>Greater Manchester<br/>M18 8HE"", ""geometry"": { ""coordinates"": [ -2.179373364, 53.46272445 ] } },"
Aldi,Manchester,Heaton Chapel,Greater Manchester,M19 2QD,-2.181985112,53.43395191,"{ ""tooltip"": ""Aldi<br/>Manchester<br/>Greater Manchester<br/>M19 2QD"", ""geometry"": { ""coordinates"": [ -2.181985112, 53.43395191 ] } },"
Aldi,Leigh,Central Leigh,Greater Manchester,WN7 4LJ,-2.520517896,53.49419458,"{ ""tooltip"": ""Aldi<br/>Leigh<br/>Greater Manchester<br/>WN7 4LJ"", ""geometry"": { ""coordinates"": [ -2.520517896, 53.49419458 ] } },"
Aldi,Walkden,Whittle Brook,Greater Manchester,M28 3BT,-2.401021468,53.52752444,"{ ""tooltip"": ""Aldi<br/>Walkden<br/>Greater Manchester<br/>M28 3BT"", ""geometry"": { ""coordinates"": [ -2.401021468, 53.52752444 ] } },"
Aldi,Leigh,Westleigh,Greater Manchester,WN7 5AR,-2.525028951,53.50177642,"{ ""tooltip"": ""Aldi<br/>Leigh<br/>Greater Manchester<br/>WN7 5AR"", ""geometry"": { ""coordinates"": [ -2.525028951, 53.50177642 ] } },"
Aldi,Westhoughton,Westhoughton,Greater Manchester,BL5 3DG,-2.520899963,53.54909999,"{ ""tooltip"": ""Aldi<br/>Westhoughton<br/>Greater Manchester<br/>BL5 3DG"", ""geometry"": { ""coordinates"": [ -2.520899963, 53.54909999 ] } },"
Aldi,Walkden,Little Hulton,Greater Manchester,BL5 1FN,-2.452760928,53.54241053,"{ ""tooltip"": ""Aldi<br/>Walkden<br/>Greater Manchester<br/>BL5 1FN"", ""geometry"": { ""coordinates"": [ -2.452760928, 53.54241053 ] } },"
Aldi,Bolton,Great Lever,Greater Manchester,BL3 2NB,-2.414252249,53.56617011,"{ ""tooltip"": ""Aldi<br/>Bolton<br/>Greater Manchester<br/>BL3 2NB"", ""geometry"": { ""coordinates"": [ -2.414252249, 53.56617011 ] } },"
Aldi,Bolton,Great Lever,Greater Manchester,BL3 6DH,-2.433050624,53.57345244,"{ ""tooltip"": ""Aldi<br/>Bolton<br/>Greater Manchester<br/>BL3 6DH"", ""geometry"": { ""coordinates"": [ -2.433050624, 53.57345244 ] } },"
Aldi,Bolton,Central Bolton,Greater Manchester,BL1 2HJ,-2.430739506,53.58536066,"{ ""tooltip"": ""Aldi<br/>Bolton<br/>Greater Manchester<br/>BL1 2HJ"", ""geometry"": { ""coordinates"": [ -2.430739506, 53.58536066 ] } },"
Aldi,Tyldesley,Shakerley,Greater Manchester,M29 8EW,-2.47069426,53.51458446,"{ ""tooltip"": ""Aldi<br/>Tyldesley<br/>Greater Manchester<br/>M29 8EW"", ""geometry"": { ""coordinates"": [ -2.47069426, 53.51458446 ] } },"
Aldi,Standish,Standish,Greater Manchester,WN6 0TD,-2.664758134,53.5865184,"{ ""tooltip"": ""Aldi<br/>Standish<br/>Greater Manchester<br/>WN6 0TD"", ""geometry"": { ""coordinates"": [ -2.664758134, 53.5865184 ] } },"
Aldi,Wigan,Pemberton,Greater Manchester,WN5 0TQ,-2.652474677,53.54057347,"{ ""tooltip"": ""Aldi<br/>Wigan<br/>Greater Manchester<br/>WN5 0TQ"", ""geometry"": { ""coordinates"": [ -2.652474677, 53.54057347 ] } },"
Aldi,Manchester,Trafford,Greater Manchester,M16 0LH,-2.277175703,53.46053089,"{ ""tooltip"": ""Aldi<br/>Manchester<br/>Greater Manchester<br/>M16 0LH"", ""geometry"": { ""coordinates"": [ -2.277175703, 53.46053089 ] } },"
Aldi,Altrincham,Timperley,Greater Manchester,M23 9SR,-2.300279079,53.40124261,"{ ""tooltip"": ""Aldi<br/>Altrincham<br/>Greater Manchester<br/>M23 9SR"", ""geometry"": { ""coordinates"": [ -2.300279079, 53.40124261 ] } },"
Aldi,Manchester,Pendleton,Greater Manchester,M6 5UJ,-2.288118862,53.48753235,"{ ""tooltip"": ""Aldi<br/>Manchester<br/>Greater Manchester<br/>M6 5UJ"", ""geometry"": { ""coordinates"": [ -2.288118862, 53.48753235 ] } },"
Aldi,Oldham,Shaw,Greater Manchester,OL2 8RH,-2.093620291,53.57523612,"{ ""tooltip"": ""Aldi<br/>Oldham<br/>Greater Manchester<br/>OL2 8RH"", ""geometry"": { ""coordinates"": [ -2.093620291, 53.57523612 ] } },"
Aldi,Heywood,Heywood,Greater Manchester,OL10 1PN,-2.209493186,53.59331312,"{ ""tooltip"": ""Aldi<br/>Heywood<br/>Greater Manchester<br/>OL10 1PN"", ""geometry"": { ""coordinates"": [ -2.209493186, 53.59331312 ] } },"
Aldi,Manchester,Failsworth,Greater Manchester,M35 0AT,-2.158865397,53.50997328,"{ ""tooltip"": ""Aldi<br/>Manchester<br/>Greater Manchester<br/>M35 0AT"", ""geometry"": { ""coordinates"": [ -2.158865397, 53.50997328 ] } },"
Aldi,Rochdale,Central Rochdale,Greater Manchester,OL12 6XT,-2.167068487,53.61509704,"{ ""tooltip"": ""Aldi<br/>Rochdale<br/>Greater Manchester<br/>OL12 6XT"", ""geometry"": { ""coordinates"": [ -2.167068487, 53.61509704 ] } },"
Aldi,Rochdale,Central Rochdale,Greater Manchester,OL16 2HZ,-2.149917057,53.61775406,"{ ""tooltip"": ""Aldi<br/>Rochdale<br/>Greater Manchester<br/>OL16 2HZ"", ""geometry"": { ""coordinates"": [ -2.149917057, 53.61775406 ] } },"
Aldi,Middleton£ Greater Manchester,Middleton Central,Greater Manchester,M24 5AS,-2.199106639,53.55067532,"{ ""tooltip"": ""Aldi<br/>Middleton£ Greater Manchester<br/>Greater Manchester<br/>M24 5AS"", ""geometry"": { ""coordinates"": [ -2.199106639, 53.55067532 ] } },"
Aldi,Milnrow,,Greater Manchester,OL16 4GJ,-2.110474458,53.60789372,"{ ""tooltip"": ""Aldi<br/>Milnrow<br/>Greater Manchester<br/>OL16 4GJ"", ""geometry"": { ""coordinates"": [ -2.110474458, 53.60789372 ] } },"
Aldi,Oldham,Chadderton,Greater Manchester,OL9 6QR,-2.127739291,53.54806012,"{ ""tooltip"": ""Aldi<br/>Oldham<br/>Greater Manchester<br/>OL9 6QR"", ""geometry"": { ""coordinates"": [ -2.127739291, 53.54806012 ] } },"
Aldi,Middleton£ Greater Manchester,Middleton Central,Greater Manchester,M24 4FH,-2.204683248,53.54829971,"{ ""tooltip"": ""Aldi<br/>Middleton£ Greater Manchester<br/>Greater Manchester<br/>M24 4FH"", ""geometry"": { ""coordinates"": [ -2.204683248, 53.54829971 ] } },"
Aldi,Northenden,,Greater Manchester,M22 9SB,-2.259047578,53.39762779,"{ ""tooltip"": ""Aldi<br/>Northenden<br/>Greater Manchester<br/>M22 9SB"", ""geometry"": { ""coordinates"": [ -2.259047578, 53.39762779 ] } },"
Aldi,Stockport,Central Stockport,Greater Manchester,SK3 0LX,-2.192797643,53.40138515,"{ ""tooltip"": ""Aldi<br/>Stockport<br/>Greater Manchester<br/>SK3 0LX"", ""geometry"": { ""coordinates"": [ -2.192797643, 53.40138515 ] } },"
Aldi,Ashton In Makerfield,Ashton In Makerfield,Greater Manchester,WN4 9DA,-2.635448831,53.48771493,"{ ""tooltip"": ""Aldi<br/>Ashton In Makerfield<br/>Greater Manchester<br/>WN4 9DA"", ""geometry"": { ""coordinates"": [ -2.635448831, 53.48771493 ] } },"
Aldi,Stockport,Offerton,Greater Manchester,SK2 5RH,-2.123201156,53.39703578,"{ ""tooltip"": ""Aldi<br/>Stockport<br/>Greater Manchester<br/>SK2 5RH"", ""geometry"": { ""coordinates"": [ -2.123201156, 53.39703578 ] } },"
Aldi,Manchester,Clayton,Greater Manchester,M11 4PD,-2.171110407,53.48124085,"{ ""tooltip"": ""Aldi<br/>Manchester<br/>Greater Manchester<br/>M11 4PD"", ""geometry"": { ""coordinates"": [ -2.171110407, 53.48124085 ] } },"
Aldi,Hyde,Godley,Greater Manchester,SK14 1BW,-2.086244993,53.45202743,"{ ""tooltip"": ""Aldi<br/>Hyde<br/>Greater Manchester<br/>SK14 1BW"", ""geometry"": { ""coordinates"": [ -2.086244993, 53.45202743 ] } },"
Aldi,Stalybridge,Central Stalybridge,Greater Manchester,SK15 1SD,-2.059078096,53.48199966,"{ ""tooltip"": ""Aldi<br/>Stalybridge<br/>Greater Manchester<br/>SK15 1SD"", ""geometry"": { ""coordinates"": [ -2.059078096, 53.48199966 ] } },"
Aldi,Stockport,Hazel Grove,Greater Manchester,SK7 4AA,-2.123913264,53.38309412,"{ ""tooltip"": ""Aldi<br/>Stockport<br/>Greater Manchester<br/>SK7 4AA"", ""geometry"": { ""coordinates"": [ -2.123913264, 53.38309412 ] } },"
Aldi,Ashton Under Lyne,Central Ashton,Greater Manchester,OL6 7FN,-2.099529231,53.49002852,"{ ""tooltip"": ""Aldi<br/>Ashton Under Lyne<br/>Greater Manchester<br/>OL6 7FN"", ""geometry"": { ""coordinates"": [ -2.099529231, 53.49002852 ] } },"
Aldi,Stockport,Central Stockport,Greater Manchester,SK1 2NA,-2.15284549,53.41073894,"{ ""tooltip"": ""Aldi<br/>Stockport<br/>Greater Manchester<br/>SK1 2NA"", ""geometry"": { ""coordinates"": [ -2.15284549, 53.41073894 ] } },"
Aldi,Romiley,Cherry Tree,Greater Manchester,SK6 3NA,-2.09739413,53.41234462,"{ ""tooltip"": ""Aldi<br/>Romiley<br/>Greater Manchester<br/>SK6 3NA"", ""geometry"": { ""coordinates"": [ -2.09739413, 53.41234462 ] } },"
Aldi,Bury,Tottington,Greater Manchester,BL8 1GU,-2.31151401,53.59573139,"{ ""tooltip"": ""Aldi<br/>Bury<br/>Greater Manchester<br/>BL8 1GU"", ""geometry"": { ""coordinates"": [ -2.31151401, 53.59573139 ] } },"
Aldi,Ramsbottom,Shuttleworth,Greater Manchester,BL0 9AL,-2.315593603,53.64629144,"{ ""tooltip"": ""Aldi<br/>Ramsbottom<br/>Greater Manchester<br/>BL0 9AL"", ""geometry"": { ""coordinates"": [ -2.315593603, 53.64629144 ] } },"
Aldi,Manchester,Whitefield,Greater Manchester,M25 7EA,-2.291840141,53.54323127,"{ ""tooltip"": ""Aldi<br/>Manchester<br/>Greater Manchester<br/>M25 7EA"", ""geometry"": { ""coordinates"": [ -2.291840141, 53.54323127 ] } },"
Aldi,Manchester,Swinton,Greater Manchester,M27 4BL,-2.334603116,53.51303453,"{ ""tooltip"": ""Aldi<br/>Manchester<br/>Greater Manchester<br/>M27 4BL"", ""geometry"": { ""coordinates"": [ -2.334603116, 53.51303453 ] } },"
Aldi,Bolton,Breightmet,Greater Manchester,BL2 6PP,-2.383182066,53.58136397,"{ ""tooltip"": ""Aldi<br/>Bolton<br/>Greater Manchester<br/>BL2 6PP"", ""geometry"": { ""coordinates"": [ -2.383182066, 53.58136397 ] } },"
Aldi,Bury,Fernhill,Greater Manchester,BL9 6DF,-2.278606983,53.59809379,"{ ""tooltip"": ""Aldi<br/>Bury<br/>Greater Manchester<br/>BL9 6DF"", ""geometry"": { ""coordinates"": [ -2.278606983, 53.59809379 ] } },"
Aldi,Manchester,Prestwich,Greater Manchester,M25 1AR,-2.282253143,53.53029117,"{ ""tooltip"": ""Aldi<br/>Manchester<br/>Greater Manchester<br/>M25 1AR"", ""geometry"": { ""coordinates"": [ -2.282253143, 53.53029117 ] } },"
Aldi,Hereford,Central Hereford,Herefordshire,HR4 0AP,-2.723129942,52.05798839,"{ ""tooltip"": ""Aldi<br/>Hereford<br/>Herefordshire<br/>HR4 0AP"", ""geometry"": { ""coordinates"": [ -2.723129942, 52.05798839 ] } },"
Aldi,Leominster,,Herefordshire,HR6 8NY,-2.740394368,52.22536153,"{ ""tooltip"": ""Aldi<br/>Leominster<br/>Herefordshire<br/>HR6 8NY"", ""geometry"": { ""coordinates"": [ -2.740394368, 52.22536153 ] } },"
Aldi,Ross-on-Wye,,Herefordshire,HR9 7EE,-2.582025023,51.91641102,"{ ""tooltip"": ""Aldi<br/>Ross-on-Wye<br/>Herefordshire<br/>HR9 7EE"", ""geometry"": { ""coordinates"": [ -2.582025023, 51.91641102 ] } },"
Aldi,Ledbury,,Herefordshire,HR8 2SS,-2.435913971,52.0379274,"{ ""tooltip"": ""Aldi<br/>Ledbury<br/>Herefordshire<br/>HR8 2SS"", ""geometry"": { ""coordinates"": [ -2.435913971, 52.0379274 ] } },"
Aldi,Hatfield£ Hertfordshire,,Hertfordshire,AL10 9RQ,-0.240950304,51.76315155,"{ ""tooltip"": ""Aldi<br/>Hatfield£ Hertfordshire<br/>Hertfordshire<br/>AL10 9RQ"", ""geometry"": { ""coordinates"": [ -0.240950304, 51.76315155 ] } },"
Aldi,Welwyn Garden City,Hatfield Hyde,Hertfordshire,AL7 1HH,-0.19661637,51.80248161,"{ ""tooltip"": ""Aldi<br/>Welwyn Garden City<br/>Hertfordshire<br/>AL7 1HH"", ""geometry"": { ""coordinates"": [ -0.19661637, 51.80248161 ] } },"
Aldi,Borehamwood,Barnet Gate,Hertfordshire,WD6 4PR,-0.279257431,51.65694343,"{ ""tooltip"": ""Aldi<br/>Borehamwood<br/>Hertfordshire<br/>WD6 4PR"", ""geometry"": { ""coordinates"": [ -0.279257431, 51.65694343 ] } },"
Aldi,St Albans,Sopwell,Hertfordshire,AL1 2DF,-0.340283746,51.741862,"{ ""tooltip"": ""Aldi<br/>St Albans<br/>Hertfordshire<br/>AL1 2DF"", ""geometry"": { ""coordinates"": [ -0.340283746, 51.741862 ] } },"
Aldi,Hoddesdon,,Hertfordshire,EN11 8TY,-0.01365991,51.75981009,"{ ""tooltip"": ""Aldi<br/>Hoddesdon<br/>Hertfordshire<br/>EN11 8TY"", ""geometry"": { ""coordinates"": [ -0.01365991, 51.75981009 ] } },"
Aldi,Hemel Hempstead,Adeyfield,Hertfordshire,HP2 7BA,-0.448107184,51.76979835,"{ ""tooltip"": ""Aldi<br/>Hemel Hempstead<br/>Hertfordshire<br/>HP2 7BA"", ""geometry"": { ""coordinates"": [ -0.448107184, 51.76979835 ] } },"
Aldi,Hemel Hempstead,Adeyfield,Hertfordshire,HP2 4NW,-0.437661721,51.75782166,"{ ""tooltip"": ""Aldi<br/>Hemel Hempstead<br/>Hertfordshire<br/>HP2 4NW"", ""geometry"": { ""coordinates"": [ -0.437661721, 51.75782166 ] } },"
Aldi,Hemel Hempstead,Felden,Hertfordshire,HP3 9AA,-0.47589442,51.73988511,"{ ""tooltip"": ""Aldi<br/>Hemel Hempstead<br/>Hertfordshire<br/>HP3 9AA"", ""geometry"": { ""coordinates"": [ -0.47589442, 51.73988511 ] } },"
Aldi,Stevenage,Central Stevenage,Hertfordshire,SG1 1FZ,-0.203886735,51.90555429,"{ ""tooltip"": ""Aldi<br/>Stevenage<br/>Hertfordshire<br/>SG1 1FZ"", ""geometry"": { ""coordinates"": [ -0.203886735, 51.90555429 ] } },"
Aldi,Bishop's Stortford,Hockerill,Hertfordshire,CM23 5NF,0.165763115,51.86731701,"{ ""tooltip"": ""Aldi<br/>Bishop's Stortford<br/>Hertfordshire<br/>CM23 5NF"", ""geometry"": { ""coordinates"": [ 0.165763115, 51.86731701 ] } },"
Aldi,Hertford,Bengeo,Hertfordshire,SG14 1LH,-0.083733485,51.7953063,"{ ""tooltip"": ""Aldi<br/>Hertford<br/>Hertfordshire<br/>SG14 1LH"", ""geometry"": { ""coordinates"": [ -0.083733485, 51.7953063 ] } },"
Aldi,Letchworth,Lordship Estate,Hertfordshire,SG6 2HU,-0.207483529,51.97836912,"{ ""tooltip"": ""Aldi<br/>Letchworth<br/>Hertfordshire<br/>SG6 2HU"", ""geometry"": { ""coordinates"": [ -0.207483529, 51.97836912 ] } },"
Aldi,Watford,Watford Heath,Hertfordshire,WD17 2SF,-0.389766255,51.64945491,"{ ""tooltip"": ""Aldi<br/>Watford<br/>Hertfordshire<br/>WD17 2SF"", ""geometry"": { ""coordinates"": [ -0.389766255, 51.64945491 ] } },"
Aldi,Royston£ Hertfordshire,,Hertfordshire,SG8 5HN,-0.040594868,52.05516531,"{ ""tooltip"": ""Aldi<br/>Royston£ Hertfordshire<br/>Hertfordshire<br/>SG8 5HN"", ""geometry"": { ""coordinates"": [ -0.040594868, 52.05516531 ] } },"
Aldi,Alloa,Bowhouse,Clackmannanshire,FK10 3SE,-3.785137425,56.11776296,"{ ""tooltip"": ""Aldi<br/>Alloa<br/>Clackmannanshire<br/>FK10 3SE"", ""geometry"": { ""coordinates"": [ -3.785137425, 56.11776296 ] } },"
Aldi,Bristol,Fishponds,Bristol City of,BS16 3HJ,-2.533752409,51.47815071,"{ ""tooltip"": ""Aldi<br/>Bristol<br/>Bristol City of<br/>BS16 3HJ"", ""geometry"": { ""coordinates"": [ -2.533752409, 51.47815071 ] } },"
Aldi,Bristol,Lockleaze,Bristol City of,BS7 9NZ,-2.576395294,51.481415,"{ ""tooltip"": ""Aldi<br/>Bristol<br/>Bristol City of<br/>BS7 9NZ"", ""geometry"": { ""coordinates"": [ -2.576395294, 51.481415 ] } },"
Aldi,Bristol,Southmead,Bristol City of,BS10 6AS,-2.603357788,51.50325515,"{ ""tooltip"": ""Aldi<br/>Bristol<br/>Bristol City of<br/>BS10 6AS"", ""geometry"": { ""coordinates"": [ -2.603357788, 51.50325515 ] } },"
Aldi,Bristol,Easton,Bristol City of,BS5 9HT,-2.552409392,51.45985446,"{ ""tooltip"": ""Aldi<br/>Bristol<br/>Bristol City of<br/>BS5 9HT"", ""geometry"": { ""coordinates"": [ -2.552409392, 51.45985446 ] } },"
Aldi,Bristol,Southville,Bristol City of,BS3 1JA,-2.614183709,51.44281661,"{ ""tooltip"": ""Aldi<br/>Bristol<br/>Bristol City of<br/>BS3 1JA"", ""geometry"": { ""coordinates"": [ -2.614183709, 51.44281661 ] } },"
Aldi,Bristol,Brentry,Bristol City of,BS10 7EN,-2.625342221,51.50780677,"{ ""tooltip"": ""Aldi<br/>Bristol<br/>Bristol City of<br/>BS10 7EN"", ""geometry"": { ""coordinates"": [ -2.625342221, 51.50780677 ] } },"
Aldi,Market Harborough,Little Bowden,Leicestershire,LE16 8BD,-0.914124447,52.47737124,"{ ""tooltip"": ""Aldi<br/>Market Harborough<br/>Leicestershire<br/>LE16 8BD"", ""geometry"": { ""coordinates"": [ -0.914124447, 52.47737124 ] } },"
Aldi,Melton Mowbray,South Melton Mowbray,Leicestershire,LE13 0DA,-0.894520912,52.76166748,"{ ""tooltip"": ""Aldi<br/>Melton Mowbray<br/>Leicestershire<br/>LE13 0DA"", ""geometry"": { ""coordinates"": [ -0.894520912, 52.76166748 ] } },"
Aldi,Hinckley,Central Hinckley,Leicestershire,LE10 1QW,-1.370091056,52.54352285,"{ ""tooltip"": ""Aldi<br/>Hinckley<br/>Leicestershire<br/>LE10 1QW"", ""geometry"": { ""coordinates"": [ -1.370091056, 52.54352285 ] } },"
Aldi,Hinckley,Coventry Road,Leicestershire,LE10 3ED,-1.416889502,52.53648816,"{ ""tooltip"": ""Aldi<br/>Hinckley<br/>Leicestershire<br/>LE10 3ED"", ""geometry"": { ""coordinates"": [ -1.416889502, 52.53648816 ] } },"
Aldi,Coalville,Hugglescote,Leicestershire,LE67 3NU,-1.375322864,52.73103529,"{ ""tooltip"": ""Aldi<br/>Coalville<br/>Leicestershire<br/>LE67 3NU"", ""geometry"": { ""coordinates"": [ -1.375322864, 52.73103529 ] } },"
Aldi,Ashby-de-la-Zouch,,Leicestershire,LE65 1JS,-1.454081915,52.75041411,"{ ""tooltip"": ""Aldi<br/>Ashby-de-la-Zouch<br/>Leicestershire<br/>LE65 1JS"", ""geometry"": { ""coordinates"": [ -1.454081915, 52.75041411 ] } },"
Aldi,Leicester,Wigston,Leicestershire,LE18 1PA,-1.104038486,52.58446301,"{ ""tooltip"": ""Aldi<br/>Leicester<br/>Leicestershire<br/>LE18 1PA"", ""geometry"": { ""coordinates"": [ -1.104038486, 52.58446301 ] } },"
Aldi,Leicester,Spinney Hills,Leicestershire,LE1 1SG,-1.120111423,52.63605351,"{ ""tooltip"": ""Aldi<br/>Leicester<br/>Leicestershire<br/>LE1 1SG"", ""geometry"": { ""coordinates"": [ -1.120111423, 52.63605351 ] } },"
Aldi,Leicester,Thorpe Astley,Leicestershire,LE19 1LW,-1.191176256,52.61526964,"{ ""tooltip"": ""Aldi<br/>Leicester<br/>Leicestershire<br/>LE19 1LW"", ""geometry"": { ""coordinates"": [ -1.191176256, 52.61526964 ] } },"
Aldi,Blaby,Blaby,Leicestershire,LE8 4HY,-1.162605887,52.57425986,"{ ""tooltip"": ""Aldi<br/>Blaby<br/>Leicestershire<br/>LE8 4HY"", ""geometry"": { ""coordinates"": [ -1.162605887, 52.57425986 ] } },"
Aldi,Leicester,Aylestone,Leicestershire,LE2 8TD,-1.150141846,52.60759131,"{ ""tooltip"": ""Aldi<br/>Leicester<br/>Leicestershire<br/>LE2 8TD"", ""geometry"": { ""coordinates"": [ -1.150141846, 52.60759131 ] } },"
Aldi,Leicester,Abbey Park,Leicestershire,LE3 5GH,-1.147481241,52.64429103,"{ ""tooltip"": ""Aldi<br/>Leicester<br/>Leicestershire<br/>LE3 5GH"", ""geometry"": { ""coordinates"": [ -1.147481241, 52.64429103 ] } },"
Aldi,Broughton Astley,,Leicestershire,LE9 6TH,-1.219682192,52.53197428,"{ ""tooltip"": ""Aldi<br/>Broughton Astley<br/>Leicestershire<br/>LE9 6TH"", ""geometry"": { ""coordinates"": [ -1.219682192, 52.53197428 ] } },"
Aldi,Leicester,Abbey Park,Leicestershire,LE4 0BR,-1.139142396,52.65220214,"{ ""tooltip"": ""Aldi<br/>Leicester<br/>Leicestershire<br/>LE4 0BR"", ""geometry"": { ""coordinates"": [ -1.139142396, 52.65220214 ] } },"
Aldi,Syston£ Leicestershire,,Leicestershire,LE7 2JT,-1.075905542,52.69642426,"{ ""tooltip"": ""Aldi<br/>Syston£ Leicestershire<br/>Leicestershire<br/>LE7 2JT"", ""geometry"": { ""coordinates"": [ -1.075905542, 52.69642426 ] } },"
Aldi,Leicester,Thurmaston,Leicestershire,LE4 9LP,-1.081678317,52.65760217,"{ ""tooltip"": ""Aldi<br/>Leicester<br/>Leicestershire<br/>LE4 9LP"", ""geometry"": { ""coordinates"": [ -1.081678317, 52.65760217 ] } },"
Aldi,Loughborough,Nanpantan,Leicestershire,LE11 2FE,-1.199182007,52.75480234,"{ ""tooltip"": ""Aldi<br/>Loughborough<br/>Leicestershire<br/>LE11 2FE"", ""geometry"": { ""coordinates"": [ -1.199182007, 52.75480234 ] } },"
Aldi,Loughborough,Derby Road,Leicestershire,LE11 1JA,-1.211118887,52.77976876,"{ ""tooltip"": ""Aldi<br/>Loughborough<br/>Leicestershire<br/>LE11 1JA"", ""geometry"": { ""coordinates"": [ -1.211118887, 52.77976876 ] } },"
Aldi,Newton le Willows,Wargrave,Merseyside,WA12 8AS,-2.626304367,53.44244049,"{ ""tooltip"": ""Aldi<br/>Newton le Willows<br/>Merseyside<br/>WA12 8AS"", ""geometry"": { ""coordinates"": [ -2.626304367, 53.44244049 ] } },"
Aldi,Birkenhead,Prenton,Merseyside,CH42 8PG,-3.048957383,53.37371001,"{ ""tooltip"": ""Aldi<br/>Birkenhead<br/>Merseyside<br/>CH42 8PG"", ""geometry"": { ""coordinates"": [ -3.048957383, 53.37371001 ] } },"
Aldi,Birkenhead,Claughton,Merseyside,CH44 2HE,-3.072476896,53.4121685,"{ ""tooltip"": ""Aldi<br/>Birkenhead<br/>Merseyside<br/>CH44 2HE"", ""geometry"": { ""coordinates"": [ -3.072476896, 53.4121685 ] } },"
Aldi,Heswall,Heswall,Merseyside,CH60 5TR,-3.096890083,53.32918968,"{ ""tooltip"": ""Aldi<br/>Heswall<br/>Merseyside<br/>CH60 5TR"", ""geometry"": { ""coordinates"": [ -3.096890083, 53.32918968 ] } },"
Aldi,Birkenhead,Claughton,Merseyside,CH41 8DB,-3.04874801,53.39856602,"{ ""tooltip"": ""Aldi<br/>Birkenhead<br/>Merseyside<br/>CH41 8DB"", ""geometry"": { ""coordinates"": [ -3.04874801, 53.39856602 ] } },"
Aldi,Moreton,Moreton,Merseyside,CH46 9PD,-3.099465311,53.40399586,"{ ""tooltip"": ""Aldi<br/>Moreton<br/>Merseyside<br/>CH46 9PD"", ""geometry"": { ""coordinates"": [ -3.099465311, 53.40399586 ] } },"
Aldi,West Kirby,West Kirby,Merseyside,CH48 5EX,-3.18446223,53.37429989,"{ ""tooltip"": ""Aldi<br/>West Kirby<br/>Merseyside<br/>CH48 5EX"", ""geometry"": { ""coordinates"": [ -3.18446223, 53.37429989 ] } },"
Aldi,Southport,Meols Cop,Merseyside,PR9 7RG,-2.969136096,53.63433021,"{ ""tooltip"": ""Aldi<br/>Southport<br/>Merseyside<br/>PR9 7RG"", ""geometry"": { ""coordinates"": [ -2.969136096, 53.63433021 ] } },"
Aldi,Southport,Birkdale,Merseyside,PR8 4NY,-3.013911384,53.623425,"{ ""tooltip"": ""Aldi<br/>Southport<br/>Merseyside<br/>PR8 4NY"", ""geometry"": { ""coordinates"": [ -3.013911384, 53.623425 ] } },"
Aldi,Liverpool,Old Swan,Merseyside,L13 5SG,-2.912808014,53.41254252,"{ ""tooltip"": ""Aldi<br/>Liverpool<br/>Merseyside<br/>L13 5SG"", ""geometry"": { ""coordinates"": [ -2.912808014, 53.41254252 ] } },"
Aldi,Liverpool,Kirkdale,Merseyside,L4 4BZ,-2.971007091,53.43599022,"{ ""tooltip"": ""Aldi<br/>Liverpool<br/>Merseyside<br/>L4 4BZ"", ""geometry"": { ""coordinates"": [ -2.971007091, 53.43599022 ] } },"
Aldi,Liverpool,Central Liverpool,Merseyside,L1 1LS,-2.980276312,53.40664383,"{ ""tooltip"": ""Aldi<br/>Liverpool<br/>Merseyside<br/>L1 1LS"", ""geometry"": { ""coordinates"": [ -2.980276312, 53.40664383 ] } },"
Aldi,Liverpool,Fincham,Merseyside,L14 2DE,-2.886224993,53.41960013,"{ ""tooltip"": ""Aldi<br/>Liverpool<br/>Merseyside<br/>L14 2DE"", ""geometry"": { ""coordinates"": [ -2.886224993, 53.41960013 ] } },"
Aldi,Liverpool,Norris Green,Merseyside,L11 1BE,-2.927184034,53.44221856,"{ ""tooltip"": ""Aldi<br/>Liverpool<br/>Merseyside<br/>L11 1BE"", ""geometry"": { ""coordinates"": [ -2.927184034, 53.44221856 ] } },"
Aldi,Liverpool,Tuebrook,Merseyside,L13 0DL,-2.917223726,53.42565763,"{ ""tooltip"": ""Aldi<br/>Liverpool<br/>Merseyside<br/>L13 0DL"", ""geometry"": { ""coordinates"": [ -2.917223726, 53.42565763 ] } },"
Aldi,Liverpool,Wavertree,Merseyside,L15 2HF,-2.935224616,53.39452022,"{ ""tooltip"": ""Aldi<br/>Liverpool<br/>Merseyside<br/>L15 2HF"", ""geometry"": { ""coordinates"": [ -2.935224616, 53.39452022 ] } },"
Aldi,Liverpool,Walton,Merseyside,L9 1ET,-2.965164652,53.45249025,"{ ""tooltip"": ""Aldi<br/>Liverpool<br/>Merseyside<br/>L9 1ET"", ""geometry"": { ""coordinates"": [ -2.965164652, 53.45249025 ] } },"
Aldi,Liverpool,Crosby,Merseyside,L23 4TW,-3.007085494,53.49980389,"{ ""tooltip"": ""Aldi<br/>Liverpool<br/>Merseyside<br/>L23 4TW"", ""geometry"": { ""coordinates"": [ -3.007085494, 53.49980389 ] } },"
Aldi,Liverpool,Netherton,Merseyside,L30 6UH,-2.967959824,53.48251279,"{ ""tooltip"": ""Aldi<br/>Liverpool<br/>Merseyside<br/>L30 6UH"", ""geometry"": { ""coordinates"": [ -2.967959824, 53.48251279 ] } },"
Aldi,Liverpool,Fazakerley,Merseyside,L10 0AE,-2.916048346,53.4695244,"{ ""tooltip"": ""Aldi<br/>Liverpool<br/>Merseyside<br/>L10 0AE"", ""geometry"": { ""coordinates"": [ -2.916048346, 53.4695244 ] } },"
Aldi,Liverpool,Bootle,Merseyside,L20 5JJ,-2.994412533,53.45495723,"{ ""tooltip"": ""Aldi<br/>Liverpool<br/>Merseyside<br/>L20 5JJ"", ""geometry"": { ""coordinates"": [ -2.994412533, 53.45495723 ] } },"
Aldi,Birkenhead,New Ferry,Merseyside,CH62 5BG,-3.001862056,53.35817709,"{ ""tooltip"": ""Aldi<br/>Birkenhead<br/>Merseyside<br/>CH62 5BG"", ""geometry"": { ""coordinates"": [ -3.001862056, 53.35817709 ] } },"
Aldi,Liverpool,Garston,Merseyside,L19 0NE,-2.909593495,53.35862149,"{ ""tooltip"": ""Aldi<br/>Liverpool<br/>Merseyside<br/>L19 0NE"", ""geometry"": { ""coordinates"": [ -2.909593495, 53.35862149 ] } },"
Aldi,Bromborough,Bromborough,Merseyside,CH62 4TG,-2.984943965,53.34743442,"{ ""tooltip"": ""Aldi<br/>Bromborough<br/>Merseyside<br/>CH62 4TG"", ""geometry"": { ""coordinates"": [ -2.984943965, 53.34743442 ] } },"
Aldi,Haydock,Blackbrook,Merseyside,WA11 0QW,-2.667381505,53.46661703,"{ ""tooltip"": ""Aldi<br/>Haydock<br/>Merseyside<br/>WA11 0QW"", ""geometry"": { ""coordinates"": [ -2.667381505, 53.46661703 ] } },"
Aldi,St Helens,Central St Helens,Merseyside,WA9 1JJ,-2.7254035,53.44893159,"{ ""tooltip"": ""Aldi<br/>St Helens<br/>Merseyside<br/>WA9 1JJ"", ""geometry"": { ""coordinates"": [ -2.7254035, 53.44893159 ] } },"
Aldi,St Helens,Central St Helens,Merseyside,WA10 1QA,-2.743506937,53.4517379,"{ ""tooltip"": ""Aldi<br/>St Helens<br/>Merseyside<br/>WA10 1QA"", ""geometry"": { ""coordinates"": [ -2.743506937, 53.4517379 ] } },"
Aldi,St Helens,Clock Face,Merseyside,WA9 4LE,-2.719774837,53.42206181,"{ ""tooltip"": ""Aldi<br/>St Helens<br/>Merseyside<br/>WA9 4LE"", ""geometry"": { ""coordinates"": [ -2.719774837, 53.42206181 ] } },"
Aldi,Liverpool,Halewood,Merseyside,L26 0TX,-2.829906968,53.36074404,"{ ""tooltip"": ""Aldi<br/>Liverpool<br/>Merseyside<br/>L26 0TX"", ""geometry"": { ""coordinates"": [ -2.829906968, 53.36074404 ] } },"
Aldi,Liverpool,Woolton,Merseyside,L25 1PD,-2.872089251,53.39113864,"{ ""tooltip"": ""Aldi<br/>Liverpool<br/>Merseyside<br/>L25 1PD"", ""geometry"": { ""coordinates"": [ -2.872089251, 53.39113864 ] } },"
Aldi,Liverpool,Huyton,Merseyside,L35 1QT,-2.814763655,53.398648,"{ ""tooltip"": ""Aldi<br/>Liverpool<br/>Merseyside<br/>L35 1QT"", ""geometry"": { ""coordinates"": [ -2.814763655, 53.398648 ] } },"
Aldi,Northampton,Central Northampton,Northamptonshire,NN1 1BQ,-0.901628102,52.23139901,"{ ""tooltip"": ""Aldi<br/>Northampton<br/>Northamptonshire<br/>NN1 1BQ"", ""geometry"": { ""coordinates"": [ -0.901628102, 52.23139901 ] } },"
Aldi,Northampton,Central Northampton,Northamptonshire,NN1 3AU,-0.891803853,52.24138324,"{ ""tooltip"": ""Aldi<br/>Northampton<br/>Northamptonshire<br/>NN1 3AU"", ""geometry"": { ""coordinates"": [ -0.891803853, 52.24138324 ] } },"
Aldi,Northampton,Kingsthorpe,Northamptonshire,NN2 6NJ,-0.901517297,52.25579859,"{ ""tooltip"": ""Aldi<br/>Northampton<br/>Northamptonshire<br/>NN2 6NJ"", ""geometry"": { ""coordinates"": [ -0.901517297, 52.25579859 ] } },"
Aldi,Northampton,Headlands,Northamptonshire,NN3 3JB,-0.847848973,52.25151324,"{ ""tooltip"": ""Aldi<br/>Northampton<br/>Northamptonshire<br/>NN3 3JB"", ""geometry"": { ""coordinates"": [ -0.847848973, 52.25151324 ] } },"
Aldi,Towcester,,Northamptonshire,NN12 8AX,-0.99660368,52.13817888,"{ ""tooltip"": ""Aldi<br/>Towcester<br/>Northamptonshire<br/>NN12 8AX"", ""geometry"": { ""coordinates"": [ -0.99660368, 52.13817888 ] } },"
Aldi,Northampton,Duston,Northamptonshire,NN5 7AE,-0.915070393,52.24098058,"{ ""tooltip"": ""Aldi<br/>Northampton<br/>Northamptonshire<br/>NN5 7AE"", ""geometry"": { ""coordinates"": [ -0.915070393, 52.24098058 ] } },"
Aldi,Corby,Earlstrees Industry,Northamptonshire,NN17 4AE,-0.70399393,52.50705618,"{ ""tooltip"": ""Aldi<br/>Corby<br/>Northamptonshire<br/>NN17 4AE"", ""geometry"": { ""coordinates"": [ -0.70399393, 52.50705618 ] } },"
Aldi,Corby,Oakley Vale,Northamptonshire,NN18 9EZ,-0.735300011,52.46060871,"{ ""tooltip"": ""Aldi<br/>Corby<br/>Northamptonshire<br/>NN18 9EZ"", ""geometry"": { ""coordinates"": [ -0.735300011, 52.46060871 ] } },"
Aldi,Kettering,Pytchley Road,Northamptonshire,NN15 6YA,-0.719722938,52.37494646,"{ ""tooltip"": ""Aldi<br/>Kettering<br/>Northamptonshire<br/>NN15 6YA"", ""geometry"": { ""coordinates"": [ -0.719722938, 52.37494646 ] } },"
Aldi,Wellingborough,Central Wellingborough,Northamptonshire,NN8 1HH,-0.689161427,52.30195943,"{ ""tooltip"": ""Aldi<br/>Wellingborough<br/>Northamptonshire<br/>NN8 1HH"", ""geometry"": { ""coordinates"": [ -0.689161427, 52.30195943 ] } },"
Aldi,Irthlingborough,,Northamptonshire,NN9 5GF,-0.601625713,52.32885414,"{ ""tooltip"": ""Aldi<br/>Irthlingborough<br/>Northamptonshire<br/>NN9 5GF"", ""geometry"": { ""coordinates"": [ -0.601625713, 52.32885414 ] } },"
Aldi,Kettering,Kettering,Northamptonshire,NN16 9XW,-0.735586995,52.40521433,"{ ""tooltip"": ""Aldi<br/>Kettering<br/>Northamptonshire<br/>NN16 9XW"", ""geometry"": { ""coordinates"": [ -0.735586995, 52.40521433 ] } },"
Aldi,Daventry,,Northamptonshire,NN11 4AB,-1.163638341,52.25634772,"{ ""tooltip"": ""Aldi<br/>Daventry<br/>Northamptonshire<br/>NN11 4AB"", ""geometry"": { ""coordinates"": [ -1.163638341, 52.25634772 ] } },"
Aldi,Worksop,Kilton,Nottinghamshire,S80 1UD,-1.126775711,53.31076857,"{ ""tooltip"": ""Aldi<br/>Worksop<br/>Nottinghamshire<br/>S80 1UD"", ""geometry"": { ""coordinates"": [ -1.126775711, 53.31076857 ] } },"
Aldi,Mansfield,Central Mansfield,Nottinghamshire,NG19 9AQ,-1.19143353,53.15666449,"{ ""tooltip"": ""Aldi<br/>Mansfield<br/>Nottinghamshire<br/>NG19 9AQ"", ""geometry"": { ""coordinates"": [ -1.19143353, 53.15666449 ] } },"
Aldi,Nottingham,Sneinton,Nottinghamshire,NG2 3GG,-1.124894584,52.94692484,"{ ""tooltip"": ""Aldi<br/>Nottingham<br/>Nottinghamshire<br/>NG2 3GG"", ""geometry"": { ""coordinates"": [ -1.124894584, 52.94692484 ] } },"
Aldi,Nottingham,Basford,Nottinghamshire,NG5 1EL,-1.169549856,52.97877239,"{ ""tooltip"": ""Aldi<br/>Nottingham<br/>Nottinghamshire<br/>NG5 1EL"", ""geometry"": { ""coordinates"": [ -1.169549856, 52.97877239 ] } },"
Aldi,Nottingham,Bestwood,Nottinghamshire,NG6 9GD,-1.179593336,52.99683999,"{ ""tooltip"": ""Aldi<br/>Nottingham<br/>Nottinghamshire<br/>NG6 9GD"", ""geometry"": { ""coordinates"": [ -1.179593336, 52.99683999 ] } },"
Aldi,Nottingham,St Anns,Nottinghamshire,NG1 3NL,-1.145542293,52.958317,"{ ""tooltip"": ""Aldi<br/>Nottingham<br/>Nottinghamshire<br/>NG1 3NL"", ""geometry"": { ""coordinates"": [ -1.145542293, 52.958317 ] } },"
Aldi,Nottingham,Hyson Green,Nottinghamshire,NG7 5QJ,-1.178506962,52.96112823,"{ ""tooltip"": ""Aldi<br/>Nottingham<br/>Nottinghamshire<br/>NG7 5QJ"", ""geometry"": { ""coordinates"": [ -1.178506962, 52.96112823 ] } },"
Aldi,Nottingham,Mapperley,Nottinghamshire,NG3 5GG,-1.130039692,52.98093847,"{ ""tooltip"": ""Aldi<br/>Nottingham<br/>Nottinghamshire<br/>NG3 5GG"", ""geometry"": { ""coordinates"": [ -1.130039692, 52.98093847 ] } },"
Aldi,Nottingham,West Bridgford,Nottinghamshire,NG12 4GF,-1.121308536,52.90223709,"{ ""tooltip"": ""Aldi<br/>Nottingham<br/>Nottinghamshire<br/>NG12 4GF"", ""geometry"": { ""coordinates"": [ -1.121308536, 52.90223709 ] } },"
Aldi,Nottingham,Sherwood,Nottinghamshire,NG5 6BH,-1.138777909,52.9993127,"{ ""tooltip"": ""Aldi<br/>Nottingham<br/>Nottinghamshire<br/>NG5 6BH"", ""geometry"": { ""coordinates"": [ -1.138777909, 52.9993127 ] } },"
Aldi,Nottingham,Bulwell,Nottinghamshire,NG6 8GE,-1.209111517,53.00448848,"{ ""tooltip"": ""Aldi<br/>Nottingham<br/>Nottinghamshire<br/>NG6 8GE"", ""geometry"": { ""coordinates"": [ -1.209111517, 53.00448848 ] } },"
Aldi,Nottingham,Aspley,Nottinghamshire,NG8 6BF,-1.236607706,52.97990781,"{ ""tooltip"": ""Aldi<br/>Nottingham<br/>Nottinghamshire<br/>NG8 6BF"", ""geometry"": { ""coordinates"": [ -1.236607706, 52.97990781 ] } },"
Aldi,Hucknall,Hucknall,Nottinghamshire,NG15 7UQ,-1.195981835,53.03330033,"{ ""tooltip"": ""Aldi<br/>Hucknall<br/>Nottinghamshire<br/>NG15 7UQ"", ""geometry"": { ""coordinates"": [ -1.195981835, 53.03330033 ] } },"
Aldi,Stapleford£ Nottinghamshire,,Nottinghamshire,NG9 8AD,-1.271199184,52.93132739,"{ ""tooltip"": ""Aldi<br/>Stapleford£ Nottinghamshire<br/>Nottinghamshire<br/>NG9 8AD"", ""geometry"": { ""coordinates"": [ -1.271199184, 52.93132739 ] } },"
Aldi,Harworth,,Nottinghamshire,DN11 8JT,-1.06523998,53.41656272,"{ ""tooltip"": ""Aldi<br/>Harworth<br/>Nottinghamshire<br/>DN11 8JT"", ""geometry"": { ""coordinates"": [ -1.06523998, 53.41656272 ] } },"
Aldi,Retford,Retford,Nottinghamshire,DN22 6EH,-0.940705746,53.31943407,"{ ""tooltip"": ""Aldi<br/>Retford<br/>Nottinghamshire<br/>DN22 6EH"", ""geometry"": { ""coordinates"": [ -0.940705746, 53.31943407 ] } },"
Aldi,Newark,Central Newark,Nottinghamshire,NG24 1HD,-0.808628258,53.0805523,"{ ""tooltip"": ""Aldi<br/>Newark<br/>Nottinghamshire<br/>NG24 1HD"", ""geometry"": { ""coordinates"": [ -0.808628258, 53.0805523 ] } },"
Aldi,Bingham,,Nottinghamshire,NG13 8AW,-0.963823722,52.95086126,"{ ""tooltip"": ""Aldi<br/>Bingham<br/>Nottinghamshire<br/>NG13 8AW"", ""geometry"": { ""coordinates"": [ -0.963823722, 52.95086126 ] } },"
Aldi,Sutton in Ashfield,Sutton Forest Side,Nottinghamshire,NG17 4HW,-1.236889044,53.13258901,"{ ""tooltip"": ""Aldi<br/>Sutton in Ashfield<br/>Nottinghamshire<br/>NG17 4HW"", ""geometry"": { ""coordinates"": [ -1.236889044, 53.13258901 ] } },"
Aldi,Sutton in Ashfield,Carsic Estate,Nottinghamshire,NG17 5FF,-1.254617823,53.12202238,"{ ""tooltip"": ""Aldi<br/>Sutton in Ashfield<br/>Nottinghamshire<br/>NG17 5FF"", ""geometry"": { ""coordinates"": [ -1.254617823, 53.12202238 ] } },"
Aldi,Mansfield,Berry Hill,Nottinghamshire,NG18 1BW,-1.199330059,53.13435963,"{ ""tooltip"": ""Aldi<br/>Mansfield<br/>Nottinghamshire<br/>NG18 1BW"", ""geometry"": { ""coordinates"": [ -1.199330059, 53.13435963 ] } },"
Aldi,Mansfield,Berry Hill,Nottinghamshire,NG18 4GF,-1.148518815,53.12645056,"{ ""tooltip"": ""Aldi<br/>Mansfield<br/>Nottinghamshire<br/>NG18 4GF"", ""geometry"": { ""coordinates"": [ -1.148518815, 53.12645056 ] } },"
Aldi,Kirkby in Ashfield,West Kirkby in Ashfield,Nottinghamshire,NG17 8DA,-1.251630256,53.10025596,"{ ""tooltip"": ""Aldi<br/>Kirkby in Ashfield<br/>Nottinghamshire<br/>NG17 8DA"", ""geometry"": { ""coordinates"": [ -1.251630256, 53.10025596 ] } },"
Aldi,Oxford,Botley,Oxfordshire,OX2 0HA,-1.289227816,51.75182042,"{ ""tooltip"": ""Aldi<br/>Oxford<br/>Oxfordshire<br/>OX2 0HA"", ""geometry"": { ""coordinates"": [ -1.289227816, 51.75182042 ] } },"
Aldi,Oxford,Cowley,Oxfordshire,OX3 7JN,-1.197226774,51.74137104,"{ ""tooltip"": ""Aldi<br/>Oxford<br/>Oxfordshire<br/>OX3 7JN"", ""geometry"": { ""coordinates"": [ -1.197226774, 51.74137104 ] } },"
Aldi,Didcot,South Didcot,Oxfordshire,OX11 8ES,-1.23125198,51.60701833,"{ ""tooltip"": ""Aldi<br/>Didcot<br/>Oxfordshire<br/>OX11 8ES"", ""geometry"": { ""coordinates"": [ -1.23125198, 51.60701833 ] } },"
Aldi,Faringdon,,Oxfordshire,SN7 7GQ,-1.574689445,51.65094675,"{ ""tooltip"": ""Aldi<br/>Faringdon<br/>Oxfordshire<br/>SN7 7GQ"", ""geometry"": { ""coordinates"": [ -1.574689445, 51.65094675 ] } },"
Aldi,Carterton,,Oxfordshire,OX18 3JH,-1.597283304,51.75849979,"{ ""tooltip"": ""Aldi<br/>Carterton<br/>Oxfordshire<br/>OX18 3JH"", ""geometry"": { ""coordinates"": [ -1.597283304, 51.75849979 ] } },"
Aldi,Bicester,Central Bicester,Oxfordshire,OX26 6PZ,-1.140846416,51.89873281,"{ ""tooltip"": ""Aldi<br/>Bicester<br/>Oxfordshire<br/>OX26 6PZ"", ""geometry"": { ""coordinates"": [ -1.140846416, 51.89873281 ] } },"
Aldi,Banbury,Ruscote,Oxfordshire,OX16 7GU,-1.346161832,52.07080142,"{ ""tooltip"": ""Aldi<br/>Banbury<br/>Oxfordshire<br/>OX16 7GU"", ""geometry"": { ""coordinates"": [ -1.346161832, 52.07080142 ] } },"
Aldi,Chipping Norton,,Oxfordshire,OX7 5ET,-1.537731561,51.94577543,"{ ""tooltip"": ""Aldi<br/>Chipping Norton<br/>Oxfordshire<br/>OX7 5ET"", ""geometry"": { ""coordinates"": [ -1.537731561, 51.94577543 ] } },"
